{"type":"FeatureCollection","features":[{"type":"Feature","geometry":{"type":"Point","coordinates":[-58.008746,-35.575958,0]},"properties":{"name":"CONSIGNATORIO DE HACIENDA","description":{"@type":"html","value":"descripción: Descripción: DAMAJO SRL<br>CONSIGNATORIO DE HACIENDA<br>ARENALES 301, Chascomús, Buenos Aires<br>Barrio: CENTRO<br>Padrón: A4-0401<br>Estado: VIGENTE<br>NOMBRE / COMERCIO: DAMAJO SRL<br>CUIT: 33-70991357-9<br>CONTACTO: <br>CATEGORÍA FISCAL: SRL<br>DIRECCIÓN: ARENALES 301<br>BARRIO: CENTRO<br>RUBRO: CONSIGNATORIO DE HACIENDA<br>RUBRO NORMALIZADO: CONSIGNATORIO DE HACIENDA<br>CATEGORIA: CAMPO Y AGRO<br>PADRÓN N°: A4-0401<br>INSPECTOR/A: SOFIA- IRMA<br>ÚLTIMA VISITA: 2025-03-20<br>VENC. HABILITACIÓN: 07/05/2028<br>ESTADO: VIGENTE<br>OBSERVACIONES: HABILITACION VIGENTE<br>styleUrl: #icon-1899-7CB342<br>icon-opacity: 1<br>icon-color: #7cb342<br>icon-scale: 1<br>icon-offset: [32,64]<br>icon-offset-units: [\"pixels\",\"insetPixels\"]<br>icon: https://www.gstatic.com/mapspro/images/stock/503-wht-blank_maps.png<br>Descripción: DAMAJO SRL<br>CONSIGNATORIO DE HACIENDA<br>ARENALES 301, Chascomús, Buenos Aires<br>Barrio: CENTRO<br>Padrón: A4-0401<br>Estado: VIGENTE<br>NOMBRE / COMERCIO: DAMAJO SRL<br>CUIT: 33-70991357-9<br>CONTACTO: <br>CATEGORÍA FISCAL: SRL<br>DIRECCIÓN: ARENALES 301<br>BARRIO: CENTRO<br>RUBRO: CONSIGNATORIO DE HACIENDA<br>RUBRO NORMALIZADO: CONSIGNATORIO DE HACIENDA<br>CATEGORIA: CAMPO Y AGRO<br>PADRÓN N°: A4-0401<br>INSPECTOR/A: SOFIA- IRMA<br>ÚLTIMA VISITA: 2025-03-20<br>VENC. HABILITACIÓN: 07/05/2028<br>ESTADO: VIGENTE<br>OBSERVACIONES: HABILITACION VIGENTE"},"styleUrl":"#icon-1899-7CB342","label-scale":0,"icon-opacity":"1","icon-color":"#7cb342","icon-scale":"1","icon-offset":"[32,64]","icon-offset-units":"[\"pixels\",\"insetPixels\"]","icon":"https://www.gstatic.com/mapspro/images/stock/503-wht-blank_maps.png","descripción":"Descripción: DAMAJO SRL\nCONSIGNATORIO DE HACIENDA\nARENALES 301, Chascomús, Buenos Aires\nBarrio: CENTRO\nPadrón: A4-0401\nEstado: VIGENTE\nNOMBRE / COMERCIO: DAMAJO SRL\nCUIT: 33-70991357-9\nCONTACTO: 2241553746\nCATEGORÍA FISCAL: SRL\nDIRECCIÓN: ARENALES 301, Chascomús, Buenos Aires\nBARRIO: CENTRO\nRUBRO: CONSIGNATORIO DE HACIENDA\nRUBRO NORMALIZADO: CONSIGNATORIO DE HACIENDA\nCATEGORIA: CAMPO Y AGRO\nPADRÓN N°: A4-0401\nINSPECTOR/A: SOFIA- IRMA\nÚLTIMA VISITA: 2025-03-20\nVENC. HABILITACIÓN: 2028-05-07\nESTADO: VIGENTE\nOBSERVACIONES: HABILITACION VIGENTE","Descripción":"DAMAJO SRL\nCONSIGNATORIO DE HACIENDA\nARENALES 301, Chascomús, Buenos Aires\nBarrio: CENTRO\nPadrón: A4-0401\nEstado: VIGENTE","NOMBRE / COMERCIO":"DAMAJO SRL","CUIT":"33-70991357-9","CONTACTO":"2241553746","CATEGORÍA FISCAL":"SRL","DIRECCIÓN":"ARENALES 301","BARRIO":"CENTRO","RUBRO":"CONSIGNATORIO DE HACIENDA","RUBRO NORMALIZADO":"CONSIGNATORIO DE HACIENDA","CATEGORIA":"CAMPO Y AGRO","PADRÓN N°":"A4-0401","INSPECTOR/A":"SOFIA- IRMA","ÚLTIMA VISITA":"2025-03-20","VENC. HABILITACIÓN":"07/05/2028","ESTADO":"VIGENTE","OBSERVACIONES":"HABILITACION VIGENTE"}},{"type":"Feature","geometry":{"type":"Point","coordinates":[-58.013854,-35.571682,0]},"properties":{"name":"FORRAJERIA","description":{"@type":"html","value":"descripción: OBSERVACIONES: POSEE HABILITACION COMERCIAL VIGENTE CON VTO 6/3/27<br>styleUrl: #icon-1899-7CB342<br>icon-opacity: 1<br>icon-color: #7cb342<br>icon-scale: 1<br>icon-offset: [32,64]<br>icon-offset-units: [\"pixels\",\"insetPixels\"]<br>icon: https://www.gstatic.com/mapspro/images/stock/503-wht-blank_maps.png<br>Descripción: MOYANO JOSE LEONARDO<br>FORRAJERIA<br>MAZZINI 04, Chascomús, Buenos Aires<br>Barrio: CENTRO<br>Padrón: A3-4452<br>Estado: SIN FECHA<br>NOMBRE / COMERCIO: MOYANO JOSE LEONARDO<br>CUIT: 20-21673589-8<br>CONTACTO: 2241561490<br>CATEGORÍA FISCAL: RESPONSABLE INSCRIPTO<br>DIRECCIÓN: MAZZINI 04<br>BARRIO: CENTRO<br>RUBRO: FORRAJERIA<br>RUBRO NORMALIZADO: FORRAJERIA<br>CATEGORIA: CAMPO Y AGRO<br>PADRÓN N°: A3-4452<br>INSPECTOR/A: SOFIA- IRMA<br>ÚLTIMA VISITA: 2025-12-09<br>VENC. HABILITACIÓN: 07/03/2027<br>ESTADO: VIGENTE<br>OBSERVACIONES: POSEE HABILITACION COMERCIAL VIGENTE CON VTO 6/3/27"},"styleUrl":"#icon-1899-7CB342","label-scale":0,"icon-opacity":"1","icon-color":"#7cb342","icon-scale":"1","icon-offset":"[32,64]","icon-offset-units":"[\"pixels\",\"insetPixels\"]","icon":"https://www.gstatic.com/mapspro/images/stock/503-wht-blank_maps.png","descripción":"OBSERVACIONES: POSEE HABILITACION COMERCIAL VIGENTE CON VTO 6/3/27","Descripción":"MOYANO JOSE LEONARDO\nFORRAJERIA\nMAZZINI 04, Chascomús, Buenos Aires\nBarrio: CENTRO\nPadrón: A3-4452\nEstado: SIN FECHA","NOMBRE / COMERCIO":"MOYANO JOSE LEONARDO","CUIT":"20-21673589-8","CONTACTO":"2241561490","CATEGORÍA FISCAL":"RESPONSABLE INSCRIPTO","DIRECCIÓN":"MAZZINI 04","BARRIO":"CENTRO","RUBRO":"FORRAJERIA","RUBRO NORMALIZADO":"FORRAJERIA","CATEGORIA":"CAMPO Y AGRO","PADRÓN N°":"A3-4452","INSPECTOR/A":"SOFIA- IRMA","ÚLTIMA VISITA":"2025-12-09","VENC. HABILITACIÓN":"07/03/2027","ESTADO":"VIGENTE","OBSERVACIONES":"POSEE HABILITACION COMERCIAL VIGENTE CON VTO 6/3/27"}},{"type":"Feature","geometry":{"type":"Point","coordinates":[-58.011102,-35.563515,0]},"properties":{"name":"VENTA DE ANIMALES DOMESTICOS, FORRAJERIA","description":{"@type":"html","value":"descripción: Descripción: UNWORTH INES<br>VENTA DE ANIMALES DOMESTICOS, FORRAJERIA<br>YRIGOYEN 52, Chascomús, Buenos Aires<br>Barrio: CENTRO<br>Padrón: A4-0429<br>Estado: VIGENTE<br>NOMBRE / COMERCIO: UNWORTH INES<br>CUIT: 23-27144578-4<br>CONTACTO: 2241562877<br>CATEGORÍA FISCAL: RESPONSABLE INSCRIPTO<br>DIRECCIÓN: HIPÓLITO YRIGOYEN 52<br>BARRIO: CENTRO<br>RUBRO: VENTA DE ANIMALES DOMESTICOS, FORRAJERIA<br>RUBRO NORMALIZADO: VENTA DE ANIMALES DOMESTICOS<br>CATEGORIA: CAMPO Y AGRO<br>PADRÓN N°: A4-0429<br>INSPECTOR/A: YANINA<br>ÚLTIMA VISITA: 2025-08-14<br>VENC. HABILITACIÓN: 25/10/2026<br>ESTADO: VIGENTE<br>OBSERVACIONES: POSEE HABILITACION COMERCIAL VIGENTE QUEDA SUJETO A PROXIMAS INSPECCIONES<br>styleUrl: #icon-1899-7CB342<br>icon-opacity: 1<br>icon-color: #7cb342<br>icon-scale: 1<br>icon-offset: [32,64]<br>icon-offset-units: [\"pixels\",\"insetPixels\"]<br>icon: https://www.gstatic.com/mapspro/images/stock/503-wht-blank_maps.png<br>Descripción: UNWORTH INES<br>VENTA DE ANIMALES DOMESTICOS, FORRAJERIA<br>YRIGOYEN 52, Chascomús, Buenos Aires<br>Barrio: CENTRO<br>Padrón: A4-0429<br>Estado: VIGENTE<br>NOMBRE / COMERCIO: UNWORTH INES<br>CUIT: 23-27144578-4<br>CONTACTO: 2241562877<br>CATEGORÍA FISCAL: RESPONSABLE INSCRIPTO<br>DIRECCIÓN: HIPÓLITO YRIGOYEN 52<br>BARRIO: CENTRO<br>RUBRO: VENTA DE ANIMALES DOMESTICOS, FORRAJERIA<br>RUBRO NORMALIZADO: VENTA DE ANIMALES DOMESTICOS<br>CATEGORIA: CAMPO Y AGRO<br>PADRÓN N°: A4-0429<br>INSPECTOR/A: YANINA<br>ÚLTIMA VISITA: 2025-08-14<br>VENC. HABILITACIÓN: 25/10/2026<br>ESTADO: VIGENTE<br>OBSERVACIONES: POSEE HABILITACION COMERCIAL VIGENTE QUEDA SUJETO A PROXIMAS INSPECCIONES"},"styleUrl":"#icon-1899-7CB342","label-scale":0,"icon-opacity":"1","icon-color":"#7cb342","icon-scale":"1","icon-offset":"[32,64]","icon-offset-units":"[\"pixels\",\"insetPixels\"]","icon":"https://www.gstatic.com/mapspro/images/stock/503-wht-blank_maps.png","descripción":"Descripción: UNWORTH INES\nVENTA DE ANIMALES DOMESTICOS, FORRAJERIA\nYRIGOYEN 52, Chascomús, Buenos Aires\nBarrio: CENTRO\nPadrón: A4-0429\nEstado: VIGENTE\nNOMBRE / COMERCIO: UNWORTH INES\nCUIT: 23-27144578-4\nCONTACTO: 2241562877\nCATEGORÍA FISCAL: RESPONSABLE INSCRIPTO\nDIRECCIÓN: YRIGOYEN 52, Chascomús, Buenos Aires\nBARRIO: CENTRO\nRUBRO: VENTA DE ANIMALES DOMESTICOS, FORRAJERIA\nRUBRO NORMALIZADO: VENTA DE ANIMALES DOMESTICOS\nCATEGORIA: CAMPO Y AGRO\nPADRÓN N°: A4-0429\nINSPECTOR/A: YANINA\nÚLTIMA VISITA: 2025-08-14\nVENC. HABILITACIÓN: 2026-10-25\nESTADO: VIGENTE\nOBSERVACIONES: POSEE HABILITACION COMERCIAL VIGENTE QUEDA SUJETO A PROXIMAS INSPECCIONES","Descripción":"UNWORTH INES\nVENTA DE ANIMALES DOMESTICOS, FORRAJERIA\nYRIGOYEN 52, Chascomús, Buenos Aires\nBarrio: CENTRO\nPadrón: A4-0429\nEstado: VIGENTE","NOMBRE / COMERCIO":"UNWORTH INES","CUIT":"23-27144578-4","CONTACTO":"2241562877","CATEGORÍA FISCAL":"RESPONSABLE INSCRIPTO","DIRECCIÓN":"HIPÓLITO YRIGOYEN 52","BARRIO":"CENTRO","RUBRO":"VENTA DE ANIMALES DOMESTICOS, FORRAJERIA","RUBRO NORMALIZADO":"VENTA DE ANIMALES DOMESTICOS","CATEGORIA":"CAMPO Y AGRO","PADRÓN N°":"A4-0429","INSPECTOR/A":"YANINA","ÚLTIMA VISITA":"2025-08-14","VENC. HABILITACIÓN":"25/10/2026","ESTADO":"VIGENTE","OBSERVACIONES":"POSEE HABILITACION COMERCIAL VIGENTE QUEDA SUJETO A PROXIMAS INSPECCIONES"}},{"type":"Feature","geometry":{"type":"Point","coordinates":[-57.987328,-35.570584,0]},"properties":{"name":"FORRAJERIA \"EL ANGEL\"/CORDOBA","description":{"@type":"html","value":"descripción: <br>styleUrl: #icon-1899-C2185B<br>icon-opacity: 1<br>icon-color: #c2185b<br>icon-scale: 1<br>icon-offset: [32,64]<br>icon-offset-units: [\"pixels\",\"insetPixels\"]<br>icon: https://www.gstatic.com/mapspro/images/stock/503-wht-blank_maps.png<br>Descripción: FORRAJERIA \"EL ANGEL\"/CORDOBA<br>FORRAJERIA<br>GARAY 471, Chascomús, Buenos Aires<br>Barrio: EL HUECO<br>Padrón: A3-4520<br>Estado: SIN FECHA<br>NOMBRE / COMERCIO: FORRAJERIA \"EL ANGEL\"/CORDOBA<br>CUIT: 24-30414020-4<br>CONTACTO: 2241516770<br>CATEGORÍA FISCAL: NO REGISTRA IMPUESTOS ACTIVOS<br>DIRECCIÓN: GARAY 471<br>BARRIO: EL HUECO<br>RUBRO: FORRAJERIA<br>RUBRO NORMALIZADO: FORRAJERIA<br>CATEGORIA: CAMPO Y AGRO<br>PADRÓN N°: A3-4520<br>INSPECTOR/A: YANINA<br>ÚLTIMA VISITA: 2025-05-06<br>VENC. HABILITACIÓN: 25/11/2027<br>ESTADO: VIGENTE<br>OBSERVACIONES: HABILITACION VIGENTE 29-11-2027"},"styleUrl":"#icon-1899-C2185B","label-scale":0,"icon-opacity":"1","icon-color":"#c2185b","icon-scale":"1","icon-offset":"[32,64]","icon-offset-units":"[\"pixels\",\"insetPixels\"]","icon":"https://www.gstatic.com/mapspro/images/stock/503-wht-blank_maps.png","descripción":"","Descripción":"FORRAJERIA \"EL ANGEL\"/CORDOBA\nFORRAJERIA\nGARAY 471, Chascomús, Buenos Aires\nBarrio: EL HUECO\nPadrón: A3-4520\nEstado: SIN FECHA","NOMBRE / COMERCIO":"FORRAJERIA \"EL ANGEL\"/CORDOBA","CUIT":"24-30414020-4","CONTACTO":"2241516770","CATEGORÍA FISCAL":"NO REGISTRA IMPUESTOS ACTIVOS","DIRECCIÓN":"GARAY 471","BARRIO":"EL HUECO","RUBRO":"FORRAJERIA","RUBRO NORMALIZADO":"FORRAJERIA","CATEGORIA":"CAMPO Y AGRO","PADRÓN N°":"A3-4520","INSPECTOR/A":"YANINA","ÚLTIMA VISITA":"2025-05-06","VENC. HABILITACIÓN":"25/11/2027","ESTADO":"VIGENTE","OBSERVACIONES":"HABILITACION VIGENTE 29-11-2027"}},{"type":"Feature","geometry":{"type":"Point","coordinates":[-58.008814,-35.567962,0]},"properties":{"name":"VIVERO","description":{"@type":"html","value":"descripción: Descripción: LUCASTEGUI<br>VIVERO<br>MACHADO 571, Chascomús, Buenos Aires<br>Barrio: EL HUECO<br>Padrón: A3- 2720<br>Estado: VENCIDA<br>NOMBRE / COMERCIO: LUCASTEGUI<br>CUIT: 27-17919808-0<br>CONTACTO: 2241578818<br>CATEGORÍA FISCAL: MONOTRIBUTISTA A<br>DIRECCIÓN: MACHADO 571<br>BARRIO: EL HUECO<br>RUBRO: VIVERO<br>RUBRO NORMALIZADO: VIVERO<br>CATEGORIA: CAMPO Y AGRO<br>PADRÓN N°: A3- 2720<br>INSPECTOR/A: YANINA<br>ÚLTIMA VISITA: 2025-08-05<br>VENC. HABILITACIÓN: 27/05/2028<br>ESTADO: VIGENTE<br>OBSERVACIONES: POSEE HJABILIRACION COMERCIAL VIGENTE, QUEDA SUJETA A PROXIMAS VISITAS<br>styleUrl: #icon-1899-C2185B<br>icon-opacity: 1<br>icon-color: #c2185b<br>icon-scale: 1<br>icon-offset: [32,64]<br>icon-offset-units: [\"pixels\",\"insetPixels\"]<br>icon: https://www.gstatic.com/mapspro/images/stock/503-wht-blank_maps.png<br>Descripción: LUCASTEGUI<br>VIVERO<br>MACHADO 571, Chascomús, Buenos Aires<br>Barrio: EL HUECO<br>Padrón: A3- 2720<br>Estado: VENCIDA<br>NOMBRE / COMERCIO: LUCASTEGUI<br>CUIT: 27-17919808-0<br>CONTACTO: 2241578818<br>CATEGORÍA FISCAL: MONOTRIBUTISTA A<br>DIRECCIÓN: MACHADO 571<br>BARRIO: EL HUECO<br>RUBRO: VIVERO<br>RUBRO NORMALIZADO: VIVERO<br>CATEGORIA: CAMPO Y AGRO<br>PADRÓN N°: A3- 2720<br>INSPECTOR/A: YANINA<br>ÚLTIMA VISITA: 2025-08-05<br>VENC. HABILITACIÓN: 27/05/2028<br>ESTADO: VIGENTE<br>OBSERVACIONES: POSEE HJABILIRACION COMERCIAL VIGENTE, QUEDA SUJETA A PROXIMAS VISITAS"},"styleUrl":"#icon-1899-C2185B","label-scale":0,"icon-opacity":"1","icon-color":"#c2185b","icon-scale":"1","icon-offset":"[32,64]","icon-offset-units":"[\"pixels\",\"insetPixels\"]","icon":"https://www.gstatic.com/mapspro/images/stock/503-wht-blank_maps.png","descripción":"Descripción: LUCASTEGUI\nVIVERO\nMACHADO 571, Chascomús, Buenos Aires\nBarrio: EL HUECO\nPadrón: A3- 2720\nEstado: VENCIDA\nNOMBRE / COMERCIO: LUCASTEGUI\nCUIT: 27-17919808-0\nCONTACTO: 2241578818\nCATEGORÍA FISCAL: MONOTRIBUTISTA A\nDIRECCIÓN: MACHADO 571, Chascomús, Buenos Aires\nBARRIO: EL HUECO\nRUBRO: VIVERO\nRUBRO NORMALIZADO: VIVERO\nCATEGORIA: CAMPO Y AGRO\nPADRÓN N°: A3- 2720\nINSPECTOR/A: YANINA\nÚLTIMA VISITA: 2025-08-05\nVENC. HABILITACIÓN: 2026-02-07\nESTADO: VENCIDA\nOBSERVACIONES: POSEE HJABILIRACION COMERCIAL VIGENTE, QUEDA SUJETA A PROXIMAS VISITAS","Descripción":"LUCASTEGUI\nVIVERO\nMACHADO 571, Chascomús, Buenos Aires\nBarrio: EL HUECO\nPadrón: A3- 2720\nEstado: VENCIDA","NOMBRE / COMERCIO":"LUCASTEGUI","CUIT":"27-17919808-0","CONTACTO":"2241578818","CATEGORÍA FISCAL":"MONOTRIBUTISTA A","DIRECCIÓN":"MACHADO 571","BARRIO":"EL HUECO","RUBRO":"VIVERO","RUBRO NORMALIZADO":"VIVERO","CATEGORIA":"CAMPO Y AGRO","PADRÓN N°":"A3- 2720","INSPECTOR/A":"YANINA","ÚLTIMA VISITA":"2025-08-05","VENC. HABILITACIÓN":"27/05/2028","ESTADO":"VIGENTE","OBSERVACIONES":"POSEE HJABILIRACION COMERCIAL VIGENTE, QUEDA SUJETA A PROXIMAS VISITAS"}},{"type":"Feature","geometry":{"type":"Point","coordinates":[-58.017752,-35.552537,0]},"properties":{"name":"VENTA DE SEMILLAS, BALANCIADO FERTILIZANTE","description":{"@type":"html","value":"descripción: Descripción: ITURRIAGA CARLOS E HIJOS S.A<br>VENTA DE SEMILLAS, BALANCIADO FERTILIZANTE<br>JUAN MANUEL DE ROSAS 1045, Chascomús, Buenos Aires<br>Barrio: EL OBISPADO<br>Padrón: A4-0102<br>Estado: VENCIDA<br>NOMBRE / COMERCIO: ITURRIAGA CARLOS E HIJOS S.A<br>CUIT: 30-59533744-1<br>CONTACTO: 2241675323<br>CATEGORÍA FISCAL: SA<br>DIRECCIÓN: JUAN MANUEL ROSAS 1045<br>BARRIO: EL OBISPADO<br>RUBRO: VENTA DE SEMILLAS, BALANCIADO FERTILIZANTE<br>RUBRO NORMALIZADO: VENTA DE SEMILLAS<br>CATEGORIA: CAMPO Y AGRO<br>PADRÓN N°: A4-0102<br>INSPECTOR/A: ANIBAL<br>ÚLTIMA VISITA: 2025-08-29<br>VENC. HABILITACIÓN: 16/08/2000<br>ESTADO: VENCIDA<br>OBSERVACIONES: DECLARA 11 EMPLEADOS. SI CUMPLE CON LA NORMATIVA VIGENTE EN MEDIDAS DE SEGURIDAD.<br>styleUrl: #icon-1899-817717<br>icon-opacity: 1<br>icon-color: #817717<br>icon-scale: 1<br>icon-offset: [32,64]<br>icon-offset-units: [\"pixels\",\"insetPixels\"]<br>icon: https://www.gstatic.com/mapspro/images/stock/503-wht-blank_maps.png<br>Descripción: ITURRIAGA CARLOS E HIJOS S.A<br>VENTA DE SEMILLAS, BALANCIADO FERTILIZANTE<br>JUAN MANUEL DE ROSAS 1045, Chascomús, Buenos Aires<br>Barrio: EL OBISPADO<br>Padrón: A4-0102<br>Estado: VENCIDA<br>NOMBRE / COMERCIO: ITURRIAGA CARLOS E HIJOS S.A<br>CUIT: 30-59533744-1<br>CONTACTO: 2241675323<br>CATEGORÍA FISCAL: SA<br>DIRECCIÓN: JUAN MANUEL ROSAS 1045<br>BARRIO: EL OBISPADO<br>RUBRO: VENTA DE SEMILLAS, BALANCIADO FERTILIZANTE<br>RUBRO NORMALIZADO: VENTA DE SEMILLAS<br>CATEGORIA: CAMPO Y AGRO<br>PADRÓN N°: A4-0102<br>INSPECTOR/A: ANIBAL<br>ÚLTIMA VISITA: 2025-08-29<br>VENC. HABILITACIÓN: 16/08/2000<br>ESTADO: VENCIDA<br>OBSERVACIONES: DECLARA 11 EMPLEADOS. SI CUMPLE CON LA NORMATIVA VIGENTE EN MEDIDAS DE SEGURIDAD."},"styleUrl":"#icon-1899-817717","label-scale":0,"icon-opacity":"1","icon-color":"#817717","icon-scale":"1","icon-offset":"[32,64]","icon-offset-units":"[\"pixels\",\"insetPixels\"]","icon":"https://www.gstatic.com/mapspro/images/stock/503-wht-blank_maps.png","descripción":"Descripción: ITURRIAGA CARLOS E HIJOS S.A\nVENTA DE SEMILLAS, BALANCIADO FERTILIZANTE\nJUAN MANUEL DE ROSAS 1045, Chascomús, Buenos Aires\nBarrio: EL OBISPADO\nPadrón: A4-0102\nEstado: VENCIDA\nNOMBRE / COMERCIO: ITURRIAGA CARLOS E HIJOS S.A\nCUIT: 30-59533744-1\nCONTACTO: 2241675323\nCATEGORÍA FISCAL: SA\nDIRECCIÓN: JUAN MANUEL DE ROSAS 1045, Chascomús, Buenos Aires\nBARRIO: EL OBISPADO\nRUBRO: VENTA DE SEMILLAS, BALANCIADO FERTILIZANTE\nRUBRO NORMALIZADO: VENTA DE SEMILLAS\nCATEGORIA: CAMPO Y AGRO\nPADRÓN N°: A4-0102\nINSPECTOR/A: ANIBAL\nÚLTIMA VISITA: 2025-08-29\nVENC. HABILITACIÓN: 2000-08-16\nESTADO: VENCIDA\nOBSERVACIONES: DECLARA 11 EMPLEADOS. SI CUMPLE CON LA NORMATIVA VIGENTE EN MEDIDAS DE SEGURIDAD.","Descripción":"ITURRIAGA CARLOS E HIJOS S.A\nVENTA DE SEMILLAS, BALANCIADO FERTILIZANTE\nJUAN MANUEL DE ROSAS 1045, Chascomús, Buenos Aires\nBarrio: EL OBISPADO\nPadrón: A4-0102\nEstado: VENCIDA","NOMBRE / COMERCIO":"ITURRIAGA CARLOS E HIJOS S.A","CUIT":"30-59533744-1","CONTACTO":"2241675323","CATEGORÍA FISCAL":"SA","DIRECCIÓN":"JUAN MANUEL ROSAS 1045","BARRIO":"EL OBISPADO","RUBRO":"VENTA DE SEMILLAS, BALANCIADO FERTILIZANTE","RUBRO NORMALIZADO":"VENTA DE SEMILLAS","CATEGORIA":"CAMPO Y AGRO","PADRÓN N°":"A4-0102","INSPECTOR/A":"ANIBAL","ÚLTIMA VISITA":"2025-08-29","VENC. HABILITACIÓN":"16/08/2000","ESTADO":"VENCIDA","OBSERVACIONES":"DECLARA 11 EMPLEADOS. SI CUMPLE CON LA NORMATIVA VIGENTE EN MEDIDAS DE SEGURIDAD."}},{"type":"Feature","geometry":{"type":"Point","coordinates":[-57.976443,-35.564438,0]},"properties":{"name":"VENTA DE SEMILLAS-Y AGROQUIMICOS","description":{"@type":"html","value":"descripción: Descripción: ECHARRI SEMILLAS SRL<br>VENTA DE SEMILLAS-Y AGROQUIMICOS<br>CASTELAR 1146, Chascomús, Buenos Aires<br>Barrio: LA PAMPITA<br>Padrón: A4-0693<br>Estado: VENCIDA<br>NOMBRE / COMERCIO: ECHARRI SEMILLAS SRL<br>CUIT: 30-71231512-8<br>CONTACTO: 2241551569<br>CATEGORÍA FISCAL: SRL<br>DIRECCIÓN: CASTELAR 1146<br>BARRIO: LA PAMPITA<br>RUBRO: VENTA DE SEMILLAS-Y AGROQUIMICOS<br>RUBRO NORMALIZADO: VENTA DE SEMILLAS<br>CATEGORIA: CAMPO Y AGRO<br>PADRÓN N°: A4-0693<br>INSPECTOR/A: <br>ÚLTIMA VISITA: <br>VENC. HABILITACIÓN: 15/02/2026<br>ESTADO: VENCIDA<br>OBSERVACIONES: SUJETA CANC DE DEUDA SEG E  HIGIENE -EDIFICIO SIN PLANOS<br>styleUrl: #icon-1899-0097A7<br>icon-opacity: 1<br>icon-color: #0097a7<br>icon-scale: 1<br>icon-offset: [32,64]<br>icon-offset-units: [\"pixels\",\"insetPixels\"]<br>icon: https://www.gstatic.com/mapspro/images/stock/503-wht-blank_maps.png<br>Descripción: ECHARRI SEMILLAS SRL<br>VENTA DE SEMILLAS-Y AGROQUIMICOS<br>CASTELAR 1146, Chascomús, Buenos Aires<br>Barrio: LA PAMPITA<br>Padrón: A4-0693<br>Estado: VENCIDA<br>NOMBRE / COMERCIO: ECHARRI SEMILLAS SRL<br>CUIT: 30-71231512-8<br>CONTACTO: 2241551569<br>CATEGORÍA FISCAL: SRL<br>DIRECCIÓN: CASTELAR 1146<br>BARRIO: LA PAMPITA<br>RUBRO: VENTA DE SEMILLAS-Y AGROQUIMICOS<br>RUBRO NORMALIZADO: VENTA DE SEMILLAS<br>CATEGORIA: CAMPO Y AGRO<br>PADRÓN N°: A4-0693<br>INSPECTOR/A: <br>ÚLTIMA VISITA: <br>VENC. HABILITACIÓN: 15/02/2026<br>ESTADO: VENCIDA<br>OBSERVACIONES: SUJETA CANC DE DEUDA SEG E  HIGIENE -EDIFICIO SIN PLANOS"},"styleUrl":"#icon-1899-0097A7","label-scale":0,"icon-opacity":"1","icon-color":"#0097a7","icon-scale":"1","icon-offset":"[32,64]","icon-offset-units":"[\"pixels\",\"insetPixels\"]","icon":"https://www.gstatic.com/mapspro/images/stock/503-wht-blank_maps.png","descripción":"Descripción: ECHARRI SEMILLAS SRL\nVENTA DE SEMILLAS-Y AGROQUIMICOS\nCASTELAR 1146, Chascomús, Buenos Aires\nBarrio: LA PAMPITA\nPadrón: A4-0693\nEstado: VENCIDA\nNOMBRE / COMERCIO: ECHARRI SEMILLAS SRL\nCUIT: 30-71231512-8\nCONTACTO: 2241551569\nCATEGORÍA FISCAL: SRL\nDIRECCIÓN: CASTELAR 1146, Chascomús, Buenos Aires\nBARRIO: LA PAMPITA\nRUBRO: VENTA DE SEMILLAS-Y AGROQUIMICOS\nRUBRO NORMALIZADO: VENTA DE SEMILLAS\nCATEGORIA: CAMPO Y AGRO\nPADRÓN N°: A4-0693\nINSPECTOR/A: \nÚLTIMA VISITA: NaT\nVENC. HABILITACIÓN: 2026-02-15\nESTADO: VENCIDA\nOBSERVACIONES: SUJETA CANC DE DEUDA SEG E  HIGIENE -EDIFICIO SIN PLANOS","Descripción":"ECHARRI SEMILLAS SRL\nVENTA DE SEMILLAS-Y AGROQUIMICOS\nCASTELAR 1146, Chascomús, Buenos Aires\nBarrio: LA PAMPITA\nPadrón: A4-0693\nEstado: VENCIDA","NOMBRE / COMERCIO":"ECHARRI SEMILLAS SRL","CUIT":"30-71231512-8","CONTACTO":"2241551569","CATEGORÍA FISCAL":"SRL","DIRECCIÓN":"CASTELAR 1146","BARRIO":"LA PAMPITA","RUBRO":"VENTA DE SEMILLAS-Y AGROQUIMICOS","RUBRO NORMALIZADO":"VENTA DE SEMILLAS","CATEGORIA":"CAMPO Y AGRO","PADRÓN N°":"A4-0693","INSPECTOR/A":"","ÚLTIMA VISITA":"NaT","VENC. HABILITACIÓN":"15/02/2026","ESTADO":"VENCIDA","OBSERVACIONES":"SUJETA CANC DE DEUDA SEG E  HIGIENE -EDIFICIO SIN PLANOS"}},{"type":"Feature","geometry":{"type":"Point","coordinates":[-57.972866,-35.582017,0]},"properties":{"name":"PRODUCCION DE HONGOS","description":{"@type":"html","value":"descripción: Descripción: HIFAS S.A<br>PRODUCCION DE HONGOS<br>RUTA 20 215, Chascomús, Buenos Aires<br>Barrio: SAN CAYETANO<br>Padrón: B-0126<br>Estado: VENCIDA<br>NOMBRE / COMERCIO: HIFAS S.A<br>CUIT: 30-71513585-6<br>CONTACTO: 1138168767<br>CATEGORÍA FISCAL: SA<br>DIRECCIÓN: RUTA 20 215<br>BARRIO: SAN CAYETANO<br>RUBRO: PRODUCCION DE HONGOS<br>RUBRO NORMALIZADO: PRODUCCION DE HONGOS<br>CATEGORIA: CAMPO Y AGRO<br>PADRÓN N°: B-0126<br>INSPECTOR/A: <br>ÚLTIMA VISITA: <br>VENC. HABILITACIÓN: 15/11/2025<br>ESTADO: VENCIDA<br>OBSERVACIONES: SUJETA A CANCELACION DE DEUDA TASA SEGURIDAD E HIGIENE<br>styleUrl: #icon-1899-9C27B0<br>icon-opacity: 1<br>icon-color: #9c27b0<br>icon-scale: 1<br>icon-offset: [32,64]<br>icon-offset-units: [\"pixels\",\"insetPixels\"]<br>icon: https://www.gstatic.com/mapspro/images/stock/503-wht-blank_maps.png<br>Descripción: HIFAS S.A<br>PRODUCCION DE HONGOS<br>RUTA 20 215, Chascomús, Buenos Aires<br>Barrio: SAN CAYETANO<br>Padrón: B-0126<br>Estado: VENCIDA<br>NOMBRE / COMERCIO: HIFAS S.A<br>CUIT: 30-71513585-6<br>CONTACTO: 1138168767<br>CATEGORÍA FISCAL: SA<br>DIRECCIÓN: RUTA 20 215<br>BARRIO: SAN CAYETANO<br>RUBRO: PRODUCCION DE HONGOS<br>RUBRO NORMALIZADO: PRODUCCION DE HONGOS<br>CATEGORIA: CAMPO Y AGRO<br>PADRÓN N°: B-0126<br>INSPECTOR/A: <br>ÚLTIMA VISITA: <br>VENC. HABILITACIÓN: 15/11/2025<br>ESTADO: VENCIDA<br>OBSERVACIONES: SUJETA A CANCELACION DE DEUDA TASA SEGURIDAD E HIGIENE"},"styleUrl":"#icon-1899-9C27B0","label-scale":0,"icon-opacity":"1","icon-color":"#9c27b0","icon-scale":"1","icon-offset":"[32,64]","icon-offset-units":"[\"pixels\",\"insetPixels\"]","icon":"https://www.gstatic.com/mapspro/images/stock/503-wht-blank_maps.png","descripción":"Descripción: HIFAS S.A\nPRODUCCION DE HONGOS\nRUTA 20 215, Chascomús, Buenos Aires\nBarrio: SAN CAYETANO\nPadrón: B-0126\nEstado: VENCIDA\nNOMBRE / COMERCIO: HIFAS S.A\nCUIT: 30-71513585-6\nCONTACTO: 1138168767\nCATEGORÍA FISCAL: SA\nDIRECCIÓN: RUTA 20 215, Chascomús, Buenos Aires\nBARRIO: SAN CAYETANO\nRUBRO: PRODUCCION DE HONGOS\nRUBRO NORMALIZADO: PRODUCCION DE HONGOS\nCATEGORIA: CAMPO Y AGRO\nPADRÓN N°: B-0126\nINSPECTOR/A: \nÚLTIMA VISITA: NaT\nVENC. HABILITACIÓN: 2025-11-15\nESTADO: VENCIDA\nOBSERVACIONES: SUJETA A CANCELACION DE DEUDA TASA SEGURIDAD E HIGIENE","Descripción":"HIFAS S.A\nPRODUCCION DE HONGOS\nRUTA 20 215, Chascomús, Buenos Aires\nBarrio: SAN CAYETANO\nPadrón: B-0126\nEstado: VENCIDA","NOMBRE / COMERCIO":"HIFAS S.A","CUIT":"30-71513585-6","CONTACTO":"1138168767","CATEGORÍA FISCAL":"SA","DIRECCIÓN":"RUTA 20 215","BARRIO":"SAN CAYETANO","RUBRO":"PRODUCCION DE HONGOS","RUBRO NORMALIZADO":"PRODUCCION DE HONGOS","CATEGORIA":"CAMPO Y AGRO","PADRÓN N°":"B-0126","INSPECTOR/A":"","ÚLTIMA VISITA":"NaT","VENC. HABILITACIÓN":"15/11/2025","ESTADO":"VENCIDA","OBSERVACIONES":"SUJETA A CANCELACION DE DEUDA TASA SEGURIDAD E HIGIENE"}},{"type":"Feature","geometry":{"type":"Point","coordinates":[-58.010744,-35.565493,0]},"properties":{"name":"FORRAJERIA","description":{"@type":"html","value":"descripción: Descripción: MORALES NOVOA ANDRES<br>FORRAJERIA<br>YRIGOYEN 699, Chascomús, Buenos Aires<br>Barrio: VILLA LUJAN<br>Padrón: A3-4150<br>Estado: VENCIDA<br>NOMBRE / COMERCIO: MORALES NOVOA ANDRES<br>CUIT: 20-33642336-9<br>CONTACTO: 2241465728<br>CATEGORÍA FISCAL: MONOTRIBUTISTA G<br>DIRECCIÓN: HIPÓLITO YRIGOYEN 699<br>BARRIO: VILLA LUJAN<br>RUBRO: FORRAJERIA<br>RUBRO NORMALIZADO: FORRAJERIA<br>CATEGORIA: CAMPO Y AGRO<br>PADRÓN N°: A3-4150<br>INSPECTOR/A: SOFIA- IRMA<br>ÚLTIMA VISITA: 2026-01-22<br>VENC. HABILITACIÓN: 15/02/2026<br>ESTADO: VENCIDA<br>OBSERVACIONES:<br>styleUrl: #icon-1899-1A237E<br>icon-opacity: 1<br>icon-color: #1a237e<br>icon-scale: 1<br>icon-offset: [32,64]<br>icon-offset-units: [\"pixels\",\"insetPixels\"]<br>icon: https://www.gstatic.com/mapspro/images/stock/503-wht-blank_maps.png<br>Descripción: MORALES NOVOA ANDRES<br>FORRAJERIA<br>YRIGOYEN 699, Chascomús, Buenos Aires<br>Barrio: VILLA LUJAN<br>Padrón: A3-4150<br>Estado: VENCIDA<br>NOMBRE / COMERCIO: MORALES NOVOA ANDRES<br>CUIT: 20-33642336-9<br>CONTACTO: 2241465728<br>CATEGORÍA FISCAL: MONOTRIBUTISTA G<br>DIRECCIÓN: HIPÓLITO YRIGOYEN 699<br>BARRIO: VILLA LUJAN<br>RUBRO: FORRAJERIA<br>RUBRO NORMALIZADO: FORRAJERIA<br>CATEGORIA: CAMPO Y AGRO<br>PADRÓN N°: A3-4150<br>INSPECTOR/A: SOFIA- IRMA<br>ÚLTIMA VISITA: 2026-01-22<br>VENC. HABILITACIÓN: 15/02/2026<br>ESTADO: VENCIDA<br>OBSERVACIONES: "},"styleUrl":"#icon-1899-1A237E","label-scale":0,"icon-opacity":"1","icon-color":"#1a237e","icon-scale":"1","icon-offset":"[32,64]","icon-offset-units":"[\"pixels\",\"insetPixels\"]","icon":"https://www.gstatic.com/mapspro/images/stock/503-wht-blank_maps.png","descripción":"Descripción: MORALES NOVOA ANDRES\nFORRAJERIA\nYRIGOYEN 699, Chascomús, Buenos Aires\nBarrio: VILLA LUJAN\nPadrón: A3-4150\nEstado: VENCIDA\nNOMBRE / COMERCIO: MORALES NOVOA ANDRES\nCUIT: 20-33642336-9\nCONTACTO: 2241465728\nCATEGORÍA FISCAL: MONOTRIBUTISTA G\nDIRECCIÓN: YRIGOYEN 699, Chascomús, Buenos Aires\nBARRIO: VILLA LUJAN\nRUBRO: FORRAJERIA\nRUBRO NORMALIZADO: FORRAJERIA\nCATEGORIA: CAMPO Y AGRO\nPADRÓN N°: A3-4150\nINSPECTOR/A: SOFIA- IRMA\nÚLTIMA VISITA: 2026-01-22\nVENC. HABILITACIÓN: 2026-02-15\nESTADO: VENCIDA\nOBSERVACIONES:","Descripción":"MORALES NOVOA ANDRES\nFORRAJERIA\nYRIGOYEN 699, Chascomús, Buenos Aires\nBarrio: VILLA LUJAN\nPadrón: A3-4150\nEstado: VENCIDA","NOMBRE / COMERCIO":"MORALES NOVOA ANDRES","CUIT":"20-33642336-9","CONTACTO":"2241465728","CATEGORÍA FISCAL":"MONOTRIBUTISTA G","DIRECCIÓN":"HIPÓLITO YRIGOYEN 699","BARRIO":"VILLA LUJAN","RUBRO":"FORRAJERIA","RUBRO NORMALIZADO":"FORRAJERIA","CATEGORIA":"CAMPO Y AGRO","PADRÓN N°":"A3-4150","INSPECTOR/A":"SOFIA- IRMA","ÚLTIMA VISITA":"2026-01-22","VENC. HABILITACIÓN":"15/02/2026","ESTADO":"VENCIDA","OBSERVACIONES":""}},{"type":"Feature","geometry":{"type":"Point","coordinates":[-57.984032,-35.588304,0]},"properties":{"name":"VENTA DE PRODUCTOS REGIONALES","description":{"@type":"html","value":"descripción: Descripción: SATTI SILVIA ROSANA<br>VENTA PDCTOS REGIONALES-ALPARGATAS<br>AVELLANEDA 826, Chascomús, Buenos Aires<br>Barrio: ESTEBAN ECHEVERRIA<br>Padrón: A3-3649<br>Estado: VENCIDA<br>NOMBRE / COMERCIO: RUBEN OSCAR D ALTO<br>CUIT: 20-07377165-0<br>CONTACTO: 2241537658<br>CATEGORÍA FISCAL: MONOTRIBUTISTA A<br>DIRECCIÓN: AVELLANEDA 826<br>BARRIO: ESTEBAN ECHEVERRIA<br>RUBRO: VENTA DE PRODUCTOS REGIONALES<br>RUBRO NORMALIZADO: VENTA PDCTOS REGIONALES<br>CATEGORIA: OTROS SERVICIOS<br>PADRÓN N°: A3-3649<br>INSPECTOR/A: YANINA<br>ÚLTIMA VISITA: 2026-05-15<br>VENC. HABILITACIÓN: 15/01/2026<br>ESTADO: VENCIDA<br>OBSERVACIONES: APTO<br>styleUrl: #icon-1899-0288D1<br>icon-opacity: 1<br>icon-color: #0288d1<br>icon-scale: 1<br>icon-offset: [32,64]<br>icon-offset-units: [\"pixels\",\"insetPixels\"]<br>icon: https://www.gstatic.com/mapspro/images/stock/503-wht-blank_maps.png<br>Descripción: SATTI SILVIA ROSANA<br>VENTA PDCTOS REGIONALES-ALPARGATAS<br>AVELLANEDA 826, Chascomús, Buenos Aires<br>Barrio: ESTEBAN ECHEVERRIA<br>Padrón: A3-3649<br>Estado: VENCIDA<br>NOMBRE / COMERCIO: RUBEN OSCAR D ALTO<br>CUIT: 20-07377165-0<br>CONTACTO: 2241537658<br>CATEGORÍA FISCAL: MONOTRIBUTISTA A<br>DIRECCIÓN: AVELLANEDA 826<br>BARRIO: ESTEBAN ECHEVERRIA<br>RUBRO: VENTA DE PRODUCTOS REGIONALES<br>RUBRO NORMALIZADO: VENTA PDCTOS REGIONALES<br>CATEGORIA: OTROS SERVICIOS<br>PADRÓN N°: A3-3649<br>INSPECTOR/A: YANINA<br>ÚLTIMA VISITA: 2026-05-15<br>VENC. HABILITACIÓN: 15/01/2026<br>ESTADO: VENCIDA<br>OBSERVACIONES: SUJETA CANC DE DEUDA INMIEBLE- OBRA NO CONFORME A PLANOS"},"styleUrl":"#icon-1899-0288D1","label-scale":0,"icon-opacity":"1","icon-color":"#0288d1","icon-scale":"1","icon-offset":"[32,64]","icon-offset-units":"[\"pixels\",\"insetPixels\"]","icon":"https://www.gstatic.com/mapspro/images/stock/503-wht-blank_maps.png","descripción":"Descripción: SATTI SILVIA ROSANA\nVENTA PDCTOS REGIONALES-ALPARGATAS\nAVELLANEDA 826, Chascomús, Buenos Aires\nBarrio: ESTEBAN ECHEVERRIA\nPadrón: A3-3649\nEstado: VENCIDA\nNOMBRE / COMERCIO: SATTI SILVIA ROSANA\nCUIT: 27-18510475-9\nCONTACTO: 1121833415\nCATEGORÍA FISCAL: MONOTRIBUTISTA D\nDIRECCIÓN: AVELLANEDA 826, Chascomús, Buenos Aires\nBARRIO: ESTEBAN ECHEVERRIA\nRUBRO: VENTA PDCTOS REGIONALES-ALPARGATAS\nRUBRO NORMALIZADO: VENTA PDCTOS REGIONALES\nCATEGORIA: OTROS SERVICIOS\nPADRÓN N°: A3-3649\nINSPECTOR/A: \nÚLTIMA VISITA: NaT\nVENC. HABILITACIÓN: 2026-01-15\nESTADO: VENCIDA\nOBSERVACIONES: SUJETA CANC DE DEUDA INMIEBLE- OBRA NO CONFORME A PLANOS","Descripción":"SATTI SILVIA ROSANA\nVENTA PDCTOS REGIONALES-ALPARGATAS\nAVELLANEDA 826, Chascomús, Buenos Aires\nBarrio: ESTEBAN ECHEVERRIA\nPadrón: A3-3649\nEstado: VENCIDA","NOMBRE / COMERCIO":"RUBEN OSCAR D ALTO","CUIT":"20-07377165-0","CONTACTO":"2241537658","CATEGORÍA FISCAL":"MONOTRIBUTISTA A","DIRECCIÓN":"AVELLANEDA 826","BARRIO":"ESTEBAN ECHEVERRIA","RUBRO":"VENTA DE PRODUCTOS REGIONALES","RUBRO NORMALIZADO":"VENTA PDCTOS REGIONALES","CATEGORIA":"OTROS SERVICIOS","PADRÓN N°":"A3-3649","INSPECTOR/A":"","ÚLTIMA VISITA":"2026-05-15","VENC. HABILITACIÓN":"15/01/2026","ESTADO":"VENCIDA","OBSERVACIONES":"APTO"}},{"type":"Feature","geometry":{"type":"Point","coordinates":[-58.00354,-35.576327,0]},"properties":{"name":"VENTA PDCTOS VETER Y BALANCEA","description":{"@type":"html","value":"descripción: OBSERVACIONES: HAB 26-07-2027<br>styleUrl: #icon-1899-3949AB<br>icon-opacity: 1<br>icon-color: #3949ab<br>icon-scale: 1<br>icon-offset: [32,64]<br>icon-offset-units: [\"pixels\",\"insetPixels\"]<br>icon: https://www.gstatic.com/mapspro/images/stock/503-wht-blank_maps.png<br>Descripción: LA LOTTA CIBO LM SRL<br>VENTA PDCTOS VETER Y BALANCEA<br>AV ALFONSIN 1272, Chascomús, Buenos Aires<br>Barrio: GALLO BLANCO<br>Padrón: A3-4480<br>Estado: SIN FECHA<br>NOMBRE / COMERCIO: LA LOTTA CIBO LM SRL<br>CUIT: 30-71824819-8<br>CONTACTO: 2241562877<br>CATEGORÍA FISCAL: SRL<br>DIRECCIÓN: AV PTE. ALFONSIN 1272<br>BARRIO: GALLO BLANCO<br>RUBRO: VENTA PDCTOS VETER Y BALANCEA<br>RUBRO NORMALIZADO: VENTA PDCTOS VETER Y BALANCEA<br>CATEGORIA: CAMPO Y AGRO<br>PADRÓN N°: A3-4480<br>INSPECTOR/A: SOFIA- IRMA<br>ÚLTIMA VISITA: 02.09-2024<br>VENC. HABILITACIÓN: 26/07/2027<br>ESTADO: VIGENTE<br>OBSERVACIONES: HAB 26-07-2027"},"styleUrl":"#icon-1899-3949AB","label-scale":0,"icon-opacity":"1","icon-color":"#3949ab","icon-scale":"1","icon-offset":"[32,64]","icon-offset-units":"[\"pixels\",\"insetPixels\"]","icon":"https://www.gstatic.com/mapspro/images/stock/503-wht-blank_maps.png","descripción":"OBSERVACIONES: HAB 26-07-2027","Descripción":"LA LOTTA CIBO LM SRL\nVENTA PDCTOS VETER Y BALANCEA\nAV ALFONSIN 1272, Chascomús, Buenos Aires\nBarrio: GALLO BLANCO\nPadrón: A3-4480\nEstado: SIN FECHA","NOMBRE / COMERCIO":"LA LOTTA CIBO LM SRL","CUIT":"30-71824819-8","CONTACTO":"2241562877","CATEGORÍA FISCAL":"SRL","DIRECCIÓN":"AV PTE. ALFONSIN 1272","BARRIO":"GALLO BLANCO","RUBRO":"VENTA PDCTOS VETER Y BALANCEA","RUBRO NORMALIZADO":"VENTA PDCTOS VETER Y BALANCEA","CATEGORIA":"CAMPO Y AGRO","PADRÓN N°":"A3-4480","INSPECTOR/A":"SOFIA- IRMA","ÚLTIMA VISITA":"02.09-2024","VENC. HABILITACIÓN":"26/07/2027","ESTADO":"VIGENTE","OBSERVACIONES":"HAB 26-07-2027"}}]}