{"type":"FeatureCollection","features":[{"type":"Feature","geometry":{"type":"Point","coordinates":[-58.012915,-35.574382,0]},"properties":{"name":"PERFUMERIA","description":{"@type":"html","value":"descripción: <br>styleUrl: #icon-1899-BDBDBD<br>NOMBRE / COMERCIO: BEROIS MARCELA FERNANDA<br>CUIT: 27-22526280-8<br>CONTACTO: 2241498498<br>CATEGORÍA FISCAL: MONOTRIBUTISTA G<br>DIRECCIÓN: ALVEAR 150<br>BARRIO: CENTRO<br>RUBRO: PERFUMERIA<br>CATEGORIA: BAZAR Y HOGAR<br>PADRÓN N°: A3-3441<br>INSPECTOR/A: ANIBAL<br>ÚLTIMA VISITA: 2025-12-04<br>VENC. HABILITACIÓN: 23/12/2027<br>ESTADO: VIGENTE<br>OBSERVACIONES: CUMPLE LA NORMATIVA VIGENTE PARA LA OBTENCION DE SU HABILITACION<br>COORDENADAS: -35.574382, -58.0129152<br>icon-opacity: <br>icon-color: <br>icon-scale: <br>icon-offset: <br>icon-offset-units: <br>icon: <br>Descripción: <br>RUBRO NORMALIZADO: "},"styleUrl":"#icon-1899-BDBDBD","label-scale":0,"icon-opacity":"","icon-color":"","icon-scale":"","icon-offset":"","icon-offset-units":"","icon":"","descripción":"","NOMBRE / COMERCIO":"BEROIS MARCELA FERNANDA","CUIT":"27-22526280-8","CONTACTO":"2241498498","CATEGORÍA FISCAL":"MONOTRIBUTISTA G","DIRECCIÓN":"ALVEAR 150","BARRIO":"CENTRO","RUBRO":"PERFUMERIA","CATEGORIA":"BAZAR Y HOGAR","PADRÓN N°":"A3-3441","INSPECTOR/A":"ANIBAL","ÚLTIMA VISITA":"2025-12-04","VENC. HABILITACIÓN":"23/12/2027","ESTADO":"VIGENTE","OBSERVACIONES":"CUMPLE LA NORMATIVA VIGENTE PARA LA OBTENCION DE SU HABILITACION","COORDENADAS":"-35.574382, -58.0129152","Descripción":"","RUBRO NORMALIZADO":""}},{"type":"Feature","geometry":{"type":"Point","coordinates":[-58.015122,-35.572564,0]},"properties":{"name":"PERFUMERIA","description":{"@type":"html","value":"descripción: <br>styleUrl: #icon-1899-BDBDBD<br>NOMBRE / COMERCIO: BIZANTINA CHASCOMUS<br>CUIT: 30-71727047-5<br>CONTACTO: 2241537702<br>CATEGORÍA FISCAL: SS<br>DIRECCIÓN: BELGRANO 266<br>BARRIO: CENTRO<br>RUBRO: PERFUMERIA<br>CATEGORIA: BAZAR Y HOGAR<br>PADRÓN N°: A3-4394<br>INSPECTOR/A: SOFIA- IRMA<br>ÚLTIMA VISITA: 2025-11-18<br>VENC. HABILITACIÓN: 18/02/2029<br>ESTADO: VIGENTE<br>OBSERVACIONES: CUMPLE CON LA NORMATIVA VIGENTE EN MEDIDAS DE SEGURIDAD.<br>COORDENADAS: -35.5725637, -58.01512200000001<br>icon-opacity: <br>icon-color: <br>icon-scale: <br>icon-offset: <br>icon-offset-units: <br>icon: <br>Descripción: <br>RUBRO NORMALIZADO: "},"styleUrl":"#icon-1899-BDBDBD","label-scale":0,"icon-opacity":"","icon-color":"","icon-scale":"","icon-offset":"","icon-offset-units":"","icon":"","descripción":"","NOMBRE / COMERCIO":"BIZANTINA CHASCOMUS","CUIT":"30-71727047-5","CONTACTO":"2241537702","CATEGORÍA FISCAL":"SS","DIRECCIÓN":"BELGRANO 266","BARRIO":"CENTRO","RUBRO":"PERFUMERIA","CATEGORIA":"BAZAR Y HOGAR","PADRÓN N°":"A3-4394","INSPECTOR/A":"SOFIA- IRMA","ÚLTIMA VISITA":"2025-11-18","VENC. HABILITACIÓN":"18/02/2029","ESTADO":"VIGENTE","OBSERVACIONES":"CUMPLE CON LA NORMATIVA VIGENTE EN MEDIDAS DE SEGURIDAD.","COORDENADAS":"-35.5725637, -58.01512200000001","Descripción":"","RUBRO NORMALIZADO":""}},{"type":"Feature","geometry":{"type":"Point","coordinates":[-58.013648,-35.574392,0]},"properties":{"name":"PERFUMERIA Y VENTA DE ELECTRODOMESTICOS","description":{"@type":"html","value":"descripción: <br>styleUrl: #icon-1899-BDBDBD<br>NOMBRE / COMERCIO: BIZANTINA CHASCOMUS SAS<br>CUIT: 30-71727047-5<br>CONTACTO: 2241537702<br>CATEGORÍA FISCAL: SS<br>DIRECCIÓN: REMEDIOS DE ESCALADA 172<br>BARRIO: CENTRO<br>RUBRO: PERFUMERIA Y VENTA DE ELECTRODOMESTICOS<br>CATEGORIA: BAZAR Y HOGAR<br>PADRÓN N°: A3-4595<br>INSPECTOR/A: SOFIA- IRMA<br>ÚLTIMA VISITA: 2025-12-15<br>VENC. HABILITACIÓN: 26/06/2028<br>ESTADO: VIGENTE<br>OBSERVACIONES: HABILITACION VIGENTE<br>COORDENADAS: -35.57439189999999, -58.01364779999999<br>icon-opacity: <br>icon-color: <br>icon-scale: <br>icon-offset: <br>icon-offset-units: <br>icon: <br>Descripción: <br>RUBRO NORMALIZADO: "},"styleUrl":"#icon-1899-BDBDBD","label-scale":0,"icon-opacity":"","icon-color":"","icon-scale":"","icon-offset":"","icon-offset-units":"","icon":"","descripción":"","NOMBRE / COMERCIO":"BIZANTINA CHASCOMUS SAS","CUIT":"30-71727047-5","CONTACTO":"2241537702","CATEGORÍA FISCAL":"SS","DIRECCIÓN":"REMEDIOS DE ESCALADA 172","BARRIO":"CENTRO","RUBRO":"PERFUMERIA Y VENTA DE ELECTRODOMESTICOS","CATEGORIA":"BAZAR Y HOGAR","PADRÓN N°":"A3-4595","INSPECTOR/A":"SOFIA- IRMA","ÚLTIMA VISITA":"2025-12-15","VENC. HABILITACIÓN":"26/06/2028","ESTADO":"VIGENTE","OBSERVACIONES":"HABILITACION VIGENTE","COORDENADAS":"-35.57439189999999, -58.01364779999999","Descripción":"","RUBRO NORMALIZADO":""}},{"type":"Feature","geometry":{"type":"Point","coordinates":[-58.013409,-35.57361,0]},"properties":{"name":"VENTA DE MAQUILLAJE","description":{"@type":"html","value":"descripción: Descripción: GONZALIA KAREN<br>VENTA DE MAQUILLAJE<br>FRANKLIN 258, Chascomús, Buenos Aires<br>Barrio: CENTRO<br>Padrón: A3- 4123<br>Estado: SIN FECHA<br>NOMBRE / COMERCIO: GONZALIA KAREN<br>CUIT: 27-35408934-9<br>CONTACTO: 27-35408934-9<br>CATEGORÍA FISCAL: RESPONSABLE INSCRIPTO<br>DIRECCIÓN: FRANKLIN  258<br>BARRIO: CENTRO<br>RUBRO: VENTA DE MAQUILLAJE<br>RUBRO NORMALIZADO: VENTA DE MAQUILLAJE<br>CATEGORIA: OTROS SERVICIOS<br>PADRÓN N°: A3- 4123<br>INSPECTOR/A: YANINA<br>ÚLTIMA VISITA: 2026-05-06<br>VENC. HABILITACIÓN: 10/12/2026<br>ESTADO: VIGENTE<br>OBSERVACIONES: <br>styleUrl: #icon-1899-7CB342<br>NOMBRE / COMERCIO: GONZALIA KAREN<br>CUIT: 27-35408934-9<br>CONTACTO: 27-35408934-9<br>CATEGORÍA FISCAL: RESPONSABLE INSCRIPTO<br>DIRECCIÓN: FRANKLIN  258<br>BARRIO: CENTRO<br>RUBRO: VENTA DE MAQUILLAJE<br>CATEGORIA: OTROS SERVICIOS<br>PADRÓN N°: A3- 4123<br>INSPECTOR/A: YANINA<br>ÚLTIMA VISITA: 2026-05-06<br>VENC. HABILITACIÓN: 10/12/2026<br>ESTADO: VIGENTE<br>OBSERVACIONES: <br>COORDENADAS: <br>icon-opacity: 1<br>icon-color: #7cb342<br>icon-scale: 1<br>icon-offset: [32,64]<br>icon-offset-units: [\"pixels\",\"insetPixels\"]<br>icon: https://www.gstatic.com/mapspro/images/stock/503-wht-blank_maps.png<br>Descripción: GONZALIA KAREN<br>VENTA DE MAQUILLAJE<br>FRANKLIN 258, Chascomús, Buenos Aires<br>Barrio: CENTRO<br>Padrón: A3- 4123<br>Estado: SIN FECHA<br>RUBRO NORMALIZADO: VENTA DE MAQUILLAJE"},"styleUrl":"#icon-1899-7CB342","label-scale":0,"icon-opacity":"1","icon-color":"#7cb342","icon-scale":"1","icon-offset":"[32,64]","icon-offset-units":"[\"pixels\",\"insetPixels\"]","icon":"https://www.gstatic.com/mapspro/images/stock/503-wht-blank_maps.png","descripción":"Descripción: GONZALIA KAREN\nVENTA DE MAQUILLAJE\nFRANKLIN 258, Chascomús, Buenos Aires\nBarrio: CENTRO\nPadrón: A3- 4123\nEstado: SIN FECHA\nNOMBRE / COMERCIO: GONZALIA KAREN\nCUIT: 27-35408934-9\nCONTACTO: 27-35408934-9\nCATEGORÍA FISCAL: RESPONSABLE INSCRIPTO\nDIRECCIÓN: FRANKLIN 258, Chascomús, Buenos Aires\nBARRIO: CENTRO\nRUBRO: VENTA DE MAQUILLAJE\nRUBRO NORMALIZADO: VENTA DE MAQUILLAJE\nCATEGORIA: OTROS SERVICIOS\nPADRÓN N°: A3- 4123\nINSPECTOR/A: SOFIA- IRMA\nÚLTIMA VISITA: 2025-04-22\nVENC. HABILITACIÓN: NaT\nESTADO: SIN FECHA\nOBSERVACIONES: EN TRAMITE DE RENOVACION","NOMBRE / COMERCIO":"GONZALIA KAREN","CUIT":"27-35408934-9","CONTACTO":"27-35408934-9","CATEGORÍA FISCAL":"RESPONSABLE INSCRIPTO","DIRECCIÓN":"FRANKLIN  258","BARRIO":"CENTRO","RUBRO":"VENTA DE MAQUILLAJE","CATEGORIA":"OTROS SERVICIOS","PADRÓN N°":"A3- 4123","INSPECTOR/A":"YANINA","ÚLTIMA VISITA":"2026-05-06","VENC. HABILITACIÓN":"10/12/2026","ESTADO":"VIGENTE","OBSERVACIONES":"EN TRAMITE DE RENOVACION","COORDENADAS":"","Descripción":"GONZALIA KAREN\nVENTA DE MAQUILLAJE\nFRANKLIN 258, Chascomús, Buenos Aires\nBarrio: CENTRO\nPadrón: A3- 4123\nEstado: SIN FECHA","RUBRO NORMALIZADO":"VENTA DE MAQUILLAJE"}},{"type":"Feature","geometry":{"type":"Point","coordinates":[-58.013727,-35.576765,0]},"properties":{"name":"PERFUMERIA-REGALERIA","description":{"@type":"html","value":"descripción: <br>styleUrl: #icon-1899-BDBDBD<br>NOMBRE / COMERCIO: MENDIBURU ANDRES<br>CUIT: 30-71727047-5<br>CONTACTO: 425369<br>CATEGORÍA FISCAL: SAS<br>DIRECCIÓN: ARENALES 197<br>BARRIO: CENTRO<br>RUBRO: PERFUMERIA-REGALERIA<br>CATEGORIA: BAZAR Y HOGAR<br>PADRÓN N°: A3-3193<br>INSPECTOR/A: SOFIA- IRMA<br>ÚLTIMA VISITA: 2024-06-06<br>VENC. HABILITACIÓN: 02/02/2029<br>ESTADO: VIGENTE<br>OBSERVACIONES: HABILITACION VIGENTE -04-10-2024<br>COORDENADAS: -35.5767653, -58.0137268<br>icon-opacity: <br>icon-color: <br>icon-scale: <br>icon-offset: <br>icon-offset-units: <br>icon: <br>Descripción: <br>RUBRO NORMALIZADO: "},"styleUrl":"#icon-1899-BDBDBD","label-scale":0,"icon-opacity":"","icon-color":"","icon-scale":"","icon-offset":"","icon-offset-units":"","icon":"","descripción":"","NOMBRE / COMERCIO":"MENDIBURU ANDRES","CUIT":"30-71727047-5","CONTACTO":"425369","CATEGORÍA FISCAL":"SAS","DIRECCIÓN":"ARENALES 197","BARRIO":"CENTRO","RUBRO":"PERFUMERIA-REGALERIA","CATEGORIA":"BAZAR Y HOGAR","PADRÓN N°":"A3-3193","INSPECTOR/A":"SOFIA- IRMA","ÚLTIMA VISITA":"2024-06-06","VENC. HABILITACIÓN":"02/02/2029","ESTADO":"VIGENTE","OBSERVACIONES":"HABILITACION VIGENTE -04-10-2024","COORDENADAS":"-35.5767653, -58.0137268","Descripción":"","RUBRO NORMALIZADO":""}},{"type":"Feature","geometry":{"type":"Point","coordinates":[-58.016142,-35.569048,0]},"properties":{"name":"ART PERF-LIMP-PAÑAL","description":{"@type":"html","value":"descripción: <br>styleUrl: #icon-1899-BDBDBD<br>NOMBRE / COMERCIO: MENDOZA STELLA MARIS<br>CUIT: 27-22167751-5<br>CONTACTO: <br>CATEGORÍA FISCAL: RESPONSABLE INSCRIPTO<br>DIRECCIÓN: BELGRANO 409<br>BARRIO: CENTRO<br>RUBRO: ART PERF-LIMP-PAÑAL<br>CATEGORIA: BAZAR Y HOGAR<br>PADRÓN N°: A3-3431<br>INSPECTOR/A: SOFIA- IRMA<br>ÚLTIMA VISITA: 2024-07-02<br>VENC. HABILITACIÓN: 03/05/2025<br>ESTADO: VENCIDA<br>OBSERVACIONES: HABILTACION 03-05-2025/CERT FUMIGACION<br>COORDENADAS: -35.5690484, -58.01614199999999<br>icon-opacity: <br>icon-color: <br>icon-scale: <br>icon-offset: <br>icon-offset-units: <br>icon: <br>Descripción: <br>RUBRO NORMALIZADO: "},"styleUrl":"#icon-1899-BDBDBD","label-scale":0,"icon-opacity":"","icon-color":"","icon-scale":"","icon-offset":"","icon-offset-units":"","icon":"","descripción":"","NOMBRE / COMERCIO":"MENDOZA STELLA MARIS","CUIT":"27-22167751-5","CONTACTO":"15574679433012","CATEGORÍA FISCAL":"RESPONSABLE INSCRIPTO","DIRECCIÓN":"BELGRANO 409","BARRIO":"CENTRO","RUBRO":"ART PERF-LIMP-PAÑAL","CATEGORIA":"BAZAR Y HOGAR","PADRÓN N°":"A3-3431","INSPECTOR/A":"SOFIA- IRMA","ÚLTIMA VISITA":"2024-07-02","VENC. HABILITACIÓN":"03/05/2025","ESTADO":"VENCIDA","OBSERVACIONES":"HABILTACION 03-05-2025/CERT FUMIGACION","COORDENADAS":"-35.5690484, -58.01614199999999","Descripción":"","RUBRO NORMALIZADO":""}},{"type":"Feature","geometry":{"type":"Point","coordinates":[-58.014123,-35.56911,0]},"properties":{"name":"PERFUMERIA","description":{"@type":"html","value":"descripción: <br>styleUrl: #icon-1899-BDBDBD<br>NOMBRE / COMERCIO: MILLARINI MICAELA TERESITA<br>CUIT: 27-40478256-3<br>CONTACTO: 1170661499<br>CATEGORÍA FISCAL: MONOTRIBUTISTA E<br>DIRECCIÓN: CASEROS 161<br>BARRIO: CENTRO<br>RUBRO: PERFUMERIA<br>CATEGORIA: BAZAR Y HOGAR<br>PADRÓN N°: A3-4601<br>INSPECTOR/A: SOFIA- IRMA<br>ÚLTIMA VISITA: 2025-09-02<br>VENC. HABILITACIÓN: 11/07/2028<br>ESTADO: VIGENTE<br>OBSERVACIONES: HABILITACION EN TRAMITE, SE OTORGA PLAZO PARA REGULARIZAR.<br>COORDENADAS: -35.5691104, -58.01412320000001<br>icon-opacity: <br>icon-color: <br>icon-scale: <br>icon-offset: <br>icon-offset-units: <br>icon: <br>Descripción: <br>RUBRO NORMALIZADO: "},"styleUrl":"#icon-1899-BDBDBD","label-scale":0,"icon-opacity":"","icon-color":"","icon-scale":"","icon-offset":"","icon-offset-units":"","icon":"","descripción":"","NOMBRE / COMERCIO":"MILLARINI MICAELA TERESITA","CUIT":"27-40478256-3","CONTACTO":"1170661499","CATEGORÍA FISCAL":"MONOTRIBUTISTA E","DIRECCIÓN":"CASEROS 161","BARRIO":"CENTRO","RUBRO":"PERFUMERIA","CATEGORIA":"BAZAR Y HOGAR","PADRÓN N°":"A3-4601","INSPECTOR/A":"SOFIA- IRMA","ÚLTIMA VISITA":"2025-09-02","VENC. HABILITACIÓN":"11/07/2028","ESTADO":"VIGENTE","OBSERVACIONES":"HABILITACION EN TRAMITE, SE OTORGA PLAZO PARA REGULARIZAR.","COORDENADAS":"-35.5691104, -58.01412320000001","Descripción":"","RUBRO NORMALIZADO":""}},{"type":"Feature","geometry":{"type":"Point","coordinates":[-58.013736,-35.576075,0]},"properties":{"name":"PERFUMERIA/REGALERIA","description":{"@type":"html","value":"descripción: <br>styleUrl: #icon-1899-BDBDBD<br>NOMBRE / COMERCIO: TOCCI GABRIELA-DONADIO NOELIA<br>CUIT: 30-71704595-1<br>CONTACTO: 2241473335<br>CATEGORÍA FISCAL: SA<br>DIRECCIÓN: L DEL SUR 74<br>BARRIO: CENTRO<br>RUBRO: PERFUMERIA/REGALERIA<br>CATEGORIA: BAZAR Y HOGAR<br>PADRÓN N°: A3-1928<br>INSPECTOR/A: YANINA<br>ÚLTIMA VISITA: 2025-09-04<br>VENC. HABILITACIÓN: 22/08/2026<br>ESTADO: VIGENTE<br>OBSERVACIONES: QUEDA SUJETO A PROXIMAS INSPECCIONES, HABILTIACION VIGENTE<br>COORDENADAS: -35.5760746, -58.01373609999999<br>icon-opacity: <br>icon-color: <br>icon-scale: <br>icon-offset: <br>icon-offset-units: <br>icon: <br>Descripción: <br>RUBRO NORMALIZADO: "},"styleUrl":"#icon-1899-BDBDBD","label-scale":0,"icon-opacity":"","icon-color":"","icon-scale":"","icon-offset":"","icon-offset-units":"","icon":"","descripción":"","NOMBRE / COMERCIO":"TOCCI GABRIELA-DONADIO NOELIA","CUIT":"30-71704595-1","CONTACTO":"2241473335","CATEGORÍA FISCAL":"SA","DIRECCIÓN":"L DEL SUR 74","BARRIO":"CENTRO","RUBRO":"PERFUMERIA/REGALERIA","CATEGORIA":"BAZAR Y HOGAR","PADRÓN N°":"A3-1928","INSPECTOR/A":"YANINA","ÚLTIMA VISITA":"2025-09-04","VENC. HABILITACIÓN":"22/08/2026","ESTADO":"VIGENTE","OBSERVACIONES":"QUEDA SUJETO A PROXIMAS INSPECCIONES, HABILTIACION VIGENTE","COORDENADAS":"-35.5760746, -58.01373609999999","Descripción":"","RUBRO NORMALIZADO":""}},{"type":"Feature","geometry":{"type":"Point","coordinates":[-58.007411,-35.57297,0]},"properties":{"name":"PERFUMERIA","description":{"@type":"html","value":"descripción: <br>styleUrl: #icon-1899-BDBDBD<br>NOMBRE / COMERCIO: BIZANTINA CHASCOMUS SAS<br>CUIT: 30-71727047-5<br>CONTACTO: 2241537702<br>CATEGORÍA FISCAL: SS<br>DIRECCIÓN: GARAY 64<br>BARRIO: EL HUECO<br>RUBRO: PERFUMERIA<br>CATEGORIA: BAZAR Y HOGAR<br>PADRÓN N°: A3-0998<br>INSPECTOR/A: ANIBAL<br>ÚLTIMA VISITA: 2025-12-19<br>VENC. HABILITACIÓN: 19/02/2029<br>ESTADO: VIGENTE<br>OBSERVACIONES: NO CUMPLE CON LA NORMATIVA VIGENTE EN MEDIDAS DE SEGURIDAD, FALTA CINTA REFLECTIVA EN ENTRADA Y ATIDESLIZANTE, 2 LUCES DE EMERGENCIA. 15 DIAS 3/1/25<br>COORDENADAS: -35.5729701, -58.00741109999999<br>icon-opacity: <br>icon-color: <br>icon-scale: <br>icon-offset: <br>icon-offset-units: <br>icon: <br>Descripción: <br>RUBRO NORMALIZADO: "},"styleUrl":"#icon-1899-BDBDBD","label-scale":0,"icon-opacity":"","icon-color":"","icon-scale":"","icon-offset":"","icon-offset-units":"","icon":"","descripción":"","NOMBRE / COMERCIO":"BIZANTINA CHASCOMUS SAS","CUIT":"30-71727047-5","CONTACTO":"2241537702","CATEGORÍA FISCAL":"SS","DIRECCIÓN":"GARAY 64","BARRIO":"EL HUECO","RUBRO":"PERFUMERIA","CATEGORIA":"BAZAR Y HOGAR","PADRÓN N°":"A3-0998","INSPECTOR/A":"ANIBAL","ÚLTIMA VISITA":"2025-12-19","VENC. HABILITACIÓN":"19/02/2029","ESTADO":"VIGENTE","OBSERVACIONES":"NO CUMPLE CON LA NORMATIVA VIGENTE EN MEDIDAS DE SEGURIDAD, FALTA CINTA REFLECTIVA EN ENTRADA Y ATIDESLIZANTE, 2 LUCES DE EMERGENCIA. 15 DIAS 3/1/25","COORDENADAS":"-35.5729701, -58.00741109999999","Descripción":"","RUBRO NORMALIZADO":""}},{"type":"Feature","geometry":{"type":"Point","coordinates":[-58.00925,-35.567331,0]},"properties":{"name":"PERFUMERIA -ART LIMPIEZA","description":{"@type":"html","value":"descripción: <br>styleUrl: #icon-1899-BDBDBD<br>NOMBRE / COMERCIO: PATIÑO HECTOR FABIAN<br>CUIT: 20-23112862-0<br>CONTACTO: 2241672522<br>CATEGORÍA FISCAL: MONOTRIBUTISTA A<br>DIRECCIÓN: MACHADO 502<br>BARRIO: LA NORIA<br>RUBRO: PERFUMERIA -ART LIMPIEZA<br>CATEGORIA: BAZAR Y HOGAR<br>PADRÓN N°: A3-4171<br>INSPECTOR/A: YANINA<br>ÚLTIMA VISITA: 2025-09-03<br>VENC. HABILITACIÓN: 15/03/2023<br>ESTADO: VENCIDA<br>OBSERVACIONES: POSEE MATAFUEGO N° 44729 VTO PH 8/27 CARGA 8/26, CUMPLE CON LOS REQUISITOS ESTABLECIDOS EN MEDIDAS DE SEGURIDAD SEGUN NORMATIVA VIGENTE<br>COORDENADAS: -35.5673308, -58.0092496<br>icon-opacity: <br>icon-color: <br>icon-scale: <br>icon-offset: <br>icon-offset-units: <br>icon: <br>Descripción: <br>RUBRO NORMALIZADO: "},"styleUrl":"#icon-1899-BDBDBD","label-scale":0,"icon-opacity":"","icon-color":"","icon-scale":"","icon-offset":"","icon-offset-units":"","icon":"","descripción":"","NOMBRE / COMERCIO":"PATIÑO HECTOR FABIAN","CUIT":"20-23112862-0","CONTACTO":"2241672522","CATEGORÍA FISCAL":"MONOTRIBUTISTA A","DIRECCIÓN":"MACHADO 502","BARRIO":"LA NORIA","RUBRO":"PERFUMERIA -ART LIMPIEZA","CATEGORIA":"BAZAR Y HOGAR","PADRÓN N°":"A3-4171","INSPECTOR/A":"YANINA","ÚLTIMA VISITA":"2025-09-03","VENC. HABILITACIÓN":"15/03/2023","ESTADO":"VENCIDA","OBSERVACIONES":"POSEE MATAFUEGO N° 44729 VTO PH 8/27 CARGA 8/26, CUMPLE CON LOS REQUISITOS ESTABLECIDOS EN MEDIDAS DE SEGURIDAD SEGUN NORMATIVA VIGENTE","COORDENADAS":"-35.5673308, -58.0092496","Descripción":"","RUBRO NORMALIZADO":""}},{"type":"Feature","geometry":{"type":"Point","coordinates":[-58.012315,-35.560154,0]},"properties":{"name":"PELUQUERIA","description":{"@type":"html","value":"descripción: <br>styleUrl: #icon-1899-FF5252<br>NOMBRE / COMERCIO: FONTANA FRANCO RODRIGO<br>CUIT: 20-36868667-1<br>CONTACTO: 2241-558274<br>CATEGORÍA FISCAL: NO REGISTRA IMPUESTOS ACTIVOS<br>DIRECCIÓN: HIPÓLITO YRIGOYEN 902-LOCAL 3<br>BARRIO: JARDIN<br>RUBRO: PELUQUERIA<br>CATEGORIA: SERVICIOS PERSONALES<br>PADRÓN N°: A3-3651<br>INSPECTOR/A: <br>ÚLTIMA VISITA: <br>VENC. HABILITACIÓN: 15/03/2025<br>ESTADO: VENCIDA<br>OBSERVACIONES: CANC DE DEUDA SEG E HIG -CANC DE DEUDA INMUEBLE<br>COORDENADAS: -35.5601539, -58.0123151<br>icon-opacity: <br>icon-color: <br>icon-scale: <br>icon-offset: <br>icon-offset-units: <br>icon: <br>Descripción: <br>RUBRO NORMALIZADO: "},"styleUrl":"#icon-1899-FF5252","label-scale":0,"icon-opacity":"","icon-color":"","icon-scale":"","icon-offset":"","icon-offset-units":"","icon":"","descripción":"","NOMBRE / COMERCIO":"FONTANA FRANCO RODRIGO","CUIT":"20-36868667-1","CONTACTO":"2241-558274","CATEGORÍA FISCAL":"NO REGISTRA IMPUESTOS ACTIVOS","DIRECCIÓN":"HIPÓLITO YRIGOYEN 902-LOCAL 3","BARRIO":"JARDIN","RUBRO":"PELUQUERIA","CATEGORIA":"SERVICIOS PERSONALES","PADRÓN N°":"A3-3651","INSPECTOR/A":"","ÚLTIMA VISITA":"","VENC. HABILITACIÓN":"15/03/2025","ESTADO":"VENCIDA","OBSERVACIONES":"CANC DE DEUDA SEG E HIG -CANC DE DEUDA INMUEBLE","COORDENADAS":"-35.5601539, -58.0123151","Descripción":"","RUBRO NORMALIZADO":""}},{"type":"Feature","geometry":{"type":"Point","coordinates":[-58.015174,-35.554198,0]},"properties":{"name":"SALON BELLEZA","description":{"@type":"html","value":"descripción: <br>styleUrl: #icon-1899-BDBDBD<br>NOMBRE / COMERCIO: PIBOLEAU MA ESTER<br>CUIT: 27-26842590-5<br>CONTACTO: 2241507958<br>CATEGORÍA FISCAL: MONOTRIBUTISTA A<br>DIRECCIÓN: J QUINTANA 1257<br>BARRIO: <br>RUBRO: SALON BELLEZA<br>CATEGORIA: SERVICIOS PERSONALES<br>PADRÓN N°: A3-4351<br>INSPECTOR/A: YANINA<br>ÚLTIMA VISITA: 2025-03-08<br>VENC. HABILITACIÓN: 25/01/2025<br>ESTADO: VENCIDA<br>OBSERVACIONES: HAB 25-01-2025<br>COORDENADAS: -35.5541979, -58.0151744<br>icon-opacity: <br>icon-color: <br>icon-scale: <br>icon-offset: <br>icon-offset-units: <br>icon: <br>Descripción: <br>RUBRO NORMALIZADO: "},"styleUrl":"#icon-1899-BDBDBD","label-scale":0,"icon-opacity":"","icon-color":"","icon-scale":"","icon-offset":"","icon-offset-units":"","icon":"","descripción":"","NOMBRE / COMERCIO":"PIBOLEAU MA ESTER","CUIT":"27-26842590-5","CONTACTO":"2241507958","CATEGORÍA FISCAL":"MONOTRIBUTISTA A","DIRECCIÓN":"J QUINTANA 1257","BARRIO":"BARRIO JARDIN","RUBRO":"SALON BELLEZA","CATEGORIA":"SERVICIOS PERSONALES","PADRÓN N°":"A3-4351","INSPECTOR/A":"YANINA","ÚLTIMA VISITA":"2025-03-08","VENC. HABILITACIÓN":"25/01/2025","ESTADO":"VENCIDA","OBSERVACIONES":"HAB 25-01-2025","COORDENADAS":"-35.5541979, -58.0151744","Descripción":"","RUBRO NORMALIZADO":""}},{"type":"Feature","geometry":{"type":"Point","coordinates":[-58.014555,-35.576196,0]},"properties":{"name":"SALON DE BELLEZA","description":{"@type":"html","value":"descripción: <br>styleUrl: #icon-1899-BDBDBD<br>NOMBRE / COMERCIO: ALMIRON CAROLINA V<br>CUIT: 27-30448456-5<br>CONTACTO: 1131798704<br>CATEGORÍA FISCAL: MONOTRIBUTISTA D<br>DIRECCIÓN: BELGRANO 78, Chascomús, Buenos Aires<br>BARRIO: CENTRO<br>RUBRO: SALON DE BELLEZA<br>CATEGORIA: SERVICIOS PERSONALES<br>PADRÓN N°: A3 4196<br>INSPECTOR/A: SOFIA- IRMA<br>ÚLTIMA VISITA: 2024-07-10<br>VENC. HABILITACIÓN: 12/12/2026<br>ESTADO: VIGENTE<br>OBSERVACIONES: HABILITACION VENCIDA 26-05-2021<br>COORDENADAS: -35.5761956, -58.0145552<br>icon-opacity: <br>icon-color: <br>icon-scale: <br>icon-offset: <br>icon-offset-units: <br>icon: <br>Descripción: <br>RUBRO NORMALIZADO: "},"styleUrl":"#icon-1899-BDBDBD","label-scale":0,"icon-opacity":"","icon-color":"","icon-scale":"","icon-offset":"","icon-offset-units":"","icon":"","descripción":"","NOMBRE / COMERCIO":"ALMIRON CAROLINA V","CUIT":"27-30448456-5","CONTACTO":"1131798704","CATEGORÍA FISCAL":"MONOTRIBUTISTA D","DIRECCIÓN":"BELGRANO 78, Chascomús, Buenos Aires","BARRIO":"CENTRO","RUBRO":"SALON DE BELLEZA","CATEGORIA":"SERVICIOS PERSONALES","PADRÓN N°":"A3 4196","INSPECTOR/A":"SOFIA- IRMA","ÚLTIMA VISITA":"2024-07-10","VENC. HABILITACIÓN":"12/12/2026","ESTADO":"VIGENTE","OBSERVACIONES":"HABILITACION VENCIDA 26-05-2021","COORDENADAS":"-35.5761956, -58.0145552","Descripción":"","RUBRO NORMALIZADO":""}},{"type":"Feature","geometry":{"type":"Point","coordinates":[-58.014555,-35.576196,0]},"properties":{"name":"CENTRO DE BELLEZA","description":{"@type":"html","value":"descripción: <br>styleUrl: #icon-1899-BDBDBD<br>NOMBRE / COMERCIO: ALMIRON CAROLINA VALERIA<br>CUIT: 27-30448456-5<br>CONTACTO: 1124039648<br>CATEGORÍA FISCAL: MONOTRIBUTISTA D<br>DIRECCIÓN: BELGRANO 78<br>BARRIO: CENTRO<br>RUBRO: CENTRO DE BELLEZA<br>CATEGORIA: SERVICIOS PERSONALES<br>PADRÓN N°: A3-4196<br>INSPECTOR/A: SOFIA- IRMA<br>ÚLTIMA VISITA: 2025-10-30<br>VENC. HABILITACIÓN: 12/12/2026<br>ESTADO: VIGENTE<br>OBSERVACIONES: EQUIPO N° 335767 VTO 9/26<br>COORDENADAS: -35.5761956, -58.0145552<br>icon-opacity: <br>icon-color: <br>icon-scale: <br>icon-offset: <br>icon-offset-units: <br>icon: <br>Descripción: <br>RUBRO NORMALIZADO: "},"styleUrl":"#icon-1899-BDBDBD","label-scale":0,"icon-opacity":"","icon-color":"","icon-scale":"","icon-offset":"","icon-offset-units":"","icon":"","descripción":"","NOMBRE / COMERCIO":"ALMIRON CAROLINA VALERIA","CUIT":"27-30448456-5","CONTACTO":"1124039648","CATEGORÍA FISCAL":"MONOTRIBUTISTA D","DIRECCIÓN":"BELGRANO 78","BARRIO":"CENTRO","RUBRO":"CENTRO DE BELLEZA","CATEGORIA":"SERVICIOS PERSONALES","PADRÓN N°":"A3-4196","INSPECTOR/A":"SOFIA- IRMA","ÚLTIMA VISITA":"2025-10-30","VENC. HABILITACIÓN":"12/12/2026","ESTADO":"VIGENTE","OBSERVACIONES":"EQUIPO N° 335767 VTO 9/26","COORDENADAS":"-35.5761956, -58.0145552","Descripción":"","RUBRO NORMALIZADO":""}},{"type":"Feature","geometry":{"type":"Point","coordinates":[-58.01175,-35.575553,0]},"properties":{"name":"PELUQUERIA","description":{"@type":"html","value":"descripción: <br>styleUrl: #icon-1899-FF5252<br>NOMBRE / COMERCIO: AUZOBERRIA MA INES<br>CUIT: 27-11501329-2<br>CONTACTO: 2241436735<br>CATEGORÍA FISCAL: MONOTRIBUTISTA B<br>DIRECCIÓN: SOLER 105<br>BARRIO: CENTRO<br>RUBRO: PELUQUERIA<br>CATEGORIA: SERVICIOS PERSONALES<br>PADRÓN N°: A1-0138<br>INSPECTOR/A: SOFIA- IRMA<br>ÚLTIMA VISITA: 2024-05-29<br>VENC. HABILITACIÓN: 11/03/2025<br>ESTADO: VENCIDA<br>OBSERVACIONES: HABILTACION VENC 11-03-2024<br>COORDENADAS: -35.5755531, -58.01175000000001<br>icon-opacity: <br>icon-color: <br>icon-scale: <br>icon-offset: <br>icon-offset-units: <br>icon: <br>Descripción: <br>RUBRO NORMALIZADO: "},"styleUrl":"#icon-1899-FF5252","label-scale":0,"icon-opacity":"","icon-color":"","icon-scale":"","icon-offset":"","icon-offset-units":"","icon":"","descripción":"","NOMBRE / COMERCIO":"AUZOBERRIA MA INES","CUIT":"27-11501329-2","CONTACTO":"2241436735","CATEGORÍA FISCAL":"MONOTRIBUTISTA B","DIRECCIÓN":"SOLER 105","BARRIO":"CENTRO","RUBRO":"PELUQUERIA","CATEGORIA":"SERVICIOS PERSONALES","PADRÓN N°":"A1-0138","INSPECTOR/A":"SOFIA- IRMA","ÚLTIMA VISITA":"2024-05-29","VENC. HABILITACIÓN":"11/03/2025","ESTADO":"VENCIDA","OBSERVACIONES":"HABILTACION VENC 11-03-2024","COORDENADAS":"-35.5755531, -58.01175000000001","Descripción":"","RUBRO NORMALIZADO":""}},{"type":"Feature","geometry":{"type":"Point","coordinates":[-58.014214,-35.5739,0]},"properties":{"name":"PELUQUERIA","description":{"@type":"html","value":"descripción: <br>styleUrl: #icon-1899-FF5252<br>NOMBRE / COMERCIO: BARRAGAN JOSE LUIS<br>CUIT: 20139347359<br>CONTACTO: <br>CATEGORÍA FISCAL: MONOTRIBUTISTA C<br>DIRECCIÓN: L DEL SUR 194/1<br>BARRIO: CENTRO<br>RUBRO: PELUQUERIA<br>CATEGORIA: SERVICIOS PERSONALES<br>PADRÓN N°: A3-3564<br>INSPECTOR/A: SOFIA- IRMA<br>ÚLTIMA VISITA: 2025-09-09<br>VENC. HABILITACIÓN: 29/09/2028<br>ESTADO: VIGENTE<br>OBSERVACIONES: QUE AL MOMENTO DE LA INSPECCION POSEE EQUIPO N° 030585 VTO 11/25 PH 11/29. POSEE DISYUNTOR, LUZ DE EMERGENCIA SE FIRMA MEDIDAS DE SEGURIDAD PARA QUE CONTINUE.<br>COORDENADAS: -35.5739004, -58.014214<br>icon-opacity: <br>icon-color: <br>icon-scale: <br>icon-offset: <br>icon-offset-units: <br>icon: <br>Descripción: <br>RUBRO NORMALIZADO: "},"styleUrl":"#icon-1899-FF5252","label-scale":0,"icon-opacity":"","icon-color":"","icon-scale":"","icon-offset":"","icon-offset-units":"","icon":"","descripción":"","NOMBRE / COMERCIO":"BARRAGAN JOSE LUIS","CUIT":"20139347359","CONTACTO":"2234780777","CATEGORÍA FISCAL":"MONOTRIBUTISTA C","DIRECCIÓN":"L DEL SUR 194/1","BARRIO":"CENTRO","RUBRO":"PELUQUERIA","CATEGORIA":"SERVICIOS PERSONALES","PADRÓN N°":"A3-3564","INSPECTOR/A":"SOFIA- IRMA","ÚLTIMA VISITA":"2025-09-09","VENC. HABILITACIÓN":"29/09/2028","ESTADO":"VIGENTE","OBSERVACIONES":"QUE AL MOMENTO DE LA INSPECCION POSEE EQUIPO N° 030585 VTO 11/25 PH 11/29. POSEE DISYUNTOR, LUZ DE EMERGENCIA SE FIRMA MEDIDAS DE SEGURIDAD PARA QUE CONTINUE.","COORDENADAS":"-35.5739004, -58.014214","Descripción":"","RUBRO NORMALIZADO":""}},{"type":"Feature","geometry":{"type":"Point","coordinates":[-58.014648,-35.571086,0]},"properties":{"name":"PELUQUERIA","description":{"@type":"html","value":"descripción: <br>styleUrl: #icon-1899-FF5252<br>NOMBRE / COMERCIO: BASUALDO JULIETA<br>CUIT: 23-32527109-4<br>CONTACTO: <br>CATEGORÍA FISCAL: MONOTRIBUTISTA A<br>DIRECCIÓN: LIBRES DEL SUR 348<br>BARRIO: CENTRO<br>RUBRO: PELUQUERIA<br>CATEGORIA: SERVICIOS PERSONALES<br>PADRÓN N°: A1-0136<br>INSPECTOR/A: <br>ÚLTIMA VISITA: <br>VENC. HABILITACIÓN: 09/04/2027<br>ESTADO: VIGENTE<br>OBSERVACIONES: HABILITACION VIGENTE<br>COORDENADAS: -35.5710863, -58.0146479<br>icon-opacity: <br>icon-color: <br>icon-scale: <br>icon-offset: <br>icon-offset-units: <br>icon: <br>Descripción: <br>RUBRO NORMALIZADO: "},"styleUrl":"#icon-1899-FF5252","label-scale":0,"icon-opacity":"","icon-color":"","icon-scale":"","icon-offset":"","icon-offset-units":"","icon":"","descripción":"","NOMBRE / COMERCIO":"BASUALDO JULIETA","CUIT":"23-32527109-4","CONTACTO":"2241494086","CATEGORÍA FISCAL":"MONOTRIBUTISTA A","DIRECCIÓN":"LIBRES DEL SUR 348","BARRIO":"CENTRO","RUBRO":"PELUQUERIA","CATEGORIA":"SERVICIOS PERSONALES","PADRÓN N°":"A1-0136","INSPECTOR/A":"","ÚLTIMA VISITA":"","VENC. HABILITACIÓN":"09/04/2027","ESTADO":"VIGENTE","OBSERVACIONES":"HABILITACION VIGENTE","COORDENADAS":"-35.5710863, -58.0146479","Descripción":"","RUBRO NORMALIZADO":""}},{"type":"Feature","geometry":{"type":"Point","coordinates":[-58.015675,-35.569945,0]},"properties":{"name":"CENTRO ESTETICA","description":{"@type":"html","value":"descripción: <br>styleUrl: #icon-1899-BDBDBD<br>NOMBRE / COMERCIO: BRUNO ANTONELLA<br>CUIT: 27-35537302-4<br>CONTACTO: 1124743444<br>CATEGORÍA FISCAL: MONOTRIBUTISTA E<br>DIRECCIÓN: BELGRANO 354<br>BARRIO: CENTRO<br>RUBRO: CENTRO ESTETICA<br>CATEGORIA: SERVICIOS PERSONALES<br>PADRÓN N°: A3-4459<br>INSPECTOR/A: SOFIA- IRMA<br>ÚLTIMA VISITA: 2025-11-13<br>VENC. HABILITACIÓN: 03/04/2027<br>ESTADO: VIGENTE<br>OBSERVACIONES: SE DEJA COPIA, DATOS TOMADOS DE LA HABILITACION EXIBIDA EN PUERTA<br>COORDENADAS: -35.5699446, -58.01567540000001<br>icon-opacity: <br>icon-color: <br>icon-scale: <br>icon-offset: <br>icon-offset-units: <br>icon: <br>Descripción: <br>RUBRO NORMALIZADO: "},"styleUrl":"#icon-1899-BDBDBD","label-scale":0,"icon-opacity":"","icon-color":"","icon-scale":"","icon-offset":"","icon-offset-units":"","icon":"","descripción":"","NOMBRE / COMERCIO":"BRUNO ANTONELLA","CUIT":"27-35537302-4","CONTACTO":"1124743444","CATEGORÍA FISCAL":"MONOTRIBUTISTA E","DIRECCIÓN":"BELGRANO 354","BARRIO":"CENTRO","RUBRO":"CENTRO ESTETICA","CATEGORIA":"SERVICIOS PERSONALES","PADRÓN N°":"A3-4459","INSPECTOR/A":"SOFIA- IRMA","ÚLTIMA VISITA":"2025-11-13","VENC. HABILITACIÓN":"03/04/2027","ESTADO":"VIGENTE","OBSERVACIONES":"SE DEJA COPIA, DATOS TOMADOS DE LA HABILITACION EXIBIDA EN PUERTA","COORDENADAS":"-35.5699446, -58.01567540000001","Descripción":"","RUBRO NORMALIZADO":""}},{"type":"Feature","geometry":{"type":"Point","coordinates":[-58.014844,-35.572152,0]},"properties":{"name":"SALON DE BELLEZA","description":{"@type":"html","value":"descripción: <br>styleUrl: #icon-1899-BDBDBD<br>NOMBRE / COMERCIO: CABRERA RUIZ DIAZ VID<br>CUIT: 27-95275059-9<br>CONTACTO: 2241576570<br>CATEGORÍA FISCAL: RESPONSABLE INSCRIPTO<br>DIRECCIÓN: LIBRES DEL SUR 295<br>BARRIO: CENTRO<br>RUBRO: SALON DE BELLEZA<br>CATEGORIA: SERVICIOS PERSONALES<br>PADRÓN N°: A3-3300<br>INSPECTOR/A: YANINA<br>ÚLTIMA VISITA: 2024-07-11<br>VENC. HABILITACIÓN: 28/10/2027<br>ESTADO: VIGENTE<br>OBSERVACIONES: RENOVAR HABILITACION/72 HS<br>COORDENADAS: -35.5721516, -58.0148439<br>icon-opacity: <br>icon-color: <br>icon-scale: <br>icon-offset: <br>icon-offset-units: <br>icon: <br>Descripción: <br>RUBRO NORMALIZADO: "},"styleUrl":"#icon-1899-BDBDBD","label-scale":0,"icon-opacity":"","icon-color":"","icon-scale":"","icon-offset":"","icon-offset-units":"","icon":"","descripción":"","NOMBRE / COMERCIO":"CABRERA RUIZ DIAZ VID","CUIT":"27-95275059-9","CONTACTO":"2241576570","CATEGORÍA FISCAL":"RESPONSABLE INSCRIPTO","DIRECCIÓN":"LIBRES DEL SUR 295","BARRIO":"CENTRO","RUBRO":"SALON DE BELLEZA","CATEGORIA":"SERVICIOS PERSONALES","PADRÓN N°":"A3-3300","INSPECTOR/A":"YANINA","ÚLTIMA VISITA":"2024-07-11","VENC. HABILITACIÓN":"28/10/2027","ESTADO":"VIGENTE","OBSERVACIONES":"RENOVAR HABILITACION/72 HS","COORDENADAS":"-35.5721516, -58.0148439","Descripción":"","RUBRO NORMALIZADO":""}},{"type":"Feature","geometry":{"type":"Point","coordinates":[-58.015197,-35.575604,0]},"properties":{"name":"PELUQUERIA","description":{"@type":"html","value":"descripción: <br>styleUrl: #icon-1899-FF5252<br>NOMBRE / COMERCIO: CHAPPA JOHANA VICTORIA<br>CUIT: 27-36213769-7<br>CONTACTO: 2241536437<br>CATEGORÍA FISCAL: MONOTRIBUTISTA A<br>DIRECCIÓN: SOLER 258<br>BARRIO: CENTRO<br>RUBRO: PELUQUERIA<br>CATEGORIA: SERVICIOS PERSONALES<br>PADRÓN N°: A3-3936<br>INSPECTOR/A: SOFIA- IRMA<br>ÚLTIMA VISITA: 2025-12-17<br>VENC. HABILITACIÓN: 04/05/2025<br>ESTADO: VENCIDA<br>OBSERVACIONES: POSEE HABILITACION SEGUN ORDENANZA 3653/07 CON VTO 4/5/25 SE OTORGA PLAZO DE 15 DIAS PARA REGULARIZAR<br>COORDENADAS: -35.5756044, -58.0151973<br>icon-opacity: <br>icon-color: <br>icon-scale: <br>icon-offset: <br>icon-offset-units: <br>icon: <br>Descripción: <br>RUBRO NORMALIZADO: "},"styleUrl":"#icon-1899-FF5252","label-scale":0,"icon-opacity":"","icon-color":"","icon-scale":"","icon-offset":"","icon-offset-units":"","icon":"","descripción":"","NOMBRE / COMERCIO":"CHAPPA JOHANA VICTORIA","CUIT":"27-36213769-7","CONTACTO":"2241536437","CATEGORÍA FISCAL":"MONOTRIBUTISTA A","DIRECCIÓN":"SOLER 258","BARRIO":"CENTRO","RUBRO":"PELUQUERIA","CATEGORIA":"SERVICIOS PERSONALES","PADRÓN N°":"A3-3936","INSPECTOR/A":"SOFIA- IRMA","ÚLTIMA VISITA":"2025-12-17","VENC. HABILITACIÓN":"04/05/2025","ESTADO":"VENCIDA","OBSERVACIONES":"POSEE HABILITACION SEGUN ORDENANZA 3653/07 CON VTO 4/5/25 SE OTORGA PLAZO DE 15 DIAS PARA REGULARIZAR","COORDENADAS":"-35.5756044, -58.0151973","Descripción":"","RUBRO NORMALIZADO":""}},{"type":"Feature","geometry":{"type":"Point","coordinates":[-58.014967,-35.569762,0]},"properties":{"name":"PELUQUERIA","description":{"@type":"html","value":"descripción: <br>styleUrl: #icon-1899-FF5252<br>NOMBRE / COMERCIO: ECHAGUE KARINA DANIELA<br>CUIT: 27-21439461-3<br>CONTACTO: 1169560164<br>CATEGORÍA FISCAL: MONOTRIBUTISTA B<br>DIRECCIÓN: L DEL SUR 416<br>BARRIO: CENTRO<br>RUBRO: PELUQUERIA<br>CATEGORIA: SERVICIOS PERSONALES<br>PADRÓN N°: A3-3767<br>INSPECTOR/A: MARTINA<br>ÚLTIMA VISITA: 2026-01-08<br>VENC. HABILITACIÓN: 16/01/2029<br>ESTADO: VIGENTE<br>OBSERVACIONES: CUMPLE CON LA NORMATIVA VIGENTE PARA SU HABILITACION COMERCIAL<br>COORDENADAS: -35.5697623, -58.01496739999999<br>icon-opacity: <br>icon-color: <br>icon-scale: <br>icon-offset: <br>icon-offset-units: <br>icon: <br>Descripción: <br>RUBRO NORMALIZADO: "},"styleUrl":"#icon-1899-FF5252","label-scale":0,"icon-opacity":"","icon-color":"","icon-scale":"","icon-offset":"","icon-offset-units":"","icon":"","descripción":"","NOMBRE / COMERCIO":"ECHAGUE KARINA DANIELA","CUIT":"27-21439461-3","CONTACTO":"1169560164","CATEGORÍA FISCAL":"MONOTRIBUTISTA B","DIRECCIÓN":"L DEL SUR 416","BARRIO":"CENTRO","RUBRO":"PELUQUERIA","CATEGORIA":"SERVICIOS PERSONALES","PADRÓN N°":"A3-3767","INSPECTOR/A":"MARTINA","ÚLTIMA VISITA":"2026-01-08","VENC. HABILITACIÓN":"16/01/2029","ESTADO":"VIGENTE","OBSERVACIONES":"CUMPLE CON LA NORMATIVA VIGENTE PARA SU HABILITACION COMERCIAL","COORDENADAS":"-35.5697623, -58.01496739999999","Descripción":"","RUBRO NORMALIZADO":""}},{"type":"Feature","geometry":{"type":"Point","coordinates":[-58.01367,-35.564846,0]},"properties":{"name":"SALON DE ESTETICA","description":{"@type":"html","value":"descripción: <br>styleUrl: #icon-1899-BDBDBD<br>NOMBRE / COMERCIO: ETCHETO DANIELA(NANI)<br>CUIT: 27-34101550-8<br>CONTACTO: 2241468593<br>CATEGORÍA FISCAL: MONOTRIBUTISTA D<br>DIRECCIÓN: ESCRIBANO T J QUINTANA<br>BARRIO: CENTRO<br>RUBRO: SALON DE ESTETICA<br>CATEGORIA: SERVICIOS PERSONALES<br>PADRÓN N°: A3-4391<br>INSPECTOR/A: SOFIA- IRMA<br>ÚLTIMA VISITA: 2025-12-05<br>VENC. HABILITACIÓN: 16/09/2027<br>ESTADO: VIGENTE<br>OBSERVACIONES: POSEE HABILITACION COMERCIAL CON VTO 16/09/2027<br>COORDENADAS: -35.5648464, -58.0136696<br>icon-opacity: <br>icon-color: <br>icon-scale: <br>icon-offset: <br>icon-offset-units: <br>icon: <br>Descripción: <br>RUBRO NORMALIZADO: "},"styleUrl":"#icon-1899-BDBDBD","label-scale":0,"icon-opacity":"","icon-color":"","icon-scale":"","icon-offset":"","icon-offset-units":"","icon":"","descripción":"","NOMBRE / COMERCIO":"ETCHETO DANIELA(NANI)","CUIT":"27-34101550-8","CONTACTO":"2241468593","CATEGORÍA FISCAL":"MONOTRIBUTISTA D","DIRECCIÓN":"ESCRIBANO T J QUINTANA","BARRIO":"CENTRO","RUBRO":"SALON DE ESTETICA","CATEGORIA":"SERVICIOS PERSONALES","PADRÓN N°":"A3-4391","INSPECTOR/A":"SOFIA- IRMA","ÚLTIMA VISITA":"2025-12-05","VENC. HABILITACIÓN":"16/09/2027","ESTADO":"VIGENTE","OBSERVACIONES":"POSEE HABILITACION COMERCIAL CON VTO 16/09/2027","COORDENADAS":"-35.5648464, -58.0136696","Descripción":"","RUBRO NORMALIZADO":""}},{"type":"Feature","geometry":{"type":"Point","coordinates":[-58.014284,-35.572644,0]},"properties":{"name":"PELUQUERIA","description":{"@type":"html","value":"descripción: <br>styleUrl: #icon-1899-FF5252<br>NOMBRE / COMERCIO: INSAUSTI CRISTIAN<br>CUIT: 20-17919906-9<br>CONTACTO: 2241-507470<br>CATEGORÍA FISCAL: MONOTRIBUTISTA D<br>DIRECCIÓN: BOLIVAR 178<br>BARRIO: CENTRO<br>RUBRO: PELUQUERIA<br>CATEGORIA: SERVICIOS PERSONALES<br>PADRÓN N°: A3-3563<br>INSPECTOR/A: SOFIA- IRMA<br>ÚLTIMA VISITA: 2025-12-05<br>VENC. HABILITACIÓN: 10/09/2019<br>ESTADO: VENCIDA<br>OBSERVACIONES: cese<br>COORDENADAS: -35.5726442, -58.01428359999999<br>icon-opacity: <br>icon-color: <br>icon-scale: <br>icon-offset: <br>icon-offset-units: <br>icon: <br>Descripción: <br>RUBRO NORMALIZADO: "},"styleUrl":"#icon-1899-FF5252","label-scale":0,"icon-opacity":"","icon-color":"","icon-scale":"","icon-offset":"","icon-offset-units":"","icon":"","descripción":"","NOMBRE / COMERCIO":"INSAUSTI CRISTIAN","CUIT":"20-17919906-9","CONTACTO":"2241-507470","CATEGORÍA FISCAL":"MONOTRIBUTISTA D","DIRECCIÓN":"BOLIVAR 178","BARRIO":"CENTRO","RUBRO":"PELUQUERIA","CATEGORIA":"SERVICIOS PERSONALES","PADRÓN N°":"A3-3563","INSPECTOR/A":"SOFIA- IRMA","ÚLTIMA VISITA":"2025-12-05","VENC. HABILITACIÓN":"10/09/2019","ESTADO":"VENCIDA","OBSERVACIONES":"cese","COORDENADAS":"-35.5726442, -58.01428359999999","Descripción":"","RUBRO NORMALIZADO":""}},{"type":"Feature","geometry":{"type":"Point","coordinates":[-58.014988,-35.576567,0]},"properties":{"name":"CENTRO BELLEZA","description":{"@type":"html","value":"descripción: <br>styleUrl: #icon-1899-BDBDBD<br>NOMBRE / COMERCIO: LEGUIZAMON NATALIA<br>CUIT: 27-25338653-9<br>CONTACTO: 1156465198<br>CATEGORÍA FISCAL: MONOTRIBUTISTA B<br>DIRECCIÓN: ARENALES 264<br>BARRIO: CENTRO<br>RUBRO: CENTRO BELLEZA<br>CATEGORIA: SERVICIOS PERSONALES<br>PADRÓN N°: A3-4355<br>INSPECTOR/A: YANINA<br>ÚLTIMA VISITA: 2025-12-22<br>VENC. HABILITACIÓN: 31/01/2026<br>ESTADO: VENCIDA<br>OBSERVACIONES: HABILITACION CON UN AÑO D EVIGENCIA HASTA 1/1/26<br>COORDENADAS: -35.5765673, -58.0149884<br>icon-opacity: <br>icon-color: <br>icon-scale: <br>icon-offset: <br>icon-offset-units: <br>icon: <br>Descripción: <br>RUBRO NORMALIZADO: "},"styleUrl":"#icon-1899-BDBDBD","label-scale":0,"icon-opacity":"","icon-color":"","icon-scale":"","icon-offset":"","icon-offset-units":"","icon":"","descripción":"","NOMBRE / COMERCIO":"LEGUIZAMON NATALIA","CUIT":"27-25338653-9","CONTACTO":"1156465198","CATEGORÍA FISCAL":"MONOTRIBUTISTA B","DIRECCIÓN":"ARENALES 264","BARRIO":"CENTRO","RUBRO":"CENTRO BELLEZA","CATEGORIA":"SERVICIOS PERSONALES","PADRÓN N°":"A3-4355","INSPECTOR/A":"YANINA","ÚLTIMA VISITA":"2025-12-22","VENC. HABILITACIÓN":"31/01/2026","ESTADO":"VENCIDA","OBSERVACIONES":"HABILITACION CON UN AÑO D EVIGENCIA HASTA 1/1/26","COORDENADAS":"-35.5765673, -58.0149884","Descripción":"","RUBRO NORMALIZADO":""}},{"type":"Feature","geometry":{"type":"Point","coordinates":[-58.015083,-35.575085,0]},"properties":{"name":"PELUQUERIA","description":{"@type":"html","value":"descripción: <br>styleUrl: #icon-1899-FF5252<br>NOMBRE / COMERCIO: MARTINEZ ALEJO<br>CUIT: 20-44426937-6<br>CONTACTO: 2241561486<br>CATEGORÍA FISCAL: MONOTRIBUTISTA D<br>DIRECCIÓN: BELGRANO 141<br>BARRIO: CENTRO<br>RUBRO: PELUQUERIA<br>CATEGORIA: SERVICIOS PERSONALES<br>PADRÓN N°: A1-0132<br>INSPECTOR/A: SOFIA- IRMA<br>ÚLTIMA VISITA: 2025-11-05<br>VENC. HABILITACIÓN: 13/05/2028<br>ESTADO: VIGENTE<br>OBSERVACIONES: AL MOMENOT DE LA INSPECCION NO SE ENCUENTRA POR ESTAR EN TRAMITE, 15 DIAS<br>COORDENADAS: -35.5750847, -58.01508349999999<br>icon-opacity: <br>icon-color: <br>icon-scale: <br>icon-offset: <br>icon-offset-units: <br>icon: <br>Descripción: <br>RUBRO NORMALIZADO: "},"styleUrl":"#icon-1899-FF5252","label-scale":0,"icon-opacity":"","icon-color":"","icon-scale":"","icon-offset":"","icon-offset-units":"","icon":"","descripción":"","NOMBRE / COMERCIO":"MARTINEZ ALEJO","CUIT":"20-44426937-6","CONTACTO":"2241561486","CATEGORÍA FISCAL":"MONOTRIBUTISTA D","DIRECCIÓN":"BELGRANO 141","BARRIO":"CENTRO","RUBRO":"PELUQUERIA","CATEGORIA":"SERVICIOS PERSONALES","PADRÓN N°":"A1-0132","INSPECTOR/A":"SOFIA- IRMA","ÚLTIMA VISITA":"2025-11-05","VENC. HABILITACIÓN":"13/05/2028","ESTADO":"VIGENTE","OBSERVACIONES":"AL MOMENOT DE LA INSPECCION NO SE ENCUENTRA POR ESTAR EN TRAMITE, 15 DIAS","COORDENADAS":"-35.5750847, -58.01508349999999","Descripción":"","RUBRO NORMALIZADO":""}},{"type":"Feature","geometry":{"type":"Point","coordinates":[-58.013095,-35.573236,0]},"properties":{"name":"CENTRO ESTETICA","description":{"@type":"html","value":"descripción: <br>styleUrl: #icon-1899-BDBDBD<br>NOMBRE / COMERCIO: MAZZARO CATALINA<br>CUIT: 27-28532671-6<br>CONTACTO: 1136785949<br>CATEGORÍA FISCAL: NO REGISTRA IMPUESTOS ACTIVOS<br>DIRECCIÓN: ALVEAR 212<br>BARRIO: CENTRO<br>RUBRO: CENTRO ESTETICA<br>CATEGORIA: SERVICIOS PERSONALES<br>PADRÓN N°: A3-4309<br>INSPECTOR/A: ANIBAL<br>ÚLTIMA VISITA: 2026-06-02<br>VENC. HABILITACIÓN: 25/03/2025<br>ESTADO: VENCIDA<br>OBSERVACIONES: SIN ACTIVIDAD COMERCIAÑ<br>COORDENADAS: -35.5732362, -58.0130954<br>icon-opacity: <br>icon-color: <br>icon-scale: <br>icon-offset: <br>icon-offset-units: <br>icon: <br>Descripción: <br>RUBRO NORMALIZADO: "},"styleUrl":"#icon-1899-BDBDBD","label-scale":0,"icon-opacity":"","icon-color":"","icon-scale":"","icon-offset":"","icon-offset-units":"","icon":"","descripción":"","NOMBRE / COMERCIO":"MAZZARO CATALINA","CUIT":"27-28532671-6","CONTACTO":"1136785949","CATEGORÍA FISCAL":"NO REGISTRA IMPUESTOS ACTIVOS","DIRECCIÓN":"ALVEAR 212","BARRIO":"CENTRO","RUBRO":"CENTRO ESTETICA","CATEGORIA":"SERVICIOS PERSONALES","PADRÓN N°":"A3-4309","INSPECTOR/A":"ANIBAL","ÚLTIMA VISITA":"2026-06-02","VENC. HABILITACIÓN":"25/03/2025","ESTADO":"VENCIDA","OBSERVACIONES":"SIN ACTIVIDAD COMERCIAÑ","COORDENADAS":"-35.5732362, -58.0130954","Descripción":"","RUBRO NORMALIZADO":""}},{"type":"Feature","geometry":{"type":"Point","coordinates":[-58.009669,-35.574375,0]},"properties":{"name":"PELUQUERIA/A1-0058","description":{"@type":"html","value":"descripción: <br>styleUrl: #icon-1899-BDBDBD<br>NOMBRE / COMERCIO: MOULIA HUGO RICARDO<br>CUIT: 20108990725<br>CONTACTO: <br>CATEGORÍA FISCAL: NO REGISTRA IMPUESTOS ACTIVOS<br>DIRECCIÓN: REMEIDOS  DE ESCALADA 16<br>BARRIO: CENTRO<br>RUBRO: PELUQUERIA/A1-0058<br>CATEGORIA: SERVICIOS PERSONALES<br>PADRÓN N°: A3-3566<br>INSPECTOR/A: SOFIA- IRMA<br>ÚLTIMA VISITA: 2024-09-10<br>VENC. HABILITACIÓN: 22/09/2019<br>ESTADO: VENCIDA<br>OBSERVACIONES: ULTIMO PLAZO 72HS/SE PRESENTO 16-09-2024<br>COORDENADAS: -35.574375, -58.0096693<br>icon-opacity: <br>icon-color: <br>icon-scale: <br>icon-offset: <br>icon-offset-units: <br>icon: <br>Descripción: <br>RUBRO NORMALIZADO: "},"styleUrl":"#icon-1899-BDBDBD","label-scale":0,"icon-opacity":"","icon-color":"","icon-scale":"","icon-offset":"","icon-offset-units":"","icon":"","descripción":"","NOMBRE / COMERCIO":"MOULIA HUGO RICARDO","CUIT":"20108990725","CONTACTO":"2241440616","CATEGORÍA FISCAL":"NO REGISTRA IMPUESTOS ACTIVOS","DIRECCIÓN":"REMEIDOS  DE ESCALADA 16","BARRIO":"CENTRO","RUBRO":"PELUQUERIA/A1-0058","CATEGORIA":"SERVICIOS PERSONALES","PADRÓN N°":"A3-3566","INSPECTOR/A":"SOFIA- IRMA","ÚLTIMA VISITA":"2024-09-10","VENC. HABILITACIÓN":"22/09/2019","ESTADO":"VENCIDA","OBSERVACIONES":"ULTIMO PLAZO 72HS/SE PRESENTO 16-09-2024","COORDENADAS":"-35.574375, -58.0096693","Descripción":"","RUBRO NORMALIZADO":""}},{"type":"Feature","geometry":{"type":"Point","coordinates":[-58.018517,-35.561082,0]},"properties":{"name":"PELUQUERIA","description":{"@type":"html","value":"descripción: <br>styleUrl: #icon-1899-FF5252<br>NOMBRE / COMERCIO: PEREYRA KARINA ELIZABETH<br>CUIT: 27-23325438-5<br>CONTACTO: 2241683859<br>CATEGORÍA FISCAL: MONOTRIBUTISTA B<br>DIRECCIÓN: LINCOLN 916<br>BARRIO: CENTRO<br>RUBRO: PELUQUERIA<br>CATEGORIA: SERVICIOS PERSONALES<br>PADRÓN N°: A3- 3945<br>INSPECTOR/A: SOFIA- IRMA<br>ÚLTIMA VISITA: 2025-11-27<br>VENC. HABILITACIÓN: 14/08/2020<br>ESTADO: VENCIDA<br>OBSERVACIONES: SE OTORGA PLAZO PARA REGULARIZAR HABILITACION<br>COORDENADAS: -35.5610824, -58.0185167<br>icon-opacity: <br>icon-color: <br>icon-scale: <br>icon-offset: <br>icon-offset-units: <br>icon: <br>Descripción: <br>RUBRO NORMALIZADO: "},"styleUrl":"#icon-1899-FF5252","label-scale":0,"icon-opacity":"","icon-color":"","icon-scale":"","icon-offset":"","icon-offset-units":"","icon":"","descripción":"","NOMBRE / COMERCIO":"PEREYRA KARINA ELIZABETH","CUIT":"27-23325438-5","CONTACTO":"2241683859","CATEGORÍA FISCAL":"MONOTRIBUTISTA B","DIRECCIÓN":"LINCOLN 916","BARRIO":"CENTRO","RUBRO":"PELUQUERIA","CATEGORIA":"SERVICIOS PERSONALES","PADRÓN N°":"A3- 3945","INSPECTOR/A":"SOFIA- IRMA","ÚLTIMA VISITA":"2025-11-27","VENC. HABILITACIÓN":"14/08/2020","ESTADO":"VENCIDA","OBSERVACIONES":"SE OTORGA PLAZO PARA REGULARIZAR HABILITACION","COORDENADAS":"-35.5610824, -58.0185167","Descripción":"","RUBRO NORMALIZADO":""}},{"type":"Feature","geometry":{"type":"Point","coordinates":[-58.013288,-35.574079,0]},"properties":{"name":"PELUQUERIA","description":{"@type":"html","value":"descripción: <br>styleUrl: #icon-1899-FF5252<br>NOMBRE / COMERCIO: XANCO NICOLAS<br>CUIT: 20-24589257-9<br>CONTACTO: 2241574907<br>CATEGORÍA FISCAL: MONOTRIBUTISTA D<br>DIRECCIÓN: ALVEAR 169<br>BARRIO: CENTRO<br>RUBRO: PELUQUERIA<br>CATEGORIA: SERVICIOS PERSONALES<br>PADRÓN N°: A3-3561<br>INSPECTOR/A: SOFIA- IRMA<br>ÚLTIMA VISITA: 2025-09-11<br>VENC. HABILITACIÓN: 13/01/2028<br>ESTADO: VIGENTE<br>OBSERVACIONES: DEBE DE REGULARIZAR HABILITACION<br>COORDENADAS: -35.5740794, -58.0132876<br>icon-opacity: <br>icon-color: <br>icon-scale: <br>icon-offset: <br>icon-offset-units: <br>icon: <br>Descripción: <br>RUBRO NORMALIZADO: "},"styleUrl":"#icon-1899-FF5252","label-scale":0,"icon-opacity":"","icon-color":"","icon-scale":"","icon-offset":"","icon-offset-units":"","icon":"","descripción":"","NOMBRE / COMERCIO":"XANCO NICOLAS","CUIT":"20-24589257-9","CONTACTO":"2241574907","CATEGORÍA FISCAL":"MONOTRIBUTISTA D","DIRECCIÓN":"ALVEAR 169","BARRIO":"CENTRO","RUBRO":"PELUQUERIA","CATEGORIA":"SERVICIOS PERSONALES","PADRÓN N°":"A3-3561","INSPECTOR/A":"SOFIA- IRMA","ÚLTIMA VISITA":"2025-09-11","VENC. HABILITACIÓN":"13/01/2028","ESTADO":"VIGENTE","OBSERVACIONES":"DEBE DE REGULARIZAR HABILITACION","COORDENADAS":"-35.5740794, -58.0132876","Descripción":"","RUBRO NORMALIZADO":""}},{"type":"Feature","geometry":{"type":"Point","coordinates":[-58.015902,-35.55638,0]},"properties":{"name":"PELUQUERIA-VENTA COSMETICOS","description":{"@type":"html","value":"descripción: <br>styleUrl: #icon-1899-BDBDBD<br>NOMBRE / COMERCIO: BATISTA CARINA<br>CUIT: 27-29191169-8<br>CONTACTO: 2241578652<br>CATEGORÍA FISCAL: MONOTRIBUTISTA A<br>DIRECCIÓN: ALVEAR 1128<br>BARRIO: COMI PINI<br>RUBRO: PELUQUERIA-VENTA COSMETICOS<br>CATEGORIA: SERVICIOS PERSONALES<br>PADRÓN N°: A3-3530<br>INSPECTOR/A: YANINA<br>ÚLTIMA VISITA: 2025-11-11<br>VENC. HABILITACIÓN: 20/06/2026<br>ESTADO: VIGENTE<br>OBSERVACIONES: POSEE MATAFUEGO N° 80021 VTO PH 3/29 CARGA 3/26, POSEE DISYUNTOR FUNCIONANDO AL MOMENTO DE LA INSPECCION.<br>COORDENADAS: -35.5563799, -58.0159018<br>icon-opacity: <br>icon-color: <br>icon-scale: <br>icon-offset: <br>icon-offset-units: <br>icon: <br>Descripción: <br>RUBRO NORMALIZADO: "},"styleUrl":"#icon-1899-BDBDBD","label-scale":0,"icon-opacity":"","icon-color":"","icon-scale":"","icon-offset":"","icon-offset-units":"","icon":"","descripción":"","NOMBRE / COMERCIO":"BATISTA CARINA","CUIT":"27-29191169-8","CONTACTO":"2241578652","CATEGORÍA FISCAL":"MONOTRIBUTISTA A","DIRECCIÓN":"ALVEAR 1128","BARRIO":"COMI PINI","RUBRO":"PELUQUERIA-VENTA COSMETICOS","CATEGORIA":"SERVICIOS PERSONALES","PADRÓN N°":"A3-3530","INSPECTOR/A":"YANINA","ÚLTIMA VISITA":"2025-11-11","VENC. HABILITACIÓN":"20/06/2026","ESTADO":"VIGENTE","OBSERVACIONES":"POSEE MATAFUEGO N° 80021 VTO PH 3/29 CARGA 3/26, POSEE DISYUNTOR FUNCIONANDO AL MOMENTO DE LA INSPECCION.","COORDENADAS":"-35.5563799, -58.0159018","Descripción":"","RUBRO NORMALIZADO":""}},{"type":"Feature","geometry":{"type":"Point","coordinates":[-58.014951,-35.554156,0]},"properties":{"name":"PELUQUERIA","description":{"@type":"html","value":"descripción: <br>styleUrl: #icon-1899-FF5252<br>NOMBRE / COMERCIO: ESPERATTI IBERICO DIEGO<br>CUIT: 20-27144793-1<br>CONTACTO: 2241538345<br>CATEGORÍA FISCAL: MONOTRIBUTISTA E<br>DIRECCIÓN: QUINTANA 1262, Chascomús, Buenos Aires<br>BARRIO: COMI PINI<br>RUBRO: PELUQUERIA<br>CATEGORIA: SERVICIOS PERSONALES<br>PADRÓN N°: A3-4248<br>INSPECTOR/A: YANINA<br>ÚLTIMA VISITA: 2025-04-25<br>VENC. HABILITACIÓN: 2024-11-15<br>ESTADO: VENCIDA<br>OBSERVACIONES: OBRA CONFORME A PLANOS- RENOVACION<br>COORDENADAS: -35.5541563, -58.0149511<br>icon-opacity: <br>icon-color: <br>icon-scale: <br>icon-offset: <br>icon-offset-units: <br>icon: <br>Descripción: <br>RUBRO NORMALIZADO: "},"styleUrl":"#icon-1899-FF5252","label-scale":0,"icon-opacity":"","icon-color":"","icon-scale":"","icon-offset":"","icon-offset-units":"","icon":"","descripción":"","NOMBRE / COMERCIO":"ESPERATTI IBERICO DIEGO","CUIT":"20-27144793-1","CONTACTO":"2241538345","CATEGORÍA FISCAL":"MONOTRIBUTISTA E","DIRECCIÓN":"QUINTANA 1262, Chascomús, Buenos Aires","BARRIO":"COMI PINI","RUBRO":"PELUQUERIA","CATEGORIA":"SERVICIOS PERSONALES","PADRÓN N°":"A3-4248","INSPECTOR/A":"YANINA","ÚLTIMA VISITA":"2025-04-25","VENC. HABILITACIÓN":"2024-11-15","ESTADO":"VENCIDA","OBSERVACIONES":"OBRA CONFORME A PLANOS- RENOVACION","COORDENADAS":"-35.5541563, -58.0149511","Descripción":"","RUBRO NORMALIZADO":""}},{"type":"Feature","geometry":{"type":"Point","coordinates":[-58.004541,-35.572309,0]},"properties":{"name":"PELUQUERIA","description":{"@type":"html","value":"descripción: <br>styleUrl: #icon-1899-FF5252<br>NOMBRE / COMERCIO: DAVILA HERNAN MIGUEL<br>CUIT: 20-27856689-0<br>CONTACTO: 2241-558390<br>CATEGORÍA FISCAL: NO REGISTRA IMPUESTOS ACTIVOS<br>DIRECCIÓN: GARAY 195<br>BARRIO: EL HUECO<br>RUBRO: PELUQUERIA<br>CATEGORIA: SERVICIOS PERSONALES<br>PADRÓN N°: A3-3268<br>INSPECTOR/A: SOFIA- IRMA<br>ÚLTIMA VISITA: 2025-08-04<br>VENC. HABILITACIÓN: 10/06/2028<br>ESTADO: VIGENTE<br>OBSERVACIONES: FALTA COLOCAR MATAFUEGOS-DIYUNTOR-LUZ EMERG-BOTIQUIN/SE DA PLAZ0<br>COORDENADAS: -35.5723087, -58.0045407<br>icon-opacity: <br>icon-color: <br>icon-scale: <br>icon-offset: <br>icon-offset-units: <br>icon: <br>Descripción: <br>RUBRO NORMALIZADO: "},"styleUrl":"#icon-1899-FF5252","label-scale":0,"icon-opacity":"","icon-color":"","icon-scale":"","icon-offset":"","icon-offset-units":"","icon":"","descripción":"","NOMBRE / COMERCIO":"DAVILA HERNAN MIGUEL","CUIT":"20-27856689-0","CONTACTO":"2241-558390","CATEGORÍA FISCAL":"NO REGISTRA IMPUESTOS ACTIVOS","DIRECCIÓN":"GARAY 195","BARRIO":"EL HUECO","RUBRO":"PELUQUERIA","CATEGORIA":"SERVICIOS PERSONALES","PADRÓN N°":"A3-3268","INSPECTOR/A":"SOFIA- IRMA","ÚLTIMA VISITA":"2025-08-04","VENC. HABILITACIÓN":"10/06/2028","ESTADO":"VIGENTE","OBSERVACIONES":"FALTA COLOCAR MATAFUEGOS-DIYUNTOR-LUZ EMERG-BOTIQUIN/SE DA PLAZ0","COORDENADAS":"-35.5723087, -58.0045407","Descripción":"","RUBRO NORMALIZADO":""}},{"type":"Feature","geometry":{"type":"Point","coordinates":[-58.01647,-35.567025,0]},"properties":{"name":"SALON DE BELLEZA","description":{"@type":"html","value":"descripción: <br>styleUrl: #icon-1899-BDBDBD<br>NOMBRE / COMERCIO: REGIAS / LABEGUERIE ESTEFANIA<br>CUIT: 27-33480946-9<br>CONTACTO: 2241545325<br>CATEGORÍA FISCAL: MONOTRIBUTISTA C<br>DIRECCIÓN: BELGRANO 525<br>BARRIO: EL OBISPADO<br>RUBRO: SALON DE BELLEZA<br>CATEGORIA: SERVICIOS PERSONALES<br>PADRÓN N°: A3-4131<br>INSPECTOR/A: SOFIA- IRMA<br>ÚLTIMA VISITA: 2026-01-23<br>VENC. HABILITACIÓN: 16/08/2027<br>ESTADO: VIGENTE<br>OBSERVACIONES: <br>COORDENADAS: -35.5670246, -58.0164702<br>icon-opacity: <br>icon-color: <br>icon-scale: <br>icon-offset: <br>icon-offset-units: <br>icon: <br>Descripción: <br>RUBRO NORMALIZADO: "},"styleUrl":"#icon-1899-BDBDBD","label-scale":0,"icon-opacity":"","icon-color":"","icon-scale":"","icon-offset":"","icon-offset-units":"","icon":"","descripción":"","NOMBRE / COMERCIO":"REGIAS / LABEGUERIE ESTEFANIA","CUIT":"27-33480946-9","CONTACTO":"2241545325","CATEGORÍA FISCAL":"MONOTRIBUTISTA C","DIRECCIÓN":"BELGRANO 525","BARRIO":"EL OBISPADO","RUBRO":"SALON DE BELLEZA","CATEGORIA":"SERVICIOS PERSONALES","PADRÓN N°":"A3-4131","INSPECTOR/A":"SOFIA- IRMA","ÚLTIMA VISITA":"2026-01-23","VENC. HABILITACIÓN":"16/08/2027","ESTADO":"VIGENTE","OBSERVACIONES":"","COORDENADAS":"-35.5670246, -58.0164702","Descripción":"","RUBRO NORMALIZADO":""}},{"type":"Feature","geometry":{"type":"Point","coordinates":[-58.014185,-35.567496,0]},"properties":{"name":"PELUQUERIA","description":{"@type":"html","value":"descripción: <br>styleUrl: #icon-1899-FF5252<br>NOMBRE / COMERCIO: RAMIREZ DANIELA<br>CUIT: 27-26023498-1<br>CONTACTO: 2241696184<br>CATEGORÍA FISCAL: MONOTRIBUTISTA A<br>DIRECCIÓN: RICCHIERI 226<br>BARRIO: FATIMA<br>RUBRO: PELUQUERIA<br>CATEGORIA: SERVICIOS PERSONALES<br>PADRÓN N°: A3-4246<br>INSPECTOR/A: SERGIO<br>ÚLTIMA VISITA: 2024-10-02<br>VENC. HABILITACIÓN: 26/06/2028<br>ESTADO: VIGENTE<br>OBSERVACIONES: HAB VIGENTE 12-04-2025<br>COORDENADAS: -35.5674959, -58.01418469999999<br>icon-opacity: <br>icon-color: <br>icon-scale: <br>icon-offset: <br>icon-offset-units: <br>icon: <br>Descripción: <br>RUBRO NORMALIZADO: "},"styleUrl":"#icon-1899-FF5252","label-scale":0,"icon-opacity":"","icon-color":"","icon-scale":"","icon-offset":"","icon-offset-units":"","icon":"","descripción":"","NOMBRE / COMERCIO":"RAMIREZ DANIELA","CUIT":"27-26023498-1","CONTACTO":"2241696184","CATEGORÍA FISCAL":"MONOTRIBUTISTA A","DIRECCIÓN":"RICCHIERI 226","BARRIO":"FATIMA","RUBRO":"PELUQUERIA","CATEGORIA":"SERVICIOS PERSONALES","PADRÓN N°":"A3-4246","INSPECTOR/A":"SERGIO","ÚLTIMA VISITA":"2024-10-02","VENC. HABILITACIÓN":"26/06/2028","ESTADO":"VIGENTE","OBSERVACIONES":"HAB VIGENTE 12-04-2025","COORDENADAS":"-35.5674959, -58.01418469999999","Descripción":"","RUBRO NORMALIZADO":""}},{"type":"Feature","geometry":{"type":"Point","coordinates":[-58.014896,-35.565376,0]},"properties":{"name":"PELUQUERIA","description":{"@type":"html","value":"descripción: <br>styleUrl: #icon-1899-FF5252<br>NOMBRE / COMERCIO: ARISTEGUI KARINA RAQUEL<br>CUIT: 27-31689966-3<br>CONTACTO: 2241557083<br>CATEGORÍA FISCAL: MONOTRIBUTISTA A<br>DIRECCIÓN: ALVEAR 633<br>BARRIO: VILLA LUJAN<br>RUBRO: PELUQUERIA<br>CATEGORIA: SERVICIOS PERSONALES<br>PADRÓN N°: A3-3836<br>INSPECTOR/A: SOFIA- IRMA<br>ÚLTIMA VISITA: 2026-05-05<br>VENC. HABILITACIÓN: 28/02/2026<br>ESTADO: VENCIDA<br>OBSERVACIONES: <br>COORDENADAS: -35.5653758, -58.0148961<br>icon-opacity: <br>icon-color: <br>icon-scale: <br>icon-offset: <br>icon-offset-units: <br>icon: <br>Descripción: <br>RUBRO NORMALIZADO: "},"styleUrl":"#icon-1899-FF5252","label-scale":0,"icon-opacity":"","icon-color":"","icon-scale":"","icon-offset":"","icon-offset-units":"","icon":"","descripción":"","NOMBRE / COMERCIO":"ARISTEGUI KARINA RAQUEL","CUIT":"27-31689966-3","CONTACTO":"2241557083","CATEGORÍA FISCAL":"MONOTRIBUTISTA A","DIRECCIÓN":"ALVEAR 633","BARRIO":"VILLA LUJAN","RUBRO":"PELUQUERIA","CATEGORIA":"SERVICIOS PERSONALES","PADRÓN N°":"A3-3836","INSPECTOR/A":"SOFIA- IRMA","ÚLTIMA VISITA":"2026-05-05","VENC. HABILITACIÓN":"28/02/2026","ESTADO":"VENCIDA","OBSERVACIONES":"REBA B1 VTO 16/07/25, POSEE CARNET DE MANIPULACION Y CERTIFICADO DE FUMIGACION VIGENTE","COORDENADAS":"-35.5653758, -58.0148961","Descripción":"","RUBRO NORMALIZADO":""}},{"type":"Feature","geometry":{"type":"Point","coordinates":[-58.015004,-35.56418,0]},"properties":{"name":"PELUQUERIA","description":{"@type":"html","value":"descripción: <br>styleUrl: #icon-1899-FF5252<br>NOMBRE / COMERCIO: IÑURRIETA ROSA<br>CUIT: 27-36868641-2<br>CONTACTO: 2241579176<br>CATEGORÍA FISCAL: MONOTRIBUTISTA A<br>DIRECCIÓN: ALVEAR 697<br>BARRIO: VILLA LUJAN<br>RUBRO: PELUQUERIA<br>CATEGORIA: SERVICIOS PERSONALES<br>PADRÓN N°: A1-0137<br>INSPECTOR/A: SOFIA- IRMA<br>ÚLTIMA VISITA: 2025-07-14<br>VENC. HABILITACIÓN: 07/08/2027<br>ESTADO: VIGENTE<br>OBSERVACIONES: ESTA REGULARIZANDO LOS PAPELES PARA PODER REALIZAR LA HABILITACION PROVISORIA.<br>COORDENADAS: -35.5641801, -58.0150042<br>icon-opacity: <br>icon-color: <br>icon-scale: <br>icon-offset: <br>icon-offset-units: <br>icon: <br>Descripción: <br>RUBRO NORMALIZADO: "},"styleUrl":"#icon-1899-FF5252","label-scale":0,"icon-opacity":"","icon-color":"","icon-scale":"","icon-offset":"","icon-offset-units":"","icon":"","descripción":"","NOMBRE / COMERCIO":"IÑURRIETA ROSA","CUIT":"27-36868641-2","CONTACTO":"2241579176","CATEGORÍA FISCAL":"MONOTRIBUTISTA A","DIRECCIÓN":"ALVEAR 697","BARRIO":"VILLA LUJAN","RUBRO":"PELUQUERIA","CATEGORIA":"SERVICIOS PERSONALES","PADRÓN N°":"A1-0137","INSPECTOR/A":"SOFIA- IRMA","ÚLTIMA VISITA":"2025-07-14","VENC. HABILITACIÓN":"07/08/2027","ESTADO":"VIGENTE","OBSERVACIONES":"ESTA REGULARIZANDO LOS PAPELES PARA PODER REALIZAR LA HABILITACION PROVISORIA.","COORDENADAS":"-35.5641801, -58.0150042","Descripción":"","RUBRO NORMALIZADO":""}},{"type":"Feature","geometry":{"type":"Point","coordinates":[-58.008931,-35.574987,0]},"properties":{"name":"MARCHA","description":{"@type":"html","value":"descripción: Descripción: MARCHA<br>SALON DE FIESTASS<br>SOLER 281, Chascomús, Buenos Aires<br>Barrio: CENTRO<br>Padrón: A5-0618<br>Estado: VENCIDA<br>NOMBRE / COMERCIO: MARCHA<br>CUIT: 30-66503976-1<br>CONTACTO: 2241424497<br>CATEGORÍA FISCAL: NO REGISTRA IMPUESTOS ACTIVOS<br>DIRECCIÓN: SOLER 281, Chascomús, Buenos Aires<br>BARRIO: CENTRO<br>RUBRO: SALON DE FIESTASS<br>RUBRO NORMALIZADO: SALON DE FIESTASS<br>CATEGORIA: EVENTOS Y CEREMONIAS<br>PADRÓN N°: A5-0618<br>INSPECTOR/A: SOFIA- IRMA<br>ÚLTIMA VISITA: 2025-12-17<br>VENC. HABILITACIÓN: 2020-11-28<br>ESTADO: VENCIDA<br>OBSERVACIONES: AL MOMENTO DE NO PRESENTO HABILITACION SE OTORGA PLAZO PARA REGULARIZAR SU SITUACION, DE LO CONTRARIO SERA SANCIONADO POR LA ORDENANZA VIGENTE<br>styleUrl: #icon-1899-7CB342<br>NOMBRE / COMERCIO: MARCHA<br>CUIT: 30-66503976-1<br>CONTACTO: 2241424497<br>CATEGORÍA FISCAL: NO REGISTRA IMPUESTOS ACTIVOS<br>DIRECCIÓN: SOLER 281, Chascomús, Buenos Aires<br>BARRIO: CENTRO<br>RUBRO: SALON DE FIESTASS<br>CATEGORIA: EVENTOS Y CEREMONIAS<br>PADRÓN N°: A5-0618<br>INSPECTOR/A: SOFIA- IRMA<br>ÚLTIMA VISITA: 2025-12-17<br>VENC. HABILITACIÓN: 2020-11-28<br>ESTADO: VENCIDA<br>OBSERVACIONES: AL MOMENTO DE NO PRESENTO HABILITACION SE OTORGA PLAZO PARA REGULARIZAR SU SITUACION, DE LO CONTRARIO SERA SANCIONADO POR LA ORDENANZA VIGENTE<br>COORDENADAS: <br>icon-opacity: 1<br>icon-color: #7cb342<br>icon-scale: 1<br>icon-offset: [32,64]<br>icon-offset-units: [\"pixels\",\"insetPixels\"]<br>icon: https://www.gstatic.com/mapspro/images/stock/503-wht-blank_maps.png<br>Descripción: MARCHA<br>SALON DE FIESTASS<br>SOLER 281, Chascomús, Buenos Aires<br>Barrio: CENTRO<br>Padrón: A5-0618<br>Estado: VENCIDA<br>RUBRO NORMALIZADO: SALON DE FIESTASS"},"styleUrl":"#icon-1899-7CB342","label-scale":0,"icon-opacity":"1","icon-color":"#7cb342","icon-scale":"1","icon-offset":"[32,64]","icon-offset-units":"[\"pixels\",\"insetPixels\"]","icon":"https://www.gstatic.com/mapspro/images/stock/503-wht-blank_maps.png","descripción":"Descripción: MARCHA\nSALON DE FIESTASS\nSOLER 281, Chascomús, Buenos Aires\nBarrio: CENTRO\nPadrón: A5-0618\nEstado: VENCIDA\nNOMBRE / COMERCIO: MARCHA\nCUIT: 30-66503976-1\nCONTACTO: 2241424497\nCATEGORÍA FISCAL: NO REGISTRA IMPUESTOS ACTIVOS\nDIRECCIÓN: SOLER 281, Chascomús, Buenos Aires\nBARRIO: CENTRO\nRUBRO: SALON DE FIESTASS\nRUBRO NORMALIZADO: SALON DE FIESTASS\nCATEGORIA: EVENTOS Y CEREMONIAS\nPADRÓN N°: A5-0618\nINSPECTOR/A: SOFIA- IRMA\nÚLTIMA VISITA: 2025-12-17\nVENC. HABILITACIÓN: 2020-11-28\nESTADO: VENCIDA\nOBSERVACIONES: AL MOMENTO DE NO PRESENTO HABILITACION SE OTORGA PLAZO PARA REGULARIZAR SU SITUACION, DE LO CONTRARIO SERA SANCIONADO POR LA ORDENANZA VIGENTE","NOMBRE / COMERCIO":"MARCHA","CUIT":"30-66503976-1","CONTACTO":"2241424497","CATEGORÍA FISCAL":"NO REGISTRA IMPUESTOS ACTIVOS","DIRECCIÓN":"SOLER 281, Chascomús, Buenos Aires","BARRIO":"CENTRO","RUBRO":"SALON DE FIESTASS","CATEGORIA":"EVENTOS Y CEREMONIAS","PADRÓN N°":"A5-0618","INSPECTOR/A":"SOFIA- IRMA","ÚLTIMA VISITA":"2025-12-17","VENC. HABILITACIÓN":"2020-11-28","ESTADO":"VENCIDA","OBSERVACIONES":"AL MOMENTO DE NO PRESENTO HABILITACION SE OTORGA PLAZO PARA REGULARIZAR SU SITUACION, DE LO CONTRARIO SERA SANCIONADO POR LA ORDENANZA VIGENTE","COORDENADAS":"","Descripción":"MARCHA\nSALON DE FIESTASS\nSOLER 281, Chascomús, Buenos Aires\nBarrio: CENTRO\nPadrón: A5-0618\nEstado: VENCIDA","RUBRO NORMALIZADO":"SALON DE FIESTASS"}},{"type":"Feature","geometry":{"type":"Point","coordinates":[-57.987328,-35.570584,0]},"properties":{"name":"SALON DE FIESTA\nBUFFET","description":{"@type":"html","value":"descripción: Descripción: CLUB BOCHISTICO INDEPENDIENTE<br>SALON DE FIESTASS<br>GARAY 77, Chascomús, Buenos Aires<br>Barrio: EL HUECO<br>Padrón: A7-0026<br>Estado: VENCIDA<br>NOMBRE / COMERCIO: CLUB BOCHISTICO INDEPENDIENTE<br>CUIT: 30-66507213-0<br>CONTACTO: 2241 68-3386<br>CATEGORÍA FISCAL: ASOCIACION<br>DIRECCIÓN: GARAY 77<br>BARRIO: EL HUECO<br>RUBRO: SALON DE FIESTA\nBUFFET<br>RUBRO NORMALIZADO: SALON DE FIESTASS<br>CATEGORIA: EVENTOS Y CEREMONIAS<br>PADRÓN N°: A7-0026<br>INSPECTOR/A: SOFIA- IRMA<br>ÚLTIMA VISITA: 2026-03-16<br>VENC. HABILITACIÓN: 10/08/2026<br>ESTADO: VIGENTE<br>OBSERVACIONES: REBA C2 VTO 18/12/2025<br>styleUrl: #icon-1899-C2185B<br>NOMBRE / COMERCIO: CLUB BOCHISTICO INDEPENDIENTE<br>CUIT: 30-66507213-0<br>CONTACTO: 2241 68-3386<br>CATEGORÍA FISCAL: ASOCIACION<br>DIRECCIÓN: GARAY 77<br>BARRIO: EL HUECO<br>RUBRO: SALON DE FIESTA\nBUFFET<br>CATEGORIA: EVENTOS Y CEREMONIAS<br>PADRÓN N°: A7-0026<br>INSPECTOR/A: SOFIA- IRMA<br>ÚLTIMA VISITA: 2026-03-16<br>VENC. HABILITACIÓN: 10/08/2026<br>ESTADO: VIGENTE<br>OBSERVACIONES: REBA C2 VTO 18/12/2025<br>COORDENADAS: <br>icon-opacity: 1<br>icon-color: #c2185b<br>icon-scale: 1<br>icon-offset: [32,64]<br>icon-offset-units: [\"pixels\",\"insetPixels\"]<br>icon: https://www.gstatic.com/mapspro/images/stock/503-wht-blank_maps.png<br>Descripción: CLUB BOCHISTICO INDEPENDIENTE<br>SALON DE FIESTASS<br>GARAY 77, Chascomús, Buenos Aires<br>Barrio: EL HUECO<br>Padrón: A7-0026<br>Estado: VENCIDA<br>RUBRO NORMALIZADO: SALON DE FIESTASS"},"styleUrl":"#icon-1899-C2185B","label-scale":0,"icon-opacity":"1","icon-color":"#c2185b","icon-scale":"1","icon-offset":"[32,64]","icon-offset-units":"[\"pixels\",\"insetPixels\"]","icon":"https://www.gstatic.com/mapspro/images/stock/503-wht-blank_maps.png","descripción":"Descripción: CLUB BOCHISTICO INDEPENDIENTE\nSALON DE FIESTASS\nGARAY 77, Chascomús, Buenos Aires\nBarrio: EL HUECO\nPadrón: A7-0026\nEstado: VENCIDA\nNOMBRE / COMERCIO: CLUB BOCHISTICO INDEPENDIENTE\nCUIT: 30-66507213-0\nCONTACTO: 2241422639\nCATEGORÍA FISCAL: ASOCIACION\nDIRECCIÓN: GARAY 77, Chascomús, Buenos Aires\nBARRIO: EL HUECO\nRUBRO: SALON DE FIESTASS\nRUBRO NORMALIZADO: SALON DE FIESTASS\nCATEGORIA: EVENTOS Y CEREMONIAS\nPADRÓN N°: A7-0026\nINSPECTOR/A: SOFIA- IRMA\nÚLTIMA VISITA: 2026-03-16\nVENC. HABILITACIÓN: 2022-09-09\nESTADO: VENCIDA\nOBSERVACIONES: REBA C2 VTO 18/12/2025","NOMBRE / COMERCIO":"CLUB BOCHISTICO INDEPENDIENTE","CUIT":"30-66507213-0","CONTACTO":"2241 68-3386","CATEGORÍA FISCAL":"ASOCIACION","DIRECCIÓN":"GARAY 77","BARRIO":"EL HUECO","RUBRO":"SALON DE FIESTA\nBUFFET","CATEGORIA":"EVENTOS Y CEREMONIAS","PADRÓN N°":"A7-0026","INSPECTOR/A":"SOFIA- IRMA","ÚLTIMA VISITA":"2026-03-16","VENC. HABILITACIÓN":"10/08/2026","ESTADO":"VIGENTE","OBSERVACIONES":"REBA C2 VTO 18/12/2025","COORDENADAS":"","Descripción":"CLUB BOCHISTICO INDEPENDIENTE\nSALON DE FIESTASS\nGARAY 77, Chascomús, Buenos Aires\nBarrio: EL HUECO\nPadrón: A7-0026\nEstado: VENCIDA","RUBRO NORMALIZADO":"SALON DE FIESTASS"}},{"type":"Feature","geometry":{"type":"Point","coordinates":[-58.011102,-35.563515,0]},"properties":{"name":"SALON EVENTOS","description":{"@type":"html","value":"descripción: Descripción: VILLA LUJAN<br>SALON DE FIESTAS<br>YRIGOYEN 578, Chascomús, Buenos Aires<br>Barrio: LA NORIA<br>Padrón: A5-0482<br>Estado: VENCIDA<br>NOMBRE / COMERCIO: VILLA LUJAN<br>CUIT: 30-66505392-6<br>CONTACTO: 2241575751<br>CATEGORÍA FISCAL: ASOCIACION<br>DIRECCIÓN: HIPÓLITO YRIGOYEN 578<br>BARRIO: LA NORIA<br>RUBRO: SALON EVENTOS<br>RUBRO NORMALIZADO: SALON DE FIESTAS<br>CATEGORIA: EVENTOS Y CEREMONIAS<br>PADRÓN N°: A5-0482<br>INSPECTOR/A: ANIBAL<br>ÚLTIMA VISITA: 2025-08-04<br>VENC. HABILITACIÓN: 30/07/2026<br>ESTADO: VIGENTE<br>OBSERVACIONES: SI CUMPLE CON LA NORMATIVA VIGENTE EN MEDIDAS DE SEGURIDAD, TIENE BOMBEROS CON FECHA DE 30/7<br>styleUrl: #icon-1899-F57C00<br>NOMBRE / COMERCIO: VILLA LUJAN<br>CUIT: 30-66505392-6<br>CONTACTO: 2241575751<br>CATEGORÍA FISCAL: ASOCIACION<br>DIRECCIÓN: HIPÓLITO YRIGOYEN 578<br>BARRIO: LA NORIA<br>RUBRO: SALON EVENTOS<br>CATEGORIA: EVENTOS Y CEREMONIAS<br>PADRÓN N°: A5-0482<br>INSPECTOR/A: ANIBAL<br>ÚLTIMA VISITA: 2025-08-04<br>VENC. HABILITACIÓN: 30/07/2026<br>ESTADO: VIGENTE<br>OBSERVACIONES: SI CUMPLE CON LA NORMATIVA VIGENTE EN MEDIDAS DE SEGURIDAD, TIENE BOMBEROS CON FECHA DE 30/7<br>COORDENADAS: <br>icon-opacity: 1<br>icon-color: #f57c00<br>icon-scale: 1<br>icon-offset: [32,64]<br>icon-offset-units: [\"pixels\",\"insetPixels\"]<br>icon: https://www.gstatic.com/mapspro/images/stock/503-wht-blank_maps.png<br>Descripción: VILLA LUJAN<br>SALON DE FIESTAS<br>YRIGOYEN 578, Chascomús, Buenos Aires<br>Barrio: LA NORIA<br>Padrón: A5-0482<br>Estado: VENCIDA<br>RUBRO NORMALIZADO: SALON DE FIESTAS"},"styleUrl":"#icon-1899-F57C00","label-scale":0,"icon-opacity":"1","icon-color":"#f57c00","icon-scale":"1","icon-offset":"[32,64]","icon-offset-units":"[\"pixels\",\"insetPixels\"]","icon":"https://www.gstatic.com/mapspro/images/stock/503-wht-blank_maps.png","descripción":"Descripción: VILLA LUJAN\nSALON DE FIESTAS\nYRIGOYEN 578, Chascomús, Buenos Aires\nBarrio: LA NORIA\nPadrón: A5-0482\nEstado: VENCIDA\nNOMBRE / COMERCIO: VILLA LUJAN\nCUIT: 30-66505392-6\nCONTACTO: 2241575751\nCATEGORÍA FISCAL: ASOCIACION\nDIRECCIÓN: YRIGOYEN 578, Chascomús, Buenos Aires\nBARRIO: LA NORIA\nRUBRO: SALON DE FIESTAS\nRUBRO NORMALIZADO: SALON DE FIESTAS\nCATEGORIA: EVENTOS Y CEREMONIAS\nPADRÓN N°: A5-0482\nINSPECTOR/A: ANIBAL\nÚLTIMA VISITA: 2025-08-04\nVENC. HABILITACIÓN: 2025-11-30\nESTADO: VENCIDA\nOBSERVACIONES: SI CUMPLE CON LA NORMATIVA VIGENTE EN MEDIDAS DE SEGURIDAD, TIENE BOMBEROS CON FECHA DE 30/7","NOMBRE / COMERCIO":"VILLA LUJAN","CUIT":"30-66505392-6","CONTACTO":"2241575751","CATEGORÍA FISCAL":"ASOCIACION","DIRECCIÓN":"HIPÓLITO YRIGOYEN 578","BARRIO":"LA NORIA","RUBRO":"SALON EVENTOS","CATEGORIA":"EVENTOS Y CEREMONIAS","PADRÓN N°":"A5-0482","INSPECTOR/A":"ANIBAL","ÚLTIMA VISITA":"2025-08-04","VENC. HABILITACIÓN":"30/07/2026","ESTADO":"VIGENTE","OBSERVACIONES":"SI CUMPLE CON LA NORMATIVA VIGENTE EN MEDIDAS DE SEGURIDAD, TIENE BOMBEROS CON FECHA DE 30/7","COORDENADAS":"","Descripción":"VILLA LUJAN\nSALON DE FIESTAS\nYRIGOYEN 578, Chascomús, Buenos Aires\nBarrio: LA NORIA\nPadrón: A5-0482\nEstado: VENCIDA","RUBRO NORMALIZADO":"SALON DE FIESTAS"}},{"type":"Feature","geometry":{"type":"Point","coordinates":[-58.016933,-35.5578,0]},"properties":{"name":"SALON DE FIESTA","description":{"@type":"html","value":"descripción: Descripción: BURGOS MARIELA SOLEDAD<br>SALON DE FIESTAS<br>LIBRES DEL SUR 688, Chascomús, Buenos Aires<br>Barrio: VILLA LUJAN<br>Padrón: A5-0790<br>Estado: VIGENTE<br>NOMBRE / COMERCIO: BURGOS MARIELA SOLEDAD<br>CUIT: 27-28295619-0<br>CONTACTO: 2241462526<br>CATEGORÍA FISCAL: NO REGISTRA IMPUESTOS ACTIVOS<br>DIRECCIÓN: LIBRES DEL SUR 688<br>BARRIO: VILLA LUJAN<br>RUBRO: SALON DE FIESTA<br>RUBRO NORMALIZADO: SALON DE FIESTAS<br>CATEGORIA: EVENTOS Y CEREMONIAS<br>PADRÓN N°: A5-0790<br>INSPECTOR/A: ANIBAL<br>ÚLTIMA VISITA: 2025-12-03<br>VENC. HABILITACIÓN: 10/05/2026<br>ESTADO: VENCIDA<br>OBSERVACIONES: QUE PARA EL APTO EN MEDIDAS DEBE CONTAR CON CERTIFICACION DE BOMBEROS DE DOLORES, PLAN DE EVACUACION Y MEDICION DE PÚESTA A TIERRA<br>styleUrl: #icon-1899-1A237E<br>NOMBRE / COMERCIO: BURGOS MARIELA SOLEDAD<br>CUIT: 27-28295619-0<br>CONTACTO: 2241462526<br>CATEGORÍA FISCAL: NO REGISTRA IMPUESTOS ACTIVOS<br>DIRECCIÓN: LIBRES DEL SUR 688<br>BARRIO: VILLA LUJAN<br>RUBRO: SALON DE FIESTA<br>CATEGORIA: EVENTOS Y CEREMONIAS<br>PADRÓN N°: A5-0790<br>INSPECTOR/A: ANIBAL<br>ÚLTIMA VISITA: 2025-12-03<br>VENC. HABILITACIÓN: 10/05/2026<br>ESTADO: VENCIDA<br>OBSERVACIONES: QUE PARA EL APTO EN MEDIDAS DEBE CONTAR CON CERTIFICACION DE BOMBEROS DE DOLORES, PLAN DE EVACUACION Y MEDICION DE PÚESTA A TIERRA<br>COORDENADAS: <br>icon-opacity: 1<br>icon-color: #1a237e<br>icon-scale: 1<br>icon-offset: [32,64]<br>icon-offset-units: [\"pixels\",\"insetPixels\"]<br>icon: https://www.gstatic.com/mapspro/images/stock/503-wht-blank_maps.png<br>Descripción: BURGOS MARIELA SOLEDAD<br>SALON DE FIESTAS<br>LIBRES DEL SUR 688, Chascomús, Buenos Aires<br>Barrio: VILLA LUJAN<br>Padrón: A5-0790<br>Estado: VIGENTE<br>RUBRO NORMALIZADO: SALON DE FIESTAS"},"styleUrl":"#icon-1899-1A237E","label-scale":0,"icon-opacity":"1","icon-color":"#1a237e","icon-scale":"1","icon-offset":"[32,64]","icon-offset-units":"[\"pixels\",\"insetPixels\"]","icon":"https://www.gstatic.com/mapspro/images/stock/503-wht-blank_maps.png","descripción":"Descripción: BURGOS MARIELA SOLEDAD\nSALON DE FIESTAS\nLIBRES DEL SUR 688, Chascomús, Buenos Aires\nBarrio: VILLA LUJAN\nPadrón: A5-0790\nEstado: VIGENTE\nNOMBRE / COMERCIO: BURGOS MARIELA SOLEDAD\nCUIT: 27-28295619-0\nCONTACTO: 2241568836\nCATEGORÍA FISCAL: NO REGISTRA IMPUESTOS ACTIVOS\nDIRECCIÓN: LIBRES DEL SUR 688, Chascomús, Buenos Aires\nBARRIO: VILLA LUJAN\nRUBRO: SALON DE FIESTAS\nRUBRO NORMALIZADO: SALON DE FIESTAS\nCATEGORIA: EVENTOS Y CEREMONIAS\nPADRÓN N°: A5-0790\nINSPECTOR/A: ANIBAL\nÚLTIMA VISITA: 2025-12-03\nVENC. HABILITACIÓN: 2026-05-10\nESTADO: VIGENTE\nOBSERVACIONES: QUE PARA EL APTO EN MEDIDAS DEBE CONTAR CON CERTIFICACION DE BOMBEROS DE DOLORES, PLAN DE EVACUACION Y MEDICION DE PÚESTA A TIERRA","NOMBRE / COMERCIO":"BURGOS MARIELA SOLEDAD","CUIT":"27-28295619-0","CONTACTO":"2241462526","CATEGORÍA FISCAL":"NO REGISTRA IMPUESTOS ACTIVOS","DIRECCIÓN":"LIBRES DEL SUR 688","BARRIO":"VILLA LUJAN","RUBRO":"SALON DE FIESTA","CATEGORIA":"EVENTOS Y CEREMONIAS","PADRÓN N°":"A5-0790","INSPECTOR/A":"ANIBAL","ÚLTIMA VISITA":"2025-12-03","VENC. HABILITACIÓN":"10/05/2026","ESTADO":"VENCIDA","OBSERVACIONES":"QUE PARA EL APTO EN MEDIDAS DEBE CONTAR CON CERTIFICACION DE BOMBEROS DE DOLORES, PLAN DE EVACUACION Y MEDICION DE PÚESTA A TIERRA","COORDENADAS":"","Descripción":"BURGOS MARIELA SOLEDAD\nSALON DE FIESTAS\nLIBRES DEL SUR 688, Chascomús, Buenos Aires\nBarrio: VILLA LUJAN\nPadrón: A5-0790\nEstado: VIGENTE","RUBRO NORMALIZADO":"SALON DE FIESTAS"}}]}