{"type": "FeatureCollection", "features": [{"type": "Feature", "geometry": {"type": "Point", "coordinates": [-58.0080756, -35.5821668]}, "properties": {"name": "FERRETERIA", "styleUrl": "#icon-1899-BDBDBD", "NOMBRE / COMERCIO": "LAGM S.S", "CUIT": "30-71774367-5", "CONTACTO": "2241540999", "CATEGORÍA FISCAL": "SS", "DIRECCIÓN": "AV PERON 357, Chascomús, Buenos Aires", "BARRIO": "CENTRO", "RUBRO": "FERRETERIA-BAZAR-PINTURERIA", "CATEGORIA": "BAZAR Y HOGAR", "PADRÓN N°": "A4-0745", "INSPECTOR/A": "YANINA", "ÚLTIMA VISITA": "2025-08-14", "VENC. HABILITACIÓN": "2025-11-10", "ESTADO": "VENCIDA", "OBSERVACIONES": "HABILITACION VIGENTE", "COORDENADAS": "-35.5821668, -58.0080756"}}, {"type": "Feature", "geometry": {"type": "Point", "coordinates": [-58.0155017, -35.572384]}, "properties": {"name": "FERRETERIA", "styleUrl": "#icon-1899-BDBDBD", "NOMBRE / COMERCIO": "PERTUSI MARIA ISABEL", "CUIT": "27-05956362-4", "CONTACTO": "425529", "CATEGORÍA FISCAL": "NO REGISTRA IMPUESTOS ACTIVOS", "DIRECCIÓN": "BELGRANO 289, Chascomús, Buenos Aires", "BARRIO": "CENTRO", "RUBRO": "FERRETERIA/BAZAR", "CATEGORIA": "BAZAR Y HOGAR", "PADRÓN N°": "A4-0596", "INSPECTOR/A": "YANINA", "ÚLTIMA VISITA": "2025-05-11", "VENC. HABILITACIÓN": "2027-05-20", "ESTADO": "VIGENTE", "OBSERVACIONES": "NO SE ENCONTRÓ EL RUBRO SINO QUE SE ENCONTRÓ UN LOCAL DE INDUMENTARIA CON HBAILITACION COMERCIAL AL 20/5/27 A NOMBRE DE DE ROSE SANDRA GISELA A3-4468", "COORDENADAS": "-35.572384, -58.0155017"}}, {"type": "Feature", "geometry": {"type": "Point", "coordinates": [-58.0100316, -35.5732783]}, "properties": {"name": "MADERERA", "styleUrl": "#icon-1899-BDBDBD", "NOMBRE / COMERCIO": "ROSSI MARCELO ATILIO", "CUIT": "20-17508063-6", "CONTACTO": "2241563611", "CATEGORÍA FISCAL": "NO REGISTRA IMPUESTOS ACTIVOS", "DIRECCIÓN": "FRANKLIN 24, Chascomús, Buenos Aires", "BARRIO": "CENTRO", "RUBRO": "MADERERA - VENTA DE MUEBLES", "CATEGORIA": "BAZAR Y HOGAR", "PADRÓN N°": "A5-0323", "INSPECTOR/A": "YANINA", "ÚLTIMA VISITA": "2025-12-12", "VENC. HABILITACIÓN": "2022-08-27", "ESTADO": "VENCIDA", "OBSERVACIONES": "DEBERA RENOVAR HABILITACION COMERCIAL VENCIDA 22/9/22 - SE OTORGA PLAZO DE 15 DIAS", "COORDENADAS": "-35.5732783, -58.0100316"}}, {"type": "Feature", "geometry": {"type": "Point", "coordinates": [-58.0058265, -35.5780266]}, "properties": {"name": "FERRETERIA", "styleUrl": "#icon-1899-BDBDBD", "NOMBRE / COMERCIO": "BEGUERIE BONAVITA E HIJOS", "CUIT": "30-71207792-8", "CONTACTO": "2241671607", "CATEGORÍA FISCAL": "SA", "DIRECCIÓN": "ALTE BROWN 96, Chascomús, Buenos Aires", "BARRIO": "FATIMA", "RUBRO": "FERRETERIA-BAZAR-ART DECO", "CATEGORIA": "BAZAR Y HOGAR", "PADRÓN N°": "A4-0597", "INSPECTOR/A": "SERGIO", "ÚLTIMA VISITA": "2024-10-25", "VENC. HABILITACIÓN": "", "ESTADO": "SIN FECHA", "OBSERVACIONES": "HABILITACION RENOVO", "COORDENADAS": "-35.5780266, -58.0058265"}}, {"type": "Feature", "geometry": {"type": "Point", "coordinates": [-58.0149974, -35.5646366]}, "properties": {"name": "VENTA ELECTRICOS", "styleUrl": "#icon-1899-BDBDBD", "NOMBRE / COMERCIO": "PEREYRA ARMANDO ROBERTO", "CUIT": "20-12914758-0", "CONTACTO": "2241425122", "CATEGORÍA FISCAL": "MONOTRIBUTISTA A", "DIRECCIÓN": "ALVEAR 667, Chascomús, Buenos Aires", "BARRIO": "VILLA LUJAN", "RUBRO": "VENTA ELECTRICOS- BAZAR", "CATEGORIA": "BAZAR Y HOGAR", "PADRÓN N°": "A3-0345", "INSPECTOR/A": "SOFIA- IRMA", "ÚLTIMA VISITA": "2026-02-03", "VENC. HABILITACIÓN": "2028-05-15", "ESTADO": "VIGENTE", "OBSERVACIONES": "", "COORDENADAS": "-35.5646366, -58.0149974"}}, {"type": "Feature", "geometry": {"type": "Point", "coordinates": [-58.0108263, -35.5538048]}, "properties": {"name": "FERRETERIA", "styleUrl": "#icon-1899-F9A825", "NOMBRE / COMERCIO": "QUIROGA HECTOR OSVALDO", "CUIT": "20-17076999-7", "CONTACTO": "2241555634", "CATEGORÍA FISCAL": "MONOTRIBUTISTA A", "DIRECCIÓN": "MACHADO 1270, Chascomús, Buenos Aires", "BARRIO": "ACCESO NORTE", "RUBRO": "FERRETERIA", "CATEGORIA": "FERRETERÍA Y CONSTRUCCIÓN", "PADRÓN N°": "A4-0679", "INSPECTOR/A": "SOFIA- IRMA", "ÚLTIMA VISITA": "2026-01-08", "VENC. HABILITACIÓN": "2026-03-10", "ESTADO": "VENCIDA", "OBSERVACIONES": "", "COORDENADAS": "-35.5538048, -58.0108263"}}, {"type": "Feature", "geometry": {"type": "Point", "coordinates": [-58.01297899999999, -35.56350390000001]}, "properties": {"name": "ABERTURAS", "styleUrl": "#icon-1899-BDBDBD", "NOMBRE / COMERCIO": "ARISTIZABAL RODOLFO", "CUIT": "20-12065655-5", "CONTACTO": "2241569235", "CATEGORÍA FISCAL": "NO REGISTRA IMPUESTOS ACTIVOS", "DIRECCIÓN": "FERNANDO DE ARENAZA 54, Chascomús, Buenos Aires", "BARRIO": "BARRIO JARDIN", "RUBRO": "ABERTURAS", "CATEGORIA": "FERRETERÍA Y CONSTRUCCIÓN", "PADRÓN N°": "A3-4031", "INSPECTOR/A": "SOFIA- IRMA", "ÚLTIMA VISITA": "2025-09-03", "VENC. HABILITACIÓN": "2024-12-15", "ESTADO": "VENCIDA", "OBSERVACIONES": "falta certificación de firmas mas arca wpp 26/08. SE FIRMA APTO EN MEDIDAS DE SEGURIDAD, EQUIPO N°1699 VTO 7/26 PH 7/29 , POSEE DISYUNTOR.", "COORDENADAS": "-35.56350390000001, -58.01297899999999"}}, {"type": "Feature", "geometry": {"type": "Point", "coordinates": [-58.0126703, -35.558478]}, "properties": {"name": "FERRETERIA", "styleUrl": "#icon-1899-F9A825", "NOMBRE / COMERCIO": "CORDOBA ANDREA", "CUIT": "27-24269798-2", "CONTACTO": "2241464275", "CATEGORÍA FISCAL": "MONOTRIBUTISTA G", "DIRECCIÓN": "YRIGOYEN 974, Chascomús, Buenos Aires", "BARRIO": "BARRIO JARDIN", "RUBRO": "FERRETERIA", "CATEGORIA": "FERRETERÍA Y CONSTRUCCIÓN", "PADRÓN N°": "A4-0542", "INSPECTOR/A": "SOFIA- IRMA", "ÚLTIMA VISITA": "2026-01-08", "VENC. HABILITACIÓN": "2027-01-25", "ESTADO": "VIGENTE", "OBSERVACIONES": "", "COORDENADAS": "-35.558478, -58.0126703"}}, {"type": "Feature", "geometry": {"type": "Point", "coordinates": [-58.0166978, -35.5598281]}, "properties": {"name": "FERRETERIA", "styleUrl": "#icon-1899-F9A825", "NOMBRE / COMERCIO": "DE LA CANAL RODOLFO", "CUIT": "20-08559419-3", "CONTACTO": "2241460143", "CATEGORÍA FISCAL": "MONOTRIBUTISTA A", "DIRECCIÓN": "LIBRES DEL SUR 940, Chascomús, Buenos Aires", "BARRIO": "BARRIO JARDIN", "RUBRO": "FERRETERIA", "CATEGORIA": "FERRETERÍA Y CONSTRUCCIÓN", "PADRÓN N°": "A4-0592", "INSPECTOR/A": "SOFIA- IRMA", "ÚLTIMA VISITA": "2026-01-20", "VENC. HABILITACIÓN": "2028-06-05", "ESTADO": "VIGENTE", "OBSERVACIONES": "", "COORDENADAS": "-35.5598281, -58.0166978"}}, {"type": "Feature", "geometry": {"type": "Point", "coordinates": [-58.0165406, -35.55986490000001]}, "properties": {"name": "MADERERA", "styleUrl": "#icon-1899-BDBDBD", "NOMBRE / COMERCIO": "DELGADO Y ROMAN SRL", "CUIT": "30-66506951-2", "CONTACTO": "2241685227", "CATEGORÍA FISCAL": "SRL", "DIRECCIÓN": "LIBRES DEL SUR 938, Chascomús, Buenos Aires", "BARRIO": "BARRIO JARDIN", "RUBRO": "MADERERA", "CATEGORIA": "FERRETERÍA Y CONSTRUCCIÓN", "PADRÓN N°": "A4-0194", "INSPECTOR/A": "SOFIA- IRMA", "ÚLTIMA VISITA": "2026-01-20", "VENC. HABILITACIÓN": "2025-09-15", "ESTADO": "VENCIDA", "OBSERVACIONES": "", "COORDENADAS": "-35.55986490000001, -58.0165406"}}, {"type": "Feature", "geometry": {"type": "Point", "coordinates": [-58.01618999999999, -35.5626254]}, "properties": {"name": "PINTURERIA", "styleUrl": "#icon-1899-BDBDBD", "NOMBRE / COMERCIO": "MASSINI JAVIER ARMANDO", "CUIT": "20-17919844-5", "CONTACTO": "2241565020", "CATEGORÍA FISCAL": "RESPONSABLE INSCRIPTO", "DIRECCIÓN": "LIBRES DEL SUR 782, Chascomús, Buenos Aires", "BARRIO": "BARRIO JARDIN", "RUBRO": "PINTURERIA-FERRETERIA", "CATEGORIA": "FERRETERÍA Y CONSTRUCCIÓN", "PADRÓN N°": "A5-0597", "INSPECTOR/A": "YANINA", "ÚLTIMA VISITA": "2025-10-29", "VENC. HABILITACIÓN": "2028-11-11", "ESTADO": "VIGENTE", "OBSERVACIONES": "MATAFUEGO N° 1H006374676 VTO CARGA 8/26, N°1H00971142 VTO CARGA 008/26, POSEE MEDIDAS DE SEGURIDAD VIGENTE A LA FECHA. SE FIRMA APTO", "COORDENADAS": "-35.5626254, -58.01618999999999"}}, {"type": "Feature", "geometry": {"type": "Point", "coordinates": [-58.0166031, -35.5683835]}, "properties": {"name": "VENTA SANITARIOS", "styleUrl": "#icon-1899-BDBDBD", "NOMBRE / COMERCIO": "ALFONSIN RODOLFO GONZALO", "CUIT": "30-70905034-2", "CONTACTO": "2241436768", "CATEGORÍA FISCAL": "NO REGISTRA IMPUESTOS ACTIVOS", "DIRECCIÓN": "ESCRIBANO 173, Chascomús, Buenos Aires", "BARRIO": "CENTRO", "RUBRO": "VENTA SANITARIOS", "CATEGORIA": "FERRETERÍA Y CONSTRUCCIÓN", "PADRÓN N°": "A4-0186", "INSPECTOR/A": "YANINA", "ÚLTIMA VISITA": "2024-05-21", "VENC. HABILITACIÓN": "", "ESTADO": "SIN FECHA", "OBSERVACIONES": "HABILIT VENCIDA 18-04-2020/REGULARIZAR", "COORDENADAS": "-35.5683835, -58.0166031"}}, {"type": "Feature", "geometry": {"type": "Point", "coordinates": [-58.01437420000001, -35.5719237]}, "properties": {"name": "FERRETERIA", "styleUrl": "#icon-1899-F9A825", "NOMBRE / COMERCIO": "ARRARAS EDUARDO", "CUIT": "20-36213612-2", "CONTACTO": "15580967", "CATEGORÍA FISCAL": "MONOTRIBUTISTA C", "DIRECCIÓN": "MAZZINI 189, Chascomús, Buenos Aires", "BARRIO": "CENTRO", "RUBRO": "FERRETERIA", "CATEGORIA": "FERRETERÍA Y CONSTRUCCIÓN", "PADRÓN N°": "A4-0609", "INSPECTOR/A": "ANIBAL", "ÚLTIMA VISITA": "2026-01-05", "VENC. HABILITACIÓN": "2025-05-15", "ESTADO": "VENCIDA", "OBSERVACIONES": "CUMPLE CON LA NORMATIVA VIGENTE PARA SU HABILITACION COMERCIAL+", "COORDENADAS": "-35.5719237, -58.01437420000001"}}, {"type": "Feature", "geometry": {"type": "Point", "coordinates": [-58.01731119999999, -35.5620209]}, "properties": {"name": "EXPOSICION", "styleUrl": "#icon-1899-BDBDBD", "NOMBRE / COMERCIO": "ATERIAN S A", "CUIT": "30-71702019-3", "CONTACTO": "2241440853", "CATEGORÍA FISCAL": "SA", "DIRECCIÓN": "JUAN MANUEL DE ROSAS 827, Chascomús, Buenos Aires", "BARRIO": "CENTRO", "RUBRO": "EXPOSICION -VENTA SANITARIOS", "CATEGORIA": "FERRETERÍA Y CONSTRUCCIÓN", "PADRÓN N°": "A6-0402", "INSPECTOR/A": "", "ÚLTIMA VISITA": "", "VENC. HABILITACIÓN": "2028-07-11", "ESTADO": "VIGENTE", "OBSERVACIONES": "HABILITACION VIGENTE", "COORDENADAS": "-35.5620209, -58.01731119999999"}}, {"type": "Feature", "geometry": {"type": "Point", "coordinates": [-57.9969766, -35.571494]}, "properties": {"name": "TORNERIA", "styleUrl": "#icon-1899-BDBDBD", "NOMBRE / COMERCIO": "BATISTA EDUARDO OMAR", "CUIT": "20-36213665-3", "CONTACTO": "2241671616", "CATEGORÍA FISCAL": "MONOTRIBUTISTA A", "DIRECCIÓN": "GARAY 505, Chascomús, Buenos Aires", "BARRIO": "CENTRO", "RUBRO": "TORNERIA-", "CATEGORIA": "FERRETERÍA Y CONSTRUCCIÓN", "PADRÓN N°": "A3-1691", "INSPECTOR/A": "YANINA", "ÚLTIMA VISITA": "2024-09-26", "VENC. HABILITACIÓN": "", "ESTADO": "SIN FECHA", "OBSERVACIONES": "HAB 05-07-2025", "COORDENADAS": "-35.571494, -57.9969766"}}, {"type": "Feature", "geometry": {"type": "Point", "coordinates": [-58.0130992, -35.5729572]}, "properties": {"name": "PINTURERIA", "styleUrl": "#icon-1899-BDBDBD", "NOMBRE / COMERCIO": "CEPEDA PATRICIO", "CUIT": "20-12141304-4", "CONTACTO": "2241414992", "CATEGORÍA FISCAL": "RESPONSABLE INSCRIPTO", "DIRECCIÓN": "ALVEAR 230, Chascomús, Buenos Aires", "BARRIO": "CENTRO", "RUBRO": "PINTURERIA", "CATEGORIA": "FERRETERÍA Y CONSTRUCCIÓN", "PADRÓN N°": "A3-3196", "INSPECTOR/A": "SOFIA- IRMA", "ÚLTIMA VISITA": "2025-08-28", "VENC. HABILITACIÓN": "2024-08-15", "ESTADO": "VENCIDA", "OBSERVACIONES": "HABILITACION PROVISORIA VENCIDA, SE OTORGA PLAZO PARA REGULARIZAR", "COORDENADAS": "-35.5729572, -58.0130992"}}, {"type": "Feature", "geometry": {"type": "Point", "coordinates": [-58.0129005, -35.572302]}, "properties": {"name": "VIVERO", "styleUrl": "#icon-1899-BDBDBD", "NOMBRE / COMERCIO": "COLLA PABLO EZEQUIEL", "CUIT": "27-38326090-1", "CONTACTO": "2241539217", "CATEGORÍA FISCAL": "RESPONSABLE INSCRIPTO", "DIRECCIÓN": "BOLIVAR 130, Chascomús, Buenos Aires", "BARRIO": "CENTRO", "RUBRO": "VIVERO-FERRETERIA", "CATEGORIA": "FERRETERÍA Y CONSTRUCCIÓN", "PADRÓN N°": "A3-3694", "INSPECTOR/A": "YANINA", "ÚLTIMA VISITA": "2025-12-09", "VENC. HABILITACIÓN": "", "ESTADO": "SIN FECHA", "OBSERVACIONES": "POSEE HABILITACION COMERCIAL SEGUN ORDENANZA 3653/07 CON VTO. 24/05/2026", "COORDENADAS": "-35.572302, -58.0129005"}}, {"type": "Feature", "geometry": {"type": "Point", "coordinates": [-58.0153548, -35.5698983]}, "properties": {"name": "FERRETERIA", "styleUrl": "#icon-1899-F9A825", "NOMBRE / COMERCIO": "DE CASTRO ORLANDO ANDRES", "CUIT": "20-08234115-4", "CONTACTO": "2241430311", "CATEGORÍA FISCAL": "RESPONSABLE INSCRIPTO", "DIRECCIÓN": "MAIPU 220, Chascomús, Buenos Aires", "BARRIO": "CENTRO", "RUBRO": "FERRETERIA", "CATEGORIA": "FERRETERÍA Y CONSTRUCCIÓN", "PADRÓN N°": "A4-0590", "INSPECTOR/A": "YANINA", "ÚLTIMA VISITA": "2025-12-26", "VENC. HABILITACIÓN": "2029-02-03", "ESTADO": "VIGENTE", "OBSERVACIONES": "POSEE MATAFUEGO CON VTO PH 4/28 VTO CARGA 4/26 . INFORME TECNICO PRESENTADO EN HABILITACIONES. MDS VIGENETES A LA FECHA", "COORDENADAS": "-35.5698983, -58.0153548"}}, {"type": "Feature", "geometry": {"type": "Point", "coordinates": [-57.98815130000001, -35.5747353]}, "properties": {"name": "VENTA DE REVESTMIENTO", "styleUrl": "#icon-1899-BDBDBD", "NOMBRE / COMERCIO": "DELGADO FACUNDO", "CUIT": "20316899391", "CONTACTO": "2241467873", "CATEGORÍA FISCAL": "MONOTRIBUTISTA C", "DIRECCIÓN": "LASTRA 442, Chascomús, Buenos Aires", "BARRIO": "CENTRO", "RUBRO": "VENTA DE REVESTMIENTO", "CATEGORIA": "FERRETERÍA Y CONSTRUCCIÓN", "PADRÓN N°": "A4-0633", "INSPECTOR/A": "ANIBAL", "ÚLTIMA VISITA": "2026-04-08", "VENC. HABILITACIÓN": "", "ESTADO": "SIN FECHA", "OBSERVACIONES": "", "COORDENADAS": "-35.5747353, -57.98815130000001"}}, {"type": "Feature", "geometry": {"type": "Point", "coordinates": [-58.0151926, -35.5721301]}, "properties": {"name": "PINTURERIA", "styleUrl": "#icon-1899-BDBDBD", "NOMBRE / COMERCIO": "GAYOSO BALTASAR ANDRES", "CUIT": "20-25300060-1", "CONTACTO": "2241677080", "CATEGORÍA FISCAL": "RESPONSABLE INSCRIPTO", "DIRECCIÓN": "BELGRANO 296, Chascomús, Buenos Aires", "BARRIO": "CENTRO", "RUBRO": "PINTURERIA/FERRETERIA", "CATEGORIA": "FERRETERÍA Y CONSTRUCCIÓN", "PADRÓN N°": "A3-1760", "INSPECTOR/A": "SOFIA- IRMA", "ÚLTIMA VISITA": "2025-11-10", "VENC. HABILITACIÓN": "2024-11-28", "ESTADO": "VENCIDA", "OBSERVACIONES": "AL MOMENTO DE LA INSPECCION POSEE EQUIPO 31336 VTO 9/26 PH 9/27, EQUIPO  31486 VTO 9/26 PH 9/27. POSEE DISYUNTOR CON SEÑALIZACION Y CINTAS ANTIDESLIZANTES, SE FIRMA MEDIDAS DE SEGURIDAD. EQUIPO 3 N° 732648 VTO 4/26 PH 4/26", "COORDENADAS": "-35.5721301, -58.0151926"}}, {"type": "Feature", "geometry": {"type": "Point", "coordinates": [-58.01026569999999, -35.5708304]}, "properties": {"name": "FERRETERIA", "styleUrl": "#icon-1899-F9A825", "NOMBRE / COMERCIO": "HARRIAGUE SOLEDAD B", "CUIT": "27266248704", "CONTACTO": "2241604697", "CATEGORÍA FISCAL": "RESPONSABLE INSCRIPTO", "DIRECCIÓN": "YRIGOYEN 322, Chascomús, Buenos Aires", "BARRIO": "CENTRO", "RUBRO": "FERRETERIA", "CATEGORIA": "FERRETERÍA Y CONSTRUCCIÓN", "PADRÓN N°": "A4-0591", "INSPECTOR/A": "YANINA", "ÚLTIMA VISITA": "2025-08-11", "VENC. HABILITACIÓN": "2026-09-01", "ESTADO": "VIGENTE", "OBSERVACIONES": "HABILITACION VIGENTE AL 1/9/26, SE PASO Y SE DEJO COPIA", "COORDENADAS": "-35.5708304, -58.01026569999999"}}, {"type": "Feature", "geometry": {"type": "Point", "coordinates": [-58.0131892, -35.5747491]}, "properties": {"name": "FERRETERIA", "styleUrl": "#icon-1899-F9A825", "NOMBRE / COMERCIO": "INCHAUSPE MARCOS", "CUIT": "20-26318582-0", "CONTACTO": "2241556388", "CATEGORÍA FISCAL": "RESPONSABLE INSCRIPTO", "DIRECCIÓN": "ALVEAR 145, Chascomús, Buenos Aires", "BARRIO": "CENTRO", "RUBRO": "FERRETERIA", "CATEGORIA": "FERRETERÍA Y CONSTRUCCIÓN", "PADRÓN N°": "A4-0595", "INSPECTOR/A": "SOFIA- IRMA", "ÚLTIMA VISITA": "2025-08-26", "VENC. HABILITACIÓN": "2027-07-24", "ESTADO": "VIGENTE", "OBSERVACIONES": "HABILITACION VIGENTE", "COORDENADAS": "-35.5747491, -58.0131892"}}, {"type": "Feature", "geometry": {"type": "Point", "coordinates": [-58.01703060000001, -35.55423210000001]}, "properties": {"name": "CARPINTERIA", "styleUrl": "#icon-1899-BDBDBD", "NOMBRE / COMERCIO": "LACOUMETTE PABLO JOSE", "CUIT": "20-18260393-8", "CONTACTO": "2241535197", "CATEGORÍA FISCAL": "MONOTRIBUTISTA B", "DIRECCIÓN": "LIBRES DEL SUR 1254, Chascomús, Buenos Aires", "BARRIO": "CENTRO", "RUBRO": "CARPINTERIA-REST ABERT", "CATEGORIA": "FERRETERÍA Y CONSTRUCCIÓN", "PADRÓN N°": "A1-0111", "INSPECTOR/A": "", "ÚLTIMA VISITA": "", "VENC. HABILITACIÓN": "2024-11-09", "ESTADO": "VENCIDA", "OBSERVACIONES": "HABILITACION VENC- NO CONFORME A PLANO", "COORDENADAS": "-35.55423210000001, -58.01703060000001"}}, {"type": "Feature", "geometry": {"type": "Point", "coordinates": [-58.01382349999999, -35.5686219]}, "properties": {"name": "VENTA SANITARIOS", "styleUrl": "#icon-1899-BDBDBD", "NOMBRE / COMERCIO": "LOPEZ GUSTAVO FABIAN", "CUIT": "20-20035955-1", "CONTACTO": "2241603250", "CATEGORÍA FISCAL": "RESPONSABLE INSCRIPTO", "DIRECCIÓN": "ALVEAR 462, Chascomús, Buenos Aires", "BARRIO": "CENTRO", "RUBRO": "VENTA SANITARIOS-ABERT-REVEST", "CATEGORIA": "FERRETERÍA Y CONSTRUCCIÓN", "PADRÓN N°": "A4-0564", "INSPECTOR/A": "SOFIA- IRMA", "ÚLTIMA VISITA": "2025-09-02", "VENC. HABILITACIÓN": "2025-07-15", "ESTADO": "VENCIDA", "OBSERVACIONES": "SE OTORGA PLAZO PARA REGULARIZAR", "COORDENADAS": "-35.5686219, -58.01382349999999"}}, {"type": "Feature", "geometry": {"type": "Point", "coordinates": [-58.01047370000001, -35.5672437]}, "properties": {"name": "CARPINTERIA METALICA", "styleUrl": "#icon-1899-BDBDBD", "NOMBRE / COMERCIO": "METALURGICA CHASCOMUS", "CUIT": "30709057575", "CONTACTO": "2241614440", "CATEGORÍA FISCAL": "RESPONSABLE INSCRIPTO", "DIRECCIÓN": "YRIGOYEN 321, Chascomús, Buenos Aires", "BARRIO": "CENTRO", "RUBRO": "CARPINTERIA METALICA", "CATEGORIA": "FERRETERÍA Y CONSTRUCCIÓN", "PADRÓN N°": "A4-0740", "INSPECTOR/A": "YANINA", "ÚLTIMA VISITA": "2025-04-11", "VENC. HABILITACIÓN": "2024-10-15", "ESTADO": "VENCIDA", "OBSERVACIONES": "HAB PROVISORIA 14-08-2024", "COORDENADAS": "-35.5672437, -58.01047370000001"}}, {"type": "Feature", "geometry": {"type": "Point", "coordinates": [-58.0100869, -35.5729838]}, "properties": {"name": "FERRETERIA INDUSTRIAL", "styleUrl": "#icon-1899-BDBDBD", "NOMBRE / COMERCIO": "MOLINE JORGE RAUL", "CUIT": "20-14517255-2", "CONTACTO": "2241440616", "CATEGORÍA FISCAL": "RESPONSABLE INSCRIPTO", "DIRECCIÓN": "FRANKLIN 20, Chascomús, Buenos Aires", "BARRIO": "CENTRO", "RUBRO": "FERRETERIA INDUSTRIAL", "CATEGORIA": "FERRETERÍA Y CONSTRUCCIÓN", "PADRÓN N°": "A4-0712", "INSPECTOR/A": "YANINA", "ÚLTIMA VISITA": "2025-12-12", "VENC. HABILITACIÓN": "", "ESTADO": "SIN FECHA", "OBSERVACIONES": "NO POSEE HABILITACION COMERCIAL A LA VISTA. DEBERA REALIZAR TRAMITE DE HABILITACION", "COORDENADAS": "-35.5729838, -58.0100869"}}, {"type": "Feature", "geometry": {"type": "Point", "coordinates": [-58.01371159999999, -35.5714618]}, "properties": {"name": "REPAR ARTEF", "styleUrl": "#icon-1899-BDBDBD", "NOMBRE / COMERCIO": "TRANQUIERI MARIA DEL CARMEN", "CUIT": "27-17260829-4", "CONTACTO": "2241426412", "CATEGORÍA FISCAL": "MONOTRIBUTISTA D", "DIRECCIÓN": "ALVEAR 307, Chascomús, Buenos Aires", "BARRIO": "CENTRO", "RUBRO": "REPAR ARTEF-FERRETERIA", "CATEGORIA": "FERRETERÍA Y CONSTRUCCIÓN", "PADRÓN N°": "A3-3176", "INSPECTOR/A": "SOFIA- IRMA", "ÚLTIMA VISITA": "2025-11-28", "VENC. HABILITACIÓN": "2027-12-16", "ESTADO": "VIGENTE", "OBSERVACIONES": "POSEE DISYUNTOR, LUZ DE EMERGENCIA, BOTIQUIN DE PRIMEROS AUXILIOS, EQUIPOS N° 096860  CON VTO 2/26 PH 2/27, 80564 VTO 6/26 PH 6/27, SE FIRMA APTO EN MEDIDAS DE SEGURIDAD.", "COORDENADAS": "-35.5714618, -58.01371159999999"}}, {"type": "Feature", "geometry": {"type": "Point", "coordinates": [-58.0128533, -35.5693546]}, "properties": {"name": "HERRERIA", "styleUrl": "#icon-1899-BDBDBD", "NOMBRE / COMERCIO": "ZACCHEO DOMINGO MARCELO", "CUIT": "20-20035829-6", "CONTACTO": "2241462863", "CATEGORÍA FISCAL": "MONOTRIBUTISTA A", "DIRECCIÓN": "JULIAN QUINTANA 427, Chascomús, Buenos Aires", "BARRIO": "CENTRO", "RUBRO": "HERRERIA", "CATEGORIA": "FERRETERÍA Y CONSTRUCCIÓN", "PADRÓN N°": "A3-2957", "INSPECTOR/A": "YANINA", "ÚLTIMA VISITA": "2025-09-25", "VENC. HABILITACIÓN": "2024-07-15", "ESTADO": "VENCIDA", "OBSERVACIONES": "EQUIPO N°838528 VTO PH7/29 CARGA 7/26, DE 10KG POSEE INSTALACION ELECTRICA CON CERTIFICADO MATRICULADO.", "COORDENADAS": "-35.5693546, -58.0128533"}}, {"type": "Feature", "geometry": {"type": "Point", "coordinates": [-58.0076311, -35.5729988]}, "properties": {"name": "FERRETERIA", "styleUrl": "#icon-1899-F9A825", "NOMBRE / COMERCIO": "ETCHEPARE NESTOR ARNALDO", "CUIT": "20-12547199-5", "CONTACTO": "423221", "CATEGORÍA FISCAL": "RESPONSABLE INSCRIPTO", "DIRECCIÓN": "GARAY 54, Chascomús, Buenos Aires", "BARRIO": "EL HUECO", "RUBRO": "FERRETERIA", "CATEGORIA": "FERRETERÍA Y CONSTRUCCIÓN", "PADRÓN N°": "A3-0088", "INSPECTOR/A": "YANINA", "ÚLTIMA VISITA": "2025-05-07", "VENC. HABILITACIÓN": "2026-02-15", "ESTADO": "VENCIDA", "OBSERVACIONES": "DEBE REALIZAR EL TRAMITE DE RENOVACION, MANIFIESTA QUE SE VA A IR Y CERRAR, CUANDO VUELVA COMENZARÁ EL TRAMITE", "COORDENADAS": "-35.5729988, -58.0076311"}}, {"type": "Feature", "geometry": {"type": "Point", "coordinates": [-58.0052265, -35.5754391]}, "properties": {"name": "VIDRIERIA", "styleUrl": "#icon-1899-BDBDBD", "NOMBRE / COMERCIO": "HELIX JUAN CARLOS", "CUIT": "23-08436772-9", "CONTACTO": "2241-678388", "CATEGORÍA FISCAL": "NO REGISTRA IMPUESTOS ACTIVOS", "DIRECCIÓN": "RIVADAVIA 155, Chascomús, Buenos Aires", "BARRIO": "EL HUECO", "RUBRO": "VIDRIERIA", "CATEGORIA": "FERRETERÍA Y CONSTRUCCIÓN", "PADRÓN N°": "A3-0401", "INSPECTOR/A": "", "ÚLTIMA VISITA": "", "VENC. HABILITACIÓN": "2025-03-15", "ESTADO": "VENCIDA", "OBSERVACIONES": "SUJETA A CANCELACION DE DEUDA DE INMUEBLE Y DEUDA DE SEG E HIEGIENE", "COORDENADAS": "-35.5754391, -58.0052265"}}, {"type": "Feature", "geometry": {"type": "Point", "coordinates": [-58.0004524, -35.5724768]}, "properties": {"name": "MARMOLERIA", "styleUrl": "#icon-1899-BDBDBD", "NOMBRE / COMERCIO": "IRIARTE GONZALO", "CUIT": "20-42138959-5", "CONTACTO": "2241457293", "CATEGORÍA FISCAL": "RESPONSABLE INSCRIPTO", "DIRECCIÓN": "FLORENCIO CHAPPA 172, Chascomús, Buenos Aires", "BARRIO": "EL HUECO", "RUBRO": "MARMOLERIA", "CATEGORIA": "FERRETERÍA Y CONSTRUCCIÓN", "PADRÓN N°": "B-0101", "INSPECTOR/A": "YANINA", "ÚLTIMA VISITA": "2025-06-26", "VENC. HABILITACIÓN": "2025-01-15", "ESTADO": "VENCIDA", "OBSERVACIONES": "DEUDA DE SEGURIDAD E HIGIENE-HABILITACION PARA RETIRAR", "COORDENADAS": "-35.5724768, -58.0004524"}}, {"type": "Feature", "geometry": {"type": "Point", "coordinates": [-57.9982838, -35.5719438]}, "properties": {"name": "TORNERIA", "styleUrl": "#icon-1899-BDBDBD", "NOMBRE / COMERCIO": "IRIARTE PEDRO", "CUIT": "20-20367115-7", "CONTACTO": "2241544460", "CATEGORÍA FISCAL": "MONOTRIBUTISTA G", "DIRECCIÓN": "GARAY 454, Chascomús, Buenos Aires", "BARRIO": "EL HUECO", "RUBRO": "TORNERIA-", "CATEGORIA": "FERRETERÍA Y CONSTRUCCIÓN", "PADRÓN N°": "A3-1451", "INSPECTOR/A": "YANINA", "ÚLTIMA VISITA": "2025-06-10", "VENC. HABILITACIÓN": "", "ESTADO": "SIN FECHA", "OBSERVACIONES": "DEBE RETIRAR LA HABILITACION", "COORDENADAS": "-35.5719438, -57.9982838"}}, {"type": "Feature", "geometry": {"type": "Point", "coordinates": [-57.9828325, -35.5812444]}, "properties": {"name": "BLOQUES DE HORMIGON", "styleUrl": "#icon-1899-BDBDBD", "NOMBRE / COMERCIO": "LA BLOQUERA SA-MEDINA LUIS ALBERTO", "CUIT": "30710479751", "CONTACTO": "1159961963", "CATEGORÍA FISCAL": "SA", "DIRECCIÓN": "GONZALEZ CHAVEZ 1139, Chascomús, Buenos Aires", "BARRIO": "EL HUECO", "RUBRO": "BLOQUES DE HORMIGON", "CATEGORIA": "FERRETERÍA Y CONSTRUCCIÓN", "PADRÓN N°": "A3-3350", "INSPECTOR/A": "ANIBAL", "ÚLTIMA VISITA": "2026-03-18", "VENC. HABILITACIÓN": "", "ESTADO": "SIN FECHA", "OBSERVACIONES": "", "COORDENADAS": "-35.5812444, -57.9828325"}}, {"type": "Feature", "geometry": {"type": "Point", "coordinates": [-58.00720099999999, -35.5751317]}, "properties": {"name": "ZINGUERIA", "styleUrl": "#icon-1899-BDBDBD", "NOMBRE / COMERCIO": "RODRIGUEZ CARLOS ALBERTO", "CUIT": "23-10854329-9", "CONTACTO": "2241672898", "CATEGORÍA FISCAL": "NO REGISTRA IMPUESTOS ACTIVOS", "DIRECCIÓN": "MACHADO 80, Chascomús, Buenos Aires", "BARRIO": "EL HUECO", "RUBRO": "ZINGUERIA", "CATEGORIA": "FERRETERÍA Y CONSTRUCCIÓN", "PADRÓN N°": "A3-3312", "INSPECTOR/A": "YANINA", "ÚLTIMA VISITA": "2025-05-23", "VENC. HABILITACIÓN": "2027-02-21", "ESTADO": "VIGENTE", "OBSERVACIONES": "HABILITACION VTO 21/02/27.", "COORDENADAS": "-35.5751317, -58.00720099999999"}}, {"type": "Feature", "geometry": {"type": "Point", "coordinates": [-58.00115959999999, -35.5723945]}, "properties": {"name": "EXP Y VENTA DE SANITARIOS", "styleUrl": "#icon-1899-BDBDBD", "NOMBRE / COMERCIO": "SAUCE SOLO SA", "CUIT": "30-70740327-2", "CONTACTO": "2241692232", "CATEGORÍA FISCAL": "SA", "DIRECCIÓN": "GARAY 320, Chascomús, Buenos Aires", "BARRIO": "EL HUECO", "RUBRO": "EXP Y VENTA DE SANITARIOS -ART CONS", "CATEGORIA": "FERRETERÍA Y CONSTRUCCIÓN", "PADRÓN N°": "A4-0424", "INSPECTOR/A": "YANINA", "ÚLTIMA VISITA": "2024-10-16", "VENC. HABILITACIÓN": "", "ESTADO": "SIN FECHA", "OBSERVACIONES": "HABILITACION 27-02-2027", "COORDENADAS": "-35.5723945, -58.00115959999999"}}, {"type": "Feature", "geometry": {"type": "Point", "coordinates": [-58.005911, -35.5753383]}, "properties": {"name": "FERRETERIA", "styleUrl": "#icon-1899-F9A825", "NOMBRE / COMERCIO": "TORREGIANI DIEGO HERNAN", "CUIT": "20-24930172-9", "CONTACTO": "2241603734", "CATEGORÍA FISCAL": "RESPONSABLE INSCRIPTO", "DIRECCIÓN": "SAAVEDRA 66, Chascomús, Buenos Aires", "BARRIO": "EL HUECO", "RUBRO": "FERRETERIA", "CATEGORIA": "FERRETERÍA Y CONSTRUCCIÓN", "PADRÓN N°": "A4-0718", "INSPECTOR/A": "ANIBAL", "ÚLTIMA VISITA": "2026-04-08", "VENC. HABILITACIÓN": "2025-04-15", "ESTADO": "VENCIDA", "OBSERVACIONES": "", "COORDENADAS": "-35.5753383, -58.005911"}}, {"type": "Feature", "geometry": {"type": "Point", "coordinates": [-58.01766339999999, -35.5639959]}, "properties": {"name": "HERRERIA", "styleUrl": "#icon-1899-BDBDBD", "NOMBRE / COMERCIO": "CHASMELAL S.A", "CUIT": "30-71514741-2", "CONTACTO": "2241681470", "CATEGORÍA FISCAL": "SA", "DIRECCIÓN": "LINCOLN 742, Chascomús, Buenos Aires", "BARRIO": "EL OBISPADO", "RUBRO": "HERRERIA", "CATEGORIA": "FERRETERÍA Y CONSTRUCCIÓN", "PADRÓN N°": "A4-0615", "INSPECTOR/A": "SOFIA- IRMA", "ÚLTIMA VISITA": "2025-08-08", "VENC. HABILITACIÓN": "2019-03-10", "ESTADO": "VENCIDA", "OBSERVACIONES": "HABILITACION PROV VENCIDA SE OTORGA PLAZO PARA REGULARIZAR", "COORDENADAS": "-35.5639959, -58.01766339999999"}}, {"type": "Feature", "geometry": {"type": "Point", "coordinates": [-58.0169809, -35.5636968]}, "properties": {"name": "FERRETERIA", "styleUrl": "#icon-1899-BDBDBD", "NOMBRE / COMERCIO": "EL GALLO BLANCO S.A", "CUIT": "30-71734857-1", "CONTACTO": "2241473725", "CATEGORÍA FISCAL": "SA", "DIRECCIÓN": "JUAN MANUEL DE ROSAS 723, Chascomús, Buenos Aires", "BARRIO": "EL OBISPADO", "RUBRO": "FERRETERIA- SANITARIOS CONSTRUCCION- ABERTURAS", "CATEGORIA": "FERRETERÍA Y CONSTRUCCIÓN", "PADRÓN N°": "A4-0758", "INSPECTOR/A": "SOFIA- IRMA", "ÚLTIMA VISITA": "2025-11-17", "VENC. HABILITACIÓN": "2027-07-02", "ESTADO": "VIGENTE", "OBSERVACIONES": "QUE CUMPLE CON LA NORMATIVA VIGENTE EN MEDIDAS DE SEGURIDAD", "COORDENADAS": "-35.5636968, -58.0169809"}}, {"type": "Feature", "geometry": {"type": "Point", "coordinates": [-58.01744199999999, -35.55937]}, "properties": {"name": "CORRALON DE MATERIALES", "styleUrl": "#icon-1899-BDBDBD", "NOMBRE / COMERCIO": "ESCALADO PROYECTOS MAC S.A", "CUIT": "30-71820790-4", "CONTACTO": "1141649084", "CATEGORÍA FISCAL": "SA", "DIRECCIÓN": "JUAN MANUEL DE ROSAS 961, Chascomús, Buenos Aires", "BARRIO": "EL OBISPADO", "RUBRO": "CORRALON DE MATERIALES", "CATEGORIA": "FERRETERÍA Y CONSTRUCCIÓN", "PADRÓN N°": "A4-0770", "INSPECTOR/A": "SOFIA- IRMA", "ÚLTIMA VISITA": "2025-08-11", "VENC. HABILITACIÓN": "2026-03-10", "ESTADO": "VENCIDA", "OBSERVACIONES": "HABILITACION VIGENTE, PROVISORIA.", "COORDENADAS": "-35.55937, -58.01744199999999"}}, {"type": "Feature", "geometry": {"type": "Point", "coordinates": [-58.0169119, -35.5646561]}, "properties": {"name": "FERRE", "styleUrl": "#icon-1899-BDBDBD", "NOMBRE / COMERCIO": "MASSINI JOAQUINA", "CUIT": "27-39986269-3", "CONTACTO": "2241423523", "CATEGORÍA FISCAL": "MONOTRIBUTISTA D", "DIRECCIÓN": "JUAN MANUEL DE ROSAS 711, Chascomús, Buenos Aires", "BARRIO": "EL OBISPADO", "RUBRO": "FERRE-PINTURERIA", "CATEGORIA": "FERRETERÍA Y CONSTRUCCIÓN", "PADRÓN N°": "A4-0755", "INSPECTOR/A": "SOFIA- IRMA", "ÚLTIMA VISITA": "2025-08-06", "VENC. HABILITACIÓN": "2027-04-30", "ESTADO": "VIGENTE", "OBSERVACIONES": "HABILITACION COMERCIAL VIGENTE", "COORDENADAS": "-35.5646561, -58.0169119"}}, {"type": "Feature", "geometry": {"type": "Point", "coordinates": [-58.0165585, -35.5672937]}, "properties": {"name": "VENTA ABERTURAS", "styleUrl": "#icon-1899-BDBDBD", "NOMBRE / COMERCIO": "MOJA JUAN EDUARDO", "CUIT": "20-26842532-3", "CONTACTO": "2241541465", "CATEGORÍA FISCAL": "MONOTRIBUTISTA G", "DIRECCIÓN": "BELGRANO 523, Chascomús, Buenos Aires", "BARRIO": "EL OBISPADO", "RUBRO": "VENTA ABERTURAS", "CATEGORIA": "FERRETERÍA Y CONSTRUCCIÓN", "PADRÓN N°": "A3-3207", "INSPECTOR/A": "SOFIA- IRMA", "ÚLTIMA VISITA": "2026-01-23", "VENC. HABILITACIÓN": "2026-04-17", "ESTADO": "VENCIDA", "OBSERVACIONES": "", "COORDENADAS": "-35.5672937, -58.0165585"}}, {"type": "Feature", "geometry": {"type": "Point", "coordinates": [-58.0166031, -35.5683835]}, "properties": {"name": "FERRETERIA", "styleUrl": "#icon-1899-F9A825", "NOMBRE / COMERCIO": "CAMBIER SEBASTIAN", "CUIT": "20-29827178-9", "CONTACTO": "2241579182", "CATEGORÍA FISCAL": "MONOTRIBUTISTA D", "DIRECCIÓN": "ESCRIBANO 440, Chascomús, Buenos Aires", "BARRIO": "ESCRIBANO", "RUBRO": "FERRETERIA", "CATEGORIA": "FERRETERÍA Y CONSTRUCCIÓN", "PADRÓN N°": "A4-0588", "INSPECTOR/A": "SOFIA- IRMA", "ÚLTIMA VISITA": "2025-07-01", "VENC. HABILITACIÓN": "2024-02-28", "ESTADO": "VENCIDA", "OBSERVACIONES": "EQ N° 399210/25VTO pH 10/26-APTO PARA MEDIDAS DESEGURIDAD", "COORDENADAS": "-35.5683835, -58.0166031"}}, {"type": "Feature", "geometry": {"type": "Point", "coordinates": [-57.9987088, -35.5760308]}, "properties": {"name": "VENTA MATERIALES CONSTRUCCION", "styleUrl": "#icon-1899-BDBDBD", "NOMBRE / COMERCIO": "MEDINA HERMANO S.A.", "CUIT": "30-71786388-3", "CONTACTO": "3512934349", "CATEGORÍA FISCAL": "SA", "DIRECCIÓN": "LA PORTEÑA 05, Chascomús, Buenos Aires", "BARRIO": "FATIMA", "RUBRO": "VENTA MATERIALES CONSTRUCCION", "CATEGORIA": "FERRETERÍA Y CONSTRUCCIÓN", "PADRÓN N°": "A4-0174", "INSPECTOR/A": "YANINA", "ÚLTIMA VISITA": "2026-03-02", "VENC. HABILITACIÓN": "", "ESTADO": "SIN FECHA", "OBSERVACIONES": "SE FIRMA APTO DE MEDIDAS DE SEGURIDAD ESPERANDO QUE ENVIEN CARGA DE FUEGO", "COORDENADAS": "-35.5760308, -57.9987088"}}, {"type": "Feature", "geometry": {"type": "Point", "coordinates": [-58.00652299999999, -35.5780462]}, "properties": {"name": "EXPOSICION Y VENTA SANITARIOS", "styleUrl": "#icon-1899-BDBDBD", "NOMBRE / COMERCIO": "SANITARIOS CAROSIO", "CUIT": "30-70932204-0", "CONTACTO": "2241576938", "CATEGORÍA FISCAL": "SA", "DIRECCIÓN": "ALMIRANTE BROWN 54, Chascomús, Buenos Aires", "BARRIO": "FATIMA", "RUBRO": "EXPOSICION Y VENTA SANITARIOS", "CATEGORIA": "FERRETERÍA Y CONSTRUCCIÓN", "PADRÓN N°": "A4-0036", "INSPECTOR/A": "SERGIO", "ÚLTIMA VISITA": "2024-09-26", "VENC. HABILITACIÓN": "2028-04-23", "ESTADO": "VIGENTE", "OBSERVACIONES": "HABILITACION 15-02-2025", "COORDENADAS": "-35.5780462, -58.00652299999999"}}, {"type": "Feature", "geometry": {"type": "Point", "coordinates": [-57.9940994, -35.5752337]}, "properties": {"name": "CARPINTERIA", "styleUrl": "#icon-1899-BDBDBD", "NOMBRE / COMERCIO": "CANDIOTTO MARINA CELESTE", "CUIT": "27-32609786-7", "CONTACTO": "425169", "CATEGORÍA FISCAL": "MONOTRIBUTISTA H", "DIRECCIÓN": "AV ALFONSIN, Chascomús, Buenos Aires", "BARRIO": "GALLO BLANCO", "RUBRO": "CARPINTERIA", "CATEGORIA": "FERRETERÍA Y CONSTRUCCIÓN", "PADRÓN N°": "A4-0751", "INSPECTOR/A": "SOFIA- IRMA", "ÚLTIMA VISITA": "2024-08-30", "VENC. HABILITACIÓN": "", "ESTADO": "SIN FECHA", "OBSERVACIONES": "HABILITACION 20-12-2026", "COORDENADAS": "-35.5752337, -57.9940994"}}, {"type": "Feature", "geometry": {"type": "Point", "coordinates": [-57.99031479999999, -35.5749001]}, "properties": {"name": "FERRETERIA", "styleUrl": "#icon-1899-F9A825", "NOMBRE / COMERCIO": "GANUZA MAXIMILIANO", "CUIT": "20-26624891-2", "CONTACTO": "2241436728", "CATEGORÍA FISCAL": "NO REGISTRA IMPUESTOS ACTIVOS", "DIRECCIÓN": "AV LASTRA 1196, Chascomús, Buenos Aires", "BARRIO": "GALLO BLANCO", "RUBRO": "FERRETERIA", "CATEGORIA": "FERRETERÍA Y CONSTRUCCIÓN", "PADRÓN N°": "A4-0598", "INSPECTOR/A": "SOFIA- IRMA", "ÚLTIMA VISITA": "2025-02-11", "VENC. HABILITACIÓN": "2024-10-14", "ESTADO": "VENCIDA", "OBSERVACIONES": "SE DEJA COPIA PRESENTAR TRAMITE DE HAB", "COORDENADAS": "-35.5749001, -57.99031479999999"}}, {"type": "Feature", "geometry": {"type": "Point", "coordinates": [-57.99266290000001, -35.5750528]}, "properties": {"name": "MADERERA", "styleUrl": "#icon-1899-BDBDBD", "NOMBRE / COMERCIO": "MENDEZ CRISTIAN GERARDO", "CUIT": "20-24076571-4", "CONTACTO": "2241679562", "CATEGORÍA FISCAL": "MONOTRIBUTISTA A", "DIRECCIÓN": "LASTRA Y TRES ARROYOS, Chascomús, Buenos Aires", "BARRIO": "GALLO BLANCO", "RUBRO": "MADERERA", "CATEGORIA": "FERRETERÍA Y CONSTRUCCIÓN", "PADRÓN N°": "A4-0313", "INSPECTOR/A": "SOFIA- IRMA", "ÚLTIMA VISITA": "2025-02-11", "VENC. HABILITACIÓN": "2025-11-10", "ESTADO": "VENCIDA", "OBSERVACIONES": "-CANC DEUDA SEG E HIGIENE-EDIFICIO SIN PLANOS", "COORDENADAS": "-35.5750528, -57.99266290000001"}}, {"type": "Feature", "geometry": {"type": "Point", "coordinates": [-57.9939923, -35.5716695]}, "properties": {"name": "VENTA MATERIALES P CONSTRUCCION", "styleUrl": "#icon-1899-BDBDBD", "NOMBRE / COMERCIO": "SERVIMAT S.A", "CUIT": "30-70822135-0", "CONTACTO": "2241611763", "CATEGORÍA FISCAL": "SA", "DIRECCIÓN": "GARAY 650, Chascomús, Buenos Aires", "BARRIO": "IPORA", "RUBRO": "VENTA MATERIALES P CONSTRUCCION", "CATEGORIA": "FERRETERÍA Y CONSTRUCCIÓN", "PADRÓN N°": "A4-0360", "INSPECTOR/A": "SOFIA- IRMA", "ÚLTIMA VISITA": "2025-07-11", "VENC. HABILITACIÓN": "2026-01-15", "ESTADO": "VENCIDA", "OBSERVACIONES": "DEBE RETIRAR HABILITACION, FALTAN FIRMAS CERTIFICADASSUJETA CANC DEUDA SEG E HIG-INMEBL-OBRA NO CONFORE A PLANO", "COORDENADAS": "-35.5716695, -57.9939923"}}, {"type": "Feature", "geometry": {"type": "Point", "coordinates": [-57.99467689999999, -35.5716028]}, "properties": {"name": "FERRETERIA", "styleUrl": "#icon-1899-BDBDBD", "NOMBRE / COMERCIO": "ZABALZA NORMA EDITH", "CUIT": "27-17076926-6", "CONTACTO": "2241460948", "CATEGORÍA FISCAL": "MONOTRIBUTISTA D", "DIRECCIÓN": "GARAY 653, Chascomús, Buenos Aires", "BARRIO": "IPORA", "RUBRO": "FERRETERIA-VENTA ART MAT ELECTR", "CATEGORIA": "FERRETERÍA Y CONSTRUCCIÓN", "PADRÓN N°": "A3-2276", "INSPECTOR/A": "SOFIA- IRMA", "ÚLTIMA VISITA": "2025-06-26", "VENC. HABILITACIÓN": "", "ESTADO": "SIN FECHA", "OBSERVACIONES": "HABILITACION VIGENTE 29-11-2027", "COORDENADAS": "-35.5716028, -57.99467689999999"}}, {"type": "Feature", "geometry": {"type": "Point", "coordinates": [-58.00981359999999, -35.5656089]}, "properties": {"name": "FERRETERIA", "styleUrl": "#icon-1899-F9A825", "NOMBRE / COMERCIO": "BIOTTI CARLOS ALBERTO", "CUIT": "20-28631737-6", "CONTACTO": "2241679871", "CATEGORÍA FISCAL": "RESPONSABLE INSCRIPTO", "DIRECCIÓN": "MACHADO 587, Chascomús, Buenos Aires", "BARRIO": "LA NORIA", "RUBRO": "FERRETERIA", "CATEGORIA": "FERRETERÍA Y CONSTRUCCIÓN", "PADRÓN N°": "A4- 0599", "INSPECTOR/A": "ANIBAL", "ÚLTIMA VISITA": "2026-01-22", "VENC. HABILITACIÓN": "2025-11-10", "ESTADO": "VENCIDA", "OBSERVACIONES": "CUMPLE CON LAS MEDIDAS DE SEGURIDAD, TRAMITANTO LA RENOVACION", "COORDENADAS": "-35.5656089, -58.00981359999999"}}, {"type": "Feature", "geometry": {"type": "Point", "coordinates": [-58.0108433, -35.5641193]}, "properties": {"name": "VIDRIERIA", "styleUrl": "#icon-1899-BDBDBD", "NOMBRE / COMERCIO": "SUAREZ CLAUDIO DAMIAN", "CUIT": "20-28289125-6", "CONTACTO": "2241446033", "CATEGORÍA FISCAL": "RESPONSABLE INSCRIPTO", "DIRECCIÓN": "YRIGOYEN 666, Chascomús, Buenos Aires", "BARRIO": "LA NORIA", "RUBRO": "VIDRIERIA, VENTA DE ABERTURA EN GENERAL", "CATEGORIA": "FERRETERÍA Y CONSTRUCCIÓN", "PADRÓN N°": "A4-0432", "INSPECTOR/A": "YANINA", "ÚLTIMA VISITA": "2025-06-30", "VENC. HABILITACIÓN": "2025-10-15", "ESTADO": "VENCIDA", "OBSERVACIONES": "PROVISORIA", "COORDENADAS": "-35.5641193, -58.0108433"}}, {"type": "Feature", "geometry": {"type": "Point", "coordinates": [-58.01442569999999, -35.567688]}, "properties": {"name": "FERRETERIA", "styleUrl": "#icon-1899-BDBDBD", "NOMBRE / COMERCIO": "MORGUEN ALEJANDRO", "CUIT": "20-13613595-4", "CONTACTO": "2241431944", "CATEGORÍA FISCAL": "RESPONSABLE INSCRIPTO", "DIRECCIÓN": "ALVEAR 505, Chascomús, Buenos Aires", "BARRIO": "VILLA LUJAN", "RUBRO": "FERRETERIA/VENTA DE ARMAS", "CATEGORIA": "FERRETERÍA Y CONSTRUCCIÓN", "PADRÓN N°": "A3-2793", "INSPECTOR/A": "SOFIA- IRMA", "ÚLTIMA VISITA": "2026-02-03", "VENC. HABILITACIÓN": "2026-06-15", "ESTADO": "VIGENTE", "OBSERVACIONES": "", "COORDENADAS": "-35.567688, -58.01442569999999"}}, {"type": "Feature", "geometry": {"type": "Point", "coordinates": [-58.0162068, -35.5645396]}, "properties": {"name": "CONSTRUCCION PISCINAS", "styleUrl": "#icon-1899-BDBDBD", "NOMBRE / COMERCIO": "PRINCIPE GROUPE S.R.L", "CUIT": "30-71556521-4", "CONTACTO": "1155766049", "CATEGORÍA FISCAL": "NO REGISTRA IMPUESTOS ACTIVOS", "DIRECCIÓN": "LIBRES DEL SUR 683, Chascomús, Buenos Aires", "BARRIO": "VILLA LUJAN", "RUBRO": "CONSTRUCCION PISCINAS", "CATEGORIA": "FERRETERÍA Y CONSTRUCCIÓN", "PADRÓN N°": "A3-3835", "INSPECTOR/A": "SOFIA- IRMA", "ÚLTIMA VISITA": "2025-07-10", "VENC. HABILITACIÓN": "2027-08-08", "ESTADO": "VIGENTE", "OBSERVACIONES": "POSEE HABILITACION VIGENTE", "COORDENADAS": "-35.5645396, -58.0162068"}}, {"type": "Feature", "geometry": {"type": "Point", "coordinates": [-58.0136464, -35.5776723]}, "properties": {"name": "REPARACION LAVARROPAS", "styleUrl": "", "NOMBRE / COMERCIO": "TRAVACIO FERNANDO GABRIEL", "CUIT": "20-24269651-5", "CONTACTO": "2241671010", "CATEGORÍA FISCAL": "NO REGISTRA IMPUESTOS ACTIVOS", "DIRECCIÓN": "26 DE July 0228, Chascomús, Buenos Aires", "BARRIO": "VILLA LUJAN", "RUBRO": "REPARACION LAVARROPAS-FERRETERIA", "CATEGORIA": "FERRETERÍA Y CONSTRUCCIÓN", "PADRÓN N°": "A4-0602", "INSPECTOR/A": "SOFIA- IRMA", "ÚLTIMA VISITA": "2025-06-13", "VENC. HABILITACIÓN": "2027-09-30", "ESTADO": "VIGENTE", "OBSERVACIONES": "30-09-2027-EQUIPO 720-006174S VTO 06-2026PH06-30", "COORDENADAS": "-35.5776723, -58.0136464"}}, {"type": "Feature", "geometry": {"type": "Point", "coordinates": [-58.016718, -35.57801, 0]}, "properties": {"name": "ESPINEL MARCELO/MATAFUEGOS CHASCOMUS", "description": {"@type": "html", "value": "Descripción: ESPINEL MARCELO/MATAFUEGOS CHASCOMUS<br>VENTA MATAFUEGOS<br>LASTRA  404, Chascomús, Buenos Aires<br>Barrio: CENTRO<br>Padrón: A3-0437<br>Estado: VENCIDA<br>NOMBRE / COMERCIO: ESPINEL MARCELO/MATAFUEGOS CHASCOMUS<br>CUIT: 20-22840794-2<br>CONTACTO: 2241574715<br>CATEGORÍA FISCAL: MONOTRIBUTISTA A<br>DIRECCIÓN: LASTRA  404, Chascomús, Buenos Aires<br>BARRIO: CENTRO<br>RUBRO: VENTA MATAFUEGOS<br>RUBRO NORMALIZADO: VENTA MATAFUEGOS<br>CATEGORIA: OTROS SERVICIOS<br>PADRÓN N°: A3-0437<br>INSPECTOR/A: SOFIA- IRMA<br>ÚLTIMA VISITA: 2025-12-26<br>VENC. HABILITACIÓN: 2025-05-15<br>ESTADO: VENCIDA<br>OBSERVACIONES: SI POSEE HABILITACION DEBERA COLOCAR EN PUERTA, SI NO POSEE INICIAR TRAMITE SE DEJA PLAZO 15 DIAS"}, "styleUrl": "#icon-1899-7CB342", "icon-opacity": 1, "icon-color": "#7cb342", "icon-scale": 1, "icon-offset": [32, 64], "icon-offset-units": ["pixels", "insetPixels"], "icon": "https://www.gstatic.com/mapspro/images/stock/503-wht-blank_maps.png", "Descripción": "ESPINEL MARCELO/MATAFUEGOS CHASCOMUS\nVENTA MATAFUEGOS\nLASTRA  404, Chascomús, Buenos Aires\nBarrio: CENTRO\nPadrón: A3-0437\nEstado: VENCIDA", "NOMBRE / COMERCIO": "ESPINEL MARCELO/MATAFUEGOS CHASCOMUS", "CUIT": "20-22840794-2", "CONTACTO": 2241574715, "CATEGORÍA FISCAL": "MONOTRIBUTISTA A", "DIRECCIÓN": "LASTRA  404, Chascomús, Buenos Aires", "BARRIO": "CENTRO", "RUBRO": "VENTA MATAFUEGOS", "RUBRO NORMALIZADO": "VENTA MATAFUEGOS", "CATEGORIA": "OTROS SERVICIOS", "PADRÓN N°": "A3-0437", "INSPECTOR/A": "SOFIA- IRMA", "ÚLTIMA VISITA": "2025-12-26", "VENC. HABILITACIÓN": "2025-05-15", "ESTADO": "VENCIDA", "OBSERVACIONES": "SI POSEE HABILITACION DEBERA COLOCAR EN PUERTA, SI NO POSEE INICIAR TRAMITE SE DEJA PLAZO 15 DIAS"}}, {"type": "Feature", "geometry": {"type": "Point", "coordinates": [-58.013313, -35.572797, 0]}, "properties": {"name": "HUMARAN RAMON", "description": {"@type": "html", "value": "Descripción: HUMARAN RAMON<br>VENTA MATAFUEGOS -ART SEGUR<br>ALVEAR 341, Chascomús, Buenos Aires<br>Barrio: CENTRO<br>Padrón: A3-3473<br>Estado: SIN FECHA<br>NOMBRE / COMERCIO: HUMARAN RAMON<br>CUIT: 23-14517282-9<br>CONTACTO: 2241565391<br>CATEGORÍA FISCAL: NO REGISTRA IMPUESTOS ACTIVOS<br>DIRECCIÓN: ALVEAR 341, Chascomús, Buenos Aires<br>BARRIO: CENTRO<br>RUBRO: VENTA MATAFUEGOS -ART SEGUR<br>RUBRO NORMALIZADO: VENTA MATAFUEGOS<br>CATEGORIA: OTROS SERVICIOS<br>PADRÓN N°: A3-3473<br>INSPECTOR/A: YANINA<br>ÚLTIMA VISITA: 2024-06-03<br>VENC. HABILITACIÓN: NaT<br>ESTADO: SIN FECHA<br>OBSERVACIONES: HABILITACION 22-08-2026"}, "styleUrl": "#icon-1899-7CB342", "icon-opacity": 1, "icon-color": "#7cb342", "icon-scale": 1, "icon-offset": [32, 64], "icon-offset-units": ["pixels", "insetPixels"], "icon": "https://www.gstatic.com/mapspro/images/stock/503-wht-blank_maps.png", "Descripción": "HUMARAN RAMON\nVENTA MATAFUEGOS -ART SEGUR\nALVEAR 341, Chascomús, Buenos Aires\nBarrio: CENTRO\nPadrón: A3-3473\nEstado: SIN FECHA", "NOMBRE / COMERCIO": "HUMARAN RAMON", "CUIT": "23-14517282-9", "CONTACTO": 2241565391, "CATEGORÍA FISCAL": "NO REGISTRA IMPUESTOS ACTIVOS", "DIRECCIÓN": "ALVEAR 341, Chascomús, Buenos Aires", "BARRIO": "CENTRO", "RUBRO": "VENTA MATAFUEGOS -ART SEGUR", "RUBRO NORMALIZADO": "VENTA MATAFUEGOS", "CATEGORIA": "OTROS SERVICIOS", "PADRÓN N°": "A3-3473", "INSPECTOR/A": "YANINA", "ÚLTIMA VISITA": "2024-06-03", "VENC. HABILITACIÓN": "NaT", "ESTADO": "SIN FECHA", "OBSERVACIONES": "HABILITACION 22-08-2026"}}, {"type": "Feature", "geometry": {"type": "Point", "coordinates": [-58.015157, -35.573398, 0]}, "properties": {"name": "IVANI ARIEL EMILIO", "description": {"@type": "html", "value": "Descripción: IVANI ARIEL EMILIO<br>CASA DE ELECTRICIDAD<br>BELGRANO  445, Chascomús, Buenos Aires<br>Barrio: CENTRO<br>Padrón: A3-2191<br>Estado: VIGENTE<br>NOMBRE / COMERCIO: IVANI ARIEL EMILIO<br>CUIT: 20-30425651-7<br>CONTACTO: 2241410187<br>CATEGORÍA FISCAL: RESPONSABLE INSCRIPTO<br>DIRECCIÓN: BELGRANO  445, Chascomús, Buenos Aires<br>BARRIO: CENTRO<br>RUBRO: CASA DE ELECTRICIDAD<br>RUBRO NORMALIZADO: CASA DE ELECTRICIDAD<br>CATEGORIA: OTROS SERVICIOS<br>PADRÓN N°: A3-2191<br>INSPECTOR/A: SOFIA- IRMA<br>ÚLTIMA VISITA: 2025-11-12<br>VENC. HABILITACIÓN: 2027-04-10<br>ESTADO: VIGENTE<br>OBSERVACIONES: EQUIPO N°14468 PH 9/28 CARGA 9/26, EL MISMO MANIFIESTA QUE NO SE PASO A BUSCAR LA HABILITACION, SE OTORGA PLAZO"}, "styleUrl": "#icon-1899-7CB342", "icon-opacity": 1, "icon-color": "#7cb342", "icon-scale": 1, "icon-offset": [32, 64], "icon-offset-units": ["pixels", "insetPixels"], "icon": "https://www.gstatic.com/mapspro/images/stock/503-wht-blank_maps.png", "Descripción": "IVANI ARIEL EMILIO\nCASA DE ELECTRICIDAD\nBELGRANO  445, Chascomús, Buenos Aires\nBarrio: CENTRO\nPadrón: A3-2191\nEstado: VIGENTE", "NOMBRE / COMERCIO": "IVANI ARIEL EMILIO", "CUIT": "20-30425651-7", "CONTACTO": 2241410187, "CATEGORÍA FISCAL": "RESPONSABLE INSCRIPTO", "DIRECCIÓN": "BELGRANO  445, Chascomús, Buenos Aires", "BARRIO": "CENTRO", "RUBRO": "CASA DE ELECTRICIDAD", "RUBRO NORMALIZADO": "CASA DE ELECTRICIDAD", "CATEGORIA": "OTROS SERVICIOS", "PADRÓN N°": "A3-2191", "INSPECTOR/A": "SOFIA- IRMA", "ÚLTIMA VISITA": "2025-11-12", "VENC. HABILITACIÓN": "2027-04-10", "ESTADO": "VIGENTE", "OBSERVACIONES": "EQUIPO N°14468 PH 9/28 CARGA 9/26, EL MISMO MANIFIESTA QUE NO SE PASO A BUSCAR LA HABILITACION, SE OTORGA PLAZO"}}, {"type": "Feature", "geometry": {"type": "Point", "coordinates": [-58.019707, -35.558905, 0]}, "properties": {"name": "MORDASINI JORGE EZEQUIEL", "description": {"@type": "html", "value": "Descripción: MORDASINI JORGE EZEQUIEL<br>VENTA Y REPARACION DE ARTICULOS DE ILUMINACION<br>LINCOLN 123, Chascomús, Buenos Aires<br>Barrio: CENTRO<br>Padrón: A3-3931<br>Estado: VENCIDA<br>NOMBRE / COMERCIO: MORDASINI JORGE EZEQUIEL<br>CUIT: 20-25548611-0<br>CONTACTO: 20-25548611-0<br>CATEGORÍA FISCAL: MONOTRIBUTISTA A<br>DIRECCIÓN: LINCOLN 123, Chascomús, Buenos Aires<br>BARRIO: CENTRO<br>RUBRO: VENTA Y REPARACION DE ARTICULOS DE ILUMINACION<br>RUBRO NORMALIZADO: VENTA Y REPARACION DE ARTICULOS DE ILUMINACION<br>CATEGORIA: OTROS SERVICIOS<br>PADRÓN N°: A3-3931<br>INSPECTOR/A: SOFIA- IRMA<br>ÚLTIMA VISITA: 2025-11-27<br>VENC. HABILITACIÓN: 2021-11-15<br>ESTADO: VENCIDA<br>OBSERVACIONES: DEBE REGULARIZAR SU SITUACION CON LA HABILITACION, POSEE VTO 15/11/21"}, "styleUrl": "#icon-1899-7CB342", "icon-opacity": 1, "icon-color": "#7cb342", "icon-scale": 1, "icon-offset": [32, 64], "icon-offset-units": ["pixels", "insetPixels"], "icon": "https://www.gstatic.com/mapspro/images/stock/503-wht-blank_maps.png", "Descripción": "MORDASINI JORGE EZEQUIEL\nVENTA Y REPARACION DE ARTICULOS DE ILUMINACION\nLINCOLN 123, Chascomús, Buenos Aires\nBarrio: CENTRO\nPadrón: A3-3931\nEstado: VENCIDA", "NOMBRE / COMERCIO": "MORDASINI JORGE EZEQUIEL", "CUIT": "20-25548611-0", "CONTACTO": "20-25548611-0", "CATEGORÍA FISCAL": "MONOTRIBUTISTA A", "DIRECCIÓN": "LINCOLN 123, Chascomús, Buenos Aires", "BARRIO": "CENTRO", "RUBRO": "VENTA Y REPARACION DE ARTICULOS DE ILUMINACION", "RUBRO NORMALIZADO": "VENTA Y REPARACION DE ARTICULOS DE ILUMINACION", "CATEGORIA": "OTROS SERVICIOS", "PADRÓN N°": "A3-3931", "INSPECTOR/A": "SOFIA- IRMA", "ÚLTIMA VISITA": "2025-11-27", "VENC. HABILITACIÓN": "2021-11-15", "ESTADO": "VENCIDA", "OBSERVACIONES": "DEBE REGULARIZAR SU SITUACION CON LA HABILITACION, POSEE VTO 15/11/21"}}, {"type": "Feature", "geometry": {"type": "Point", "coordinates": [-58.016933, -35.5578, 0]}, "properties": {"name": "LUPO MONICA MABEL", "description": {"@type": "html", "value": "Descripción: LUPO MONICA MABEL<br>CERRAJERIA<br>LIBRES DEL SUR 628, Chascomús, Buenos Aires<br>Barrio: VILLA LUJAN<br>Padrón: A3-1171<br>Estado: VIGENTE<br>NOMBRE / COMERCIO: LUPO MONICA MABEL<br>CUIT: 23-20066264-4<br>CONTACTO: 2241461761<br>CATEGORÍA FISCAL: RESPONSABLE INSCRIPTO<br>DIRECCIÓN: LIBRES DEL SUR 628, Chascomús, Buenos Aires<br>BARRIO: VILLA LUJAN<br>RUBRO: CERRAJERIA<br>RUBRO NORMALIZADO: CERRAJERIA<br>CATEGORIA: OTROS SERVICIOS<br>PADRÓN N°: A3-1171<br>INSPECTOR/A: SOFIA- IRMA<br>ÚLTIMA VISITA: 2026-01-30<br>VENC. HABILITACIÓN: 2027-09-02<br>ESTADO: VIGENTE<br>OBSERVACIONES: "}, "styleUrl": "#icon-1899-1A237E", "icon-opacity": 1, "icon-color": "#1a237e", "icon-scale": 1, "icon-offset": [32, 64], "icon-offset-units": ["pixels", "insetPixels"], "icon": "https://www.gstatic.com/mapspro/images/stock/503-wht-blank_maps.png", "Descripción": "LUPO MONICA MABEL\nCERRAJERIA\nLIBRES DEL SUR 628, Chascomús, Buenos Aires\nBarrio: VILLA LUJAN\nPadrón: A3-1171\nEstado: VIGENTE", "NOMBRE / COMERCIO": "LUPO MONICA MABEL", "CUIT": "23-20066264-4", "CONTACTO": 2241461761, "CATEGORÍA FISCAL": "RESPONSABLE INSCRIPTO", "DIRECCIÓN": "LIBRES DEL SUR 628, Chascomús, Buenos Aires", "BARRIO": "VILLA LUJAN", "RUBRO": "CERRAJERIA", "RUBRO NORMALIZADO": "CERRAJERIA", "CATEGORIA": "OTROS SERVICIOS", "PADRÓN N°": "A3-1171", "INSPECTOR/A": "SOFIA- IRMA", "ÚLTIMA VISITA": "2026-01-30", "VENC. HABILITACIÓN": "2027-09-02", "ESTADO": "VIGENTE", "OBSERVACIONES": ""}}, {"type": "Feature", "geometry": {"type": "Point", "coordinates": [-58.015157, -35.573398, 0]}, "properties": {"name": "CASALINS HORACIO SS", "description": {"@type": "html", "value": "Descripción: CASALINS HORACIO SS<br>VENTA MATER ELECTRICOS<br>BELGRANO 108, Chascomús, Buenos Aires<br>Barrio: CENTRO<br>Padrón: A3-1683<br>Estado: VIGENTE<br>NOMBRE / COMERCIO: CASALINS HORACIO SS<br>CUIT: 20-36868768-6<br>CONTACTO: 2241550944<br>CATEGORÍA FISCAL: NO REGISTRA IMPUESTOS ACTIVOS<br>DIRECCIÓN: BELGRANO 108, Chascomús, Buenos Aires<br>BARRIO: CENTRO<br>RUBRO: VENTA MATER ELECTRICOS<br>RUBRO NORMALIZADO: VENTA MATER ELECTRICOS<br>CATEGORIA: TECNOLOGÍA Y COMUNICACIONES<br>PADRÓN N°: A3-1683<br>INSPECTOR/A: SOFIA- IRMA<br>ÚLTIMA VISITA: 2025-10-31<br>VENC. HABILITACIÓN: 2028-02-28<br>ESTADO: VIGENTE<br>OBSERVACIONES: HABILITACION VIGENTE SEGUN ORDENANZA"}, "styleUrl": "#icon-1899-7CB342", "icon-opacity": 1, "icon-color": "#7cb342", "icon-scale": 1, "icon-offset": [32, 64], "icon-offset-units": ["pixels", "insetPixels"], "icon": "https://www.gstatic.com/mapspro/images/stock/503-wht-blank_maps.png", "Descripción": "CASALINS HORACIO SS\nVENTA MATER ELECTRICOS\nBELGRANO 108, Chascomús, Buenos Aires\nBarrio: CENTRO\nPadrón: A3-1683\nEstado: VIGENTE", "NOMBRE / COMERCIO": "CASALINS HORACIO SS", "CUIT": "20-36868768-6", "CONTACTO": 2241550944, "CATEGORÍA FISCAL": "NO REGISTRA IMPUESTOS ACTIVOS", "DIRECCIÓN": "BELGRANO 108, Chascomús, Buenos Aires", "BARRIO": "CENTRO", "RUBRO": "VENTA MATER ELECTRICOS", "RUBRO NORMALIZADO": "VENTA MATER ELECTRICOS", "CATEGORIA": "TECNOLOGÍA Y COMUNICACIONES", "PADRÓN N°": "A3-1683", "INSPECTOR/A": "SOFIA- IRMA", "ÚLTIMA VISITA": "2025-10-31", "VENC. HABILITACIÓN": "2028-02-28", "ESTADO": "VIGENTE", "OBSERVACIONES": "HABILITACION VIGENTE SEGUN ORDENANZA"}}, {"type": "Feature", "geometry": {"type": "Point", "coordinates": [-58.010744, -35.565493, 0]}, "properties": {"name": "NOYA ARIEL SEBASTIAN", "description": {"@type": "html", "value": "Descripción: NOYA ARIEL SEBASTIAN<br>REFRIGERACION<br>YRIGOYEN 236, Chascomús, Buenos Aires<br>Barrio: CENTRO<br>Padrón: A4-0572<br>Estado: VENCIDA<br>NOMBRE / COMERCIO: NOYA ARIEL SEBASTIAN<br>CUIT: 20239205993<br>CONTACTO: 2241446249<br>CATEGORÍA FISCAL: NO REGISTRA IMPUESTOS ACTIVOS<br>DIRECCIÓN: YRIGOYEN 236, Chascomús, Buenos Aires<br>BARRIO: CENTRO<br>RUBRO: REFRIGERACION<br>RUBRO NORMALIZADO: REFRIGERACION<br>CATEGORIA: TECNOLOGÍA Y COMUNICACIONES<br>PADRÓN N°: A4-0572<br>INSPECTOR/A: YANINA<br>ÚLTIMA VISITA: 2025-08-12<br>VENC. HABILITACIÓN: 2025-11-15<br>ESTADO: VENCIDA<br>OBSERVACIONES: QUEDA SUJETO A PROXIMAS INSPECCIONES"}, "styleUrl": "#icon-1899-7CB342", "icon-opacity": 1, "icon-color": "#7cb342", "icon-scale": 1, "icon-offset": [32, 64], "icon-offset-units": ["pixels", "insetPixels"], "icon": "https://www.gstatic.com/mapspro/images/stock/503-wht-blank_maps.png", "Descripción": "NOYA ARIEL SEBASTIAN\nREFRIGERACION\nYRIGOYEN 236, Chascomús, Buenos Aires\nBarrio: CENTRO\nPadrón: A4-0572\nEstado: VENCIDA", "NOMBRE / COMERCIO": "NOYA ARIEL SEBASTIAN", "CUIT": 20239205993, "CONTACTO": 2241446249, "CATEGORÍA FISCAL": "NO REGISTRA IMPUESTOS ACTIVOS", "DIRECCIÓN": "YRIGOYEN 236, Chascomús, Buenos Aires", "BARRIO": "CENTRO", "RUBRO": "REFRIGERACION", "RUBRO NORMALIZADO": "REFRIGERACION", "CATEGORIA": "TECNOLOGÍA Y COMUNICACIONES", "PADRÓN N°": "A4-0572", "INSPECTOR/A": "YANINA", "ÚLTIMA VISITA": "2025-08-12", "VENC. HABILITACIÓN": "2025-11-15", "ESTADO": "VENCIDA", "OBSERVACIONES": "QUEDA SUJETO A PROXIMAS INSPECCIONES"}}]}