{"type":"FeatureCollection","features":[{"type":"Feature","geometry":{"type":"Point","coordinates":[-58.016455,-35.56618,0]},"properties":{"name":"QUIMICA","description":{"@type":"html","value":"descripción: Descripción: HALTY MARIA  CRISTINA<br>QUIMICA<br>BELGRANO 376, Chascomús, Buenos Aires<br>Barrio: CENTRO<br>Padrón: A3-3451<br>Estado: VENCIDA<br>NOMBRE / COMERCIO: HALTY MARIA  CRISTINA<br>CUIT: 27-18219240-1<br>CONTACTO: 2241531818<br>CATEGORÍA FISCAL: RESPONSABLE INSCRIPTO<br>DIRECCIÓN: BELGRANO 376<br>BARRIO: CENTRO<br>RUBRO: QUIMICA<br>RUBRO NORMALIZADO: QUIMICA<br>CATEGORIA: OTROS SERVICIOS<br>PADRÓN N°: A3-3451<br>INSPECTOR/A: SOFIA- IRMA<br>ÚLTIMA VISITA: 2025-11-13<br>VENC. HABILITACIÓN: 15/09/2024<br>ESTADO: VENCIDA<br>OBSERVACIONES: SE OTORGA PLAZO PARA REGULARIZAR<br>styleUrl: #icon-1899-7CB342<br>NOMBRE / COMERCIO: HALTY MARIA  CRISTINA<br>CUIT: 27-18219240-1<br>CONTACTO: 2241531818<br>CATEGORÍA FISCAL: RESPONSABLE INSCRIPTO<br>DIRECCIÓN: BELGRANO 376<br>BARRIO: CENTRO<br>RUBRO: QUIMICA<br>CATEGORIA: OTROS SERVICIOS<br>PADRÓN N°: A3-3451<br>INSPECTOR/A: SOFIA- IRMA<br>ÚLTIMA VISITA: 2025-11-13<br>VENC. HABILITACIÓN: 15/09/2024<br>ESTADO: VENCIDA<br>OBSERVACIONES: SE OTORGA PLAZO PARA REGULARIZAR<br>COORDENADAS: <br>icon-opacity: 1<br>icon-color: #7cb342<br>icon-scale: 1<br>icon-offset: [32,64]<br>icon-offset-units: [\"pixels\",\"insetPixels\"]<br>icon: https://www.gstatic.com/mapspro/images/stock/503-wht-blank_maps.png<br>Descripción: HALTY MARIA  CRISTINA<br>QUIMICA<br>BELGRANO 376, Chascomús, Buenos Aires<br>Barrio: CENTRO<br>Padrón: A3-3451<br>Estado: VENCIDA<br>RUBRO NORMALIZADO: QUIMICA"},"styleUrl":"#icon-1899-7CB342","label-scale":0,"icon-opacity":"1","icon-color":"#7cb342","icon-scale":"1","icon-offset":"[32,64]","icon-offset-units":"[\"pixels\",\"insetPixels\"]","icon":"https://www.gstatic.com/mapspro/images/stock/503-wht-blank_maps.png","descripción":"Descripción: HALTY MARIA  CRISTINA\nQUIMICA\nBELGRANO 376, Chascomús, Buenos Aires\nBarrio: CENTRO\nPadrón: A3-3451\nEstado: VENCIDA\nNOMBRE / COMERCIO: HALTY MARIA  CRISTINA\nCUIT: 27-18219240-1\nCONTACTO: 2241531818\nCATEGORÍA FISCAL: RESPONSABLE INSCRIPTO\nDIRECCIÓN: BELGRANO 376, Chascomús, Buenos Aires\nBARRIO: CENTRO\nRUBRO: QUIMICA\nRUBRO NORMALIZADO: QUIMICA\nCATEGORIA: OTROS SERVICIOS\nPADRÓN N°: A3-3451\nINSPECTOR/A: SOFIA- IRMA\nÚLTIMA VISITA: 2025-11-13\nVENC. HABILITACIÓN: 2024-09-15\nESTADO: VENCIDA\nOBSERVACIONES: SE OTORGA PLAZO PARA REGULARIZAR","NOMBRE / COMERCIO":"HALTY MARIA  CRISTINA","CUIT":"27-18219240-1","CONTACTO":"2241531818","CATEGORÍA FISCAL":"RESPONSABLE INSCRIPTO","DIRECCIÓN":"BELGRANO 376","BARRIO":"CENTRO","RUBRO":"QUIMICA","CATEGORIA":"OTROS SERVICIOS","PADRÓN N°":"A3-3451","INSPECTOR/A":"SOFIA- IRMA","ÚLTIMA VISITA":"2025-11-13","VENC. HABILITACIÓN":"15/09/2024","ESTADO":"VENCIDA","OBSERVACIONES":"SE OTORGA PLAZO PARA REGULARIZAR","COORDENADAS":"","Descripción":"HALTY MARIA  CRISTINA\nQUIMICA\nBELGRANO 376, Chascomús, Buenos Aires\nBarrio: CENTRO\nPadrón: A3-3451\nEstado: VENCIDA","RUBRO NORMALIZADO":"QUIMICA"}},{"type":"Feature","geometry":{"type":"Point","coordinates":[-58.012315,-35.560154,0]},"properties":{"name":"PAÑALERA-PERF","description":{"@type":"html","value":"descripción: <br>styleUrl: #icon-1899-BDBDBD<br>NOMBRE / COMERCIO: MULLER ESTER NOEMI<br>CUIT: 27-14517024-4<br>CONTACTO: 2241534213<br>CATEGORÍA FISCAL: MONOTRIBUTISTA F<br>DIRECCIÓN: YRIGOYEN 902<br>BARRIO: JARDIN<br>RUBRO: PAÑALERA-PERF<br>CATEGORIA: BAZAR Y HOGAR<br>PADRÓN N°: A3-3830<br>INSPECTOR/A: YANINA<br>ÚLTIMA VISITA: 2024-12-09<br>VENC. HABILITACIÓN: 13/03/2027<br>ESTADO: VIGENTE<br>OBSERVACIONES: HABILITACION 13-03-2024<br>COORDENADAS: -35.5601539, -58.0123151<br>icon-opacity: <br>icon-color: <br>icon-scale: <br>icon-offset: <br>icon-offset-units: <br>icon: <br>Descripción: <br>RUBRO NORMALIZADO: "},"styleUrl":"#icon-1899-BDBDBD","label-scale":0,"icon-opacity":"","icon-color":"","icon-scale":"","icon-offset":"","icon-offset-units":"","icon":"","descripción":"","NOMBRE / COMERCIO":"MULLER ESTER NOEMI","CUIT":"27-14517024-4","CONTACTO":"2241534213","CATEGORÍA FISCAL":"MONOTRIBUTISTA F","DIRECCIÓN":"YRIGOYEN 902","BARRIO":"JARDIN","RUBRO":"PAÑALERA-PERF","CATEGORIA":"BAZAR Y HOGAR","PADRÓN N°":"A3-3830","INSPECTOR/A":"YANINA","ÚLTIMA VISITA":"2024-12-09","VENC. HABILITACIÓN":"13/03/2027","ESTADO":"VIGENTE","OBSERVACIONES":"HABILITACION 13-03-2024","COORDENADAS":"-35.5601539, -58.0123151","Descripción":"","RUBRO NORMALIZADO":""}},{"type":"Feature","geometry":{"type":"Point","coordinates":[-58.015401,-35.573302,0]},"properties":{"name":"PAÑALERA","description":{"@type":"html","value":"descripción: <br>styleUrl: #icon-1899-BDBDBD<br>NOMBRE / COMERCIO: DE LUCA MA AGUSTINA<br>CUIT: 27-25937021-9<br>CONTACTO: 15693349<br>CATEGORÍA FISCAL: NO REGISTRA IMPUESTOS ACTIVOS<br>DIRECCIÓN: BELGRANO 229<br>BARRIO: CENTRO<br>RUBRO: PAÑALERA<br>CATEGORIA: BAZAR Y HOGAR<br>PADRÓN N°: A3- 3161<br>INSPECTOR/A: SOFIA- IRMA<br>ÚLTIMA VISITA: 2024-06-28<br>VENC. HABILITACIÓN: 07/08/2027<br>ESTADO: VIGENTE<br>OBSERVACIONES: HABILITACION 01-03-2024<br>COORDENADAS: -35.5733017, -58.0154009<br>icon-opacity: <br>icon-color: <br>icon-scale: <br>icon-offset: <br>icon-offset-units: <br>icon: <br>Descripción: <br>RUBRO NORMALIZADO: "},"styleUrl":"#icon-1899-BDBDBD","label-scale":0,"icon-opacity":"","icon-color":"","icon-scale":"","icon-offset":"","icon-offset-units":"","icon":"","descripción":"","NOMBRE / COMERCIO":"DE LUCA MA AGUSTINA","CUIT":"27-25937021-9","CONTACTO":"15693349","CATEGORÍA FISCAL":"NO REGISTRA IMPUESTOS ACTIVOS","DIRECCIÓN":"BELGRANO 229","BARRIO":"CENTRO","RUBRO":"PAÑALERA","CATEGORIA":"BAZAR Y HOGAR","PADRÓN N°":"A3- 3161","INSPECTOR/A":"SOFIA- IRMA","ÚLTIMA VISITA":"2024-06-28","VENC. HABILITACIÓN":"07/08/2027","ESTADO":"VIGENTE","OBSERVACIONES":"HABILITACION 01-03-2024","COORDENADAS":"-35.5733017, -58.0154009","Descripción":"","RUBRO NORMALIZADO":""}},{"type":"Feature","geometry":{"type":"Point","coordinates":[-58.015375,-35.568683,0]},"properties":{"name":"VENTA BOMBAS AGUA","description":{"@type":"html","value":"descripción: <br>styleUrl: #icon-1899-BDBDBD<br>NOMBRE / COMERCIO: DEL BARBA EDUARDO<br>CUIT: 20-12547215-0<br>CONTACTO: 2241532624<br>CATEGORÍA FISCAL: RESPONSABLE INSCRIPTO<br>DIRECCIÓN: LIBRES DEL SUR 477<br>BARRIO: CENTRO<br>RUBRO: VENTA BOMBAS AGUA<br>CATEGORIA: BAZAR Y HOGAR<br>PADRÓN N°: A3-3500<br>INSPECTOR/A: SOFIA- IRMA<br>ÚLTIMA VISITA: 2025-09-17<br>VENC. HABILITACIÓN: 26/07/2027<br>ESTADO: VIGENTE<br>OBSERVACIONES: EQUIPO N° 940110VTO 12/25 PH 10/26<br>COORDENADAS: -35.5686832, -58.0153753<br>icon-opacity: <br>icon-color: <br>icon-scale: <br>icon-offset: <br>icon-offset-units: <br>icon: <br>Descripción: <br>RUBRO NORMALIZADO: "},"styleUrl":"#icon-1899-BDBDBD","label-scale":0,"icon-opacity":"","icon-color":"","icon-scale":"","icon-offset":"","icon-offset-units":"","icon":"","descripción":"","NOMBRE / COMERCIO":"DEL BARBA EDUARDO","CUIT":"20-12547215-0","CONTACTO":"2241532624","CATEGORÍA FISCAL":"RESPONSABLE INSCRIPTO","DIRECCIÓN":"LIBRES DEL SUR 477","BARRIO":"CENTRO","RUBRO":"VENTA BOMBAS AGUA","CATEGORIA":"BAZAR Y HOGAR","PADRÓN N°":"A3-3500","INSPECTOR/A":"SOFIA- IRMA","ÚLTIMA VISITA":"2025-09-17","VENC. HABILITACIÓN":"26/07/2027","ESTADO":"VIGENTE","OBSERVACIONES":"EQUIPO N° 940110VTO 12/25 PH 10/26","COORDENADAS":"-35.5686832, -58.0153753","Descripción":"","RUBRO NORMALIZADO":""}},{"type":"Feature","geometry":{"type":"Point","coordinates":[-58.015345,-35.573589,0]},"properties":{"name":"DOÑATELLA/DECO","description":{"@type":"html","value":"descripción: <br>styleUrl: #icon-1899-BDBDBD<br>NOMBRE / COMERCIO: DONATO MARIELA<br>CUIT: 27-29827138-4<br>CONTACTO: 2241505274<br>CATEGORÍA FISCAL: RESPONSABLE INSCRIPTO<br>DIRECCIÓN: BELGRANO 205<br>BARRIO: CENTRO<br>RUBRO: DOÑATELLA/DECO<br>CATEGORIA: BAZAR Y HOGAR<br>PADRÓN N°: A4-0705<br>INSPECTOR/A: SOFIA- IRMA<br>ÚLTIMA VISITA: 2024-06-28<br>VENC. HABILITACIÓN: 15/02/2027<br>ESTADO: VIGENTE<br>OBSERVACIONES: HABILITACION EN TRAMITE??<br>COORDENADAS: -35.5735893, -58.0153449<br>icon-opacity: <br>icon-color: <br>icon-scale: <br>icon-offset: <br>icon-offset-units: <br>icon: <br>Descripción: <br>RUBRO NORMALIZADO: "},"styleUrl":"#icon-1899-BDBDBD","label-scale":0,"icon-opacity":"","icon-color":"","icon-scale":"","icon-offset":"","icon-offset-units":"","icon":"","descripción":"","NOMBRE / COMERCIO":"DONATO MARIELA","CUIT":"27-29827138-4","CONTACTO":"2241505274","CATEGORÍA FISCAL":"RESPONSABLE INSCRIPTO","DIRECCIÓN":"BELGRANO 205","BARRIO":"CENTRO","RUBRO":"DOÑATELLA/DECO","CATEGORIA":"BAZAR Y HOGAR","PADRÓN N°":"A4-0705","INSPECTOR/A":"SOFIA- IRMA","ÚLTIMA VISITA":"2024-06-28","VENC. HABILITACIÓN":"15/02/2027","ESTADO":"VIGENTE","OBSERVACIONES":"","COORDENADAS":"-35.5735893, -58.0153449","Descripción":"","RUBRO NORMALIZADO":""}},{"type":"Feature","geometry":{"type":"Point","coordinates":[-58.022311,-35.56508,0]},"properties":{"name":"PAÑALERA","description":{"@type":"html","value":"descripción: <br>styleUrl: #icon-1899-BDBDBD<br>NOMBRE / COMERCIO: CHANDLER DENISE<br>CUIT: 27-37982723-9<br>CONTACTO: 2241541243<br>CATEGORÍA FISCAL: MONOTRIBUTISTA C<br>DIRECCIÓN: TUCUMAN 544<br>BARRIO: SAN LUIS<br>RUBRO: PAÑALERA<br>CATEGORIA: BAZAR Y HOGAR<br>PADRÓN N°: A3-4330<br>INSPECTOR/A: SOFIA- IRMA<br>ÚLTIMA VISITA: 2026-05-04<br>VENC. HABILITACIÓN: 15/02/2024<br>ESTADO: VENCIDA<br>OBSERVACIONES: <br>COORDENADAS: -35.5650795, -58.0223114<br>icon-opacity: <br>icon-color: <br>icon-scale: <br>icon-offset: <br>icon-offset-units: <br>icon: <br>Descripción: <br>RUBRO NORMALIZADO: "},"styleUrl":"#icon-1899-BDBDBD","label-scale":0,"icon-opacity":"","icon-color":"","icon-scale":"","icon-offset":"","icon-offset-units":"","icon":"","descripción":"","NOMBRE / COMERCIO":"CHANDLER DENISE","CUIT":"27-37982723-9","CONTACTO":"2241541243","CATEGORÍA FISCAL":"MONOTRIBUTISTA C","DIRECCIÓN":"TUCUMAN 544","BARRIO":"SAN LUIS","RUBRO":"PAÑALERA","CATEGORIA":"BAZAR Y HOGAR","PADRÓN N°":"A3-4330","INSPECTOR/A":"SOFIA- IRMA","ÚLTIMA VISITA":"2026-05-04","VENC. HABILITACIÓN":"15/02/2024","ESTADO":"VENCIDA","OBSERVACIONES":"","COORDENADAS":"-35.5650795, -58.0223114","Descripción":"","RUBRO NORMALIZADO":""}},{"type":"Feature","geometry":{"type":"Point","coordinates":[-58.010873,-35.577062,0]},"properties":{"name":"VENTA PINTURAS Y ACCESORIOS","description":{"@type":"html","value":"descripción: <br>styleUrl: #icon-1899-BDBDBD<br>NOMBRE / COMERCIO: CEPEDA PATRICIO ALBERTO<br>CUIT: 20-12141304-4<br>CONTACTO: 2241603417<br>CATEGORÍA FISCAL: RESPONSABLE INSCRIPTO<br>DIRECCIÓN: AV LASTRA 359<br>BARRIO: CENTRO<br>RUBRO: VENTA PINTURAS Y ACCESORIOS<br>CATEGORIA: FERRETERÍA Y CONSTRUCCIÓN<br>PADRÓN N°: A3-1884<br>INSPECTOR/A: SOFIA- IRMA<br>ÚLTIMA VISITA: 2024-09-19<br>VENC. HABILITACIÓN: 10/11/2026<br>ESTADO: VIGENTE<br>OBSERVACIONES: HABILITACION EN VIGENCIA<br>COORDENADAS: -35.5770624, -58.0108734<br>icon-opacity: <br>icon-color: <br>icon-scale: <br>icon-offset: <br>icon-offset-units: <br>icon: <br>Descripción: <br>RUBRO NORMALIZADO: "},"styleUrl":"#icon-1899-BDBDBD","label-scale":0,"icon-opacity":"","icon-color":"","icon-scale":"","icon-offset":"","icon-offset-units":"","icon":"","descripción":"","NOMBRE / COMERCIO":"CEPEDA PATRICIO ALBERTO","CUIT":"20-12141304-4","CONTACTO":"2241603417","CATEGORÍA FISCAL":"RESPONSABLE INSCRIPTO","DIRECCIÓN":"AV LASTRA 359","BARRIO":"CENTRO","RUBRO":"VENTA PINTURAS Y ACCESORIOS","CATEGORIA":"FERRETERÍA Y CONSTRUCCIÓN","PADRÓN N°":"A3-1884","INSPECTOR/A":"SOFIA- IRMA","ÚLTIMA VISITA":"2024-09-19","VENC. HABILITACIÓN":"10/11/2026","ESTADO":"VIGENTE","OBSERVACIONES":"HABILITACION EN VIGENCIA","COORDENADAS":"-35.5770624, -58.0108734","Descripción":"","RUBRO NORMALIZADO":""}},{"type":"Feature","geometry":{"type":"Point","coordinates":[-58.014883,-35.574199,0]},"properties":{"name":"VENTA MATERIALES PARA CONSTRUCCION","description":{"@type":"html","value":"descripción: <br>styleUrl: #icon-1899-BDBDBD<br>NOMBRE / COMERCIO: JASTER MARIA CELESTE<br>CUIT: 27-26413317-9<br>CONTACTO: 2241690077<br>CATEGORÍA FISCAL: MONOTRIBUTISTA F<br>DIRECCIÓN: BELGRANO 398<br>BARRIO: CENTRO<br>RUBRO: VENTA MATERIALES PARA CONSTRUCCION<br>CATEGORIA: FERRETERÍA Y CONSTRUCCIÓN<br>PADRÓN N°: A3-3889<br>INSPECTOR/A: SOFIA- IRMA<br>ÚLTIMA VISITA: 2025-11-10<br>VENC. HABILITACIÓN: 20/08/2027<br>ESTADO: VIGENTE<br>OBSERVACIONES: POSEE EQUIPO VIGENTE<br>COORDENADAS: -35.5741988, -58.01488329999999<br>icon-opacity: <br>icon-color: <br>icon-scale: <br>icon-offset: <br>icon-offset-units: <br>icon: <br>Descripción: <br>RUBRO NORMALIZADO: "},"styleUrl":"#icon-1899-BDBDBD","label-scale":0,"icon-opacity":"","icon-color":"","icon-scale":"","icon-offset":"","icon-offset-units":"","icon":"","descripción":"","NOMBRE / COMERCIO":"JASTER MARIA CELESTE","CUIT":"27-26413317-9","CONTACTO":"2241690077","CATEGORÍA FISCAL":"MONOTRIBUTISTA F","DIRECCIÓN":"BELGRANO 398","BARRIO":"CENTRO","RUBRO":"VENTA MATERIALES PARA CONSTRUCCION","CATEGORIA":"FERRETERÍA Y CONSTRUCCIÓN","PADRÓN N°":"A3-3889","INSPECTOR/A":"SOFIA- IRMA","ÚLTIMA VISITA":"","VENC. HABILITACIÓN":"20/08/2027","ESTADO":"VIGENTE","OBSERVACIONES":"POSEE EQUIPO VIGENTE","COORDENADAS":"-35.5741988, -58.01488329999999","Descripción":"","RUBRO NORMALIZADO":""}},{"type":"Feature","geometry":{"type":"Point","coordinates":[-58.014514,-35.572751,0]},"properties":{"name":"VENTA DE PILETAS","description":{"@type":"html","value":"descripción: Descripción: CARIBBEAN S.R.L<br>VENTA DE PILETAS<br>LIBRES DEL SUR 706, Chascomús, Buenos Aires<br>Barrio: BARRIO JARDIN<br>Padrón: A3-3634<br>Estado: VENCIDA<br>NOMBRE / COMERCIO: CARIBBEAN S.R.L<br>CUIT: 30-71534164-2<br>CONTACTO: 430719<br>CATEGORÍA FISCAL: SRL<br>DIRECCIÓN: LIBRES DEL SUR 7063<br>BARRIO: BARRIO JARDIN<br>RUBRO: VENTA DE PILETAS<br>RUBRO NORMALIZADO: VENTA DE PILETAS<br>CATEGORIA: OTROS SERVICIOS<br>PADRÓN N°: A3-3634<br>INSPECTOR/A: <br>ÚLTIMA VISITA: <br>VENC. HABILITACIÓN: 10/09/2026<br>ESTADO: VIGENTE<br>OBSERVACIONES: SUJETA A PRESENTACION DE PLANOS<br>styleUrl: #icon-1899-795548<br>NOMBRE / COMERCIO: CARIBBEAN S.R.L<br>CUIT: 30-71534164-2<br>CONTACTO: 430719<br>CATEGORÍA FISCAL: SRL<br>DIRECCIÓN: LIBRES DEL SUR 7063<br>BARRIO: BARRIO JARDIN<br>RUBRO: VENTA DE PILETAS<br>CATEGORIA: OTROS SERVICIOS<br>PADRÓN N°: A3-3634<br>INSPECTOR/A: <br>ÚLTIMA VISITA: <br>VENC. HABILITACIÓN: 10/09/2026<br>ESTADO: VIGENTE<br>OBSERVACIONES: SUJETA A PRESENTACION DE PLANOS<br>COORDENADAS: <br>icon-opacity: 1<br>icon-color: #795548<br>icon-scale: 1<br>icon-offset: [32,64]<br>icon-offset-units: [\"pixels\",\"insetPixels\"]<br>icon: https://www.gstatic.com/mapspro/images/stock/503-wht-blank_maps.png<br>Descripción: CARIBBEAN S.R.L<br>VENTA DE PILETAS<br>LIBRES DEL SUR 706, Chascomús, Buenos Aires<br>Barrio: BARRIO JARDIN<br>Padrón: A3-3634<br>Estado: VENCIDA<br>RUBRO NORMALIZADO: VENTA DE PILETAS"},"styleUrl":"#icon-1899-795548","label-scale":0,"icon-opacity":"1","icon-color":"#795548","icon-scale":"1","icon-offset":"[32,64]","icon-offset-units":"[\"pixels\",\"insetPixels\"]","icon":"https://www.gstatic.com/mapspro/images/stock/503-wht-blank_maps.png","descripción":"Descripción: CARIBBEAN S.R.L\nVENTA DE PILETAS\nLIBRES DEL SUR 706, Chascomús, Buenos Aires\nBarrio: BARRIO JARDIN\nPadrón: A3-3634\nEstado: VENCIDA\nNOMBRE / COMERCIO: CARIBBEAN S.R.L\nCUIT: 30-71534164-2\nCONTACTO: 430719\nCATEGORÍA FISCAL: SRL\nDIRECCIÓN: LIBRES DEL SUR 706, Chascomús, Buenos Aires\nBARRIO: BARRIO JARDIN\nRUBRO: VENTA DE PILETAS\nRUBRO NORMALIZADO: VENTA DE PILETAS\nCATEGORIA: OTROS SERVICIOS\nPADRÓN N°: A3-3634\nINSPECTOR/A: \nÚLTIMA VISITA: NaT\nVENC. HABILITACIÓN: 2025-11-10\nESTADO: VENCIDA\nOBSERVACIONES: SUJETA A PRESENTACION DE PLANOS","NOMBRE / COMERCIO":"CARIBBEAN S.R.L","CUIT":"30-71534164-2","CONTACTO":"430719","CATEGORÍA FISCAL":"SRL","DIRECCIÓN":"LIBRES DEL SUR 7063","BARRIO":"BARRIO JARDIN","RUBRO":"VENTA DE PILETAS","CATEGORIA":"OTROS SERVICIOS","PADRÓN N°":"A3-3634","INSPECTOR/A":"","ÚLTIMA VISITA":"NaT","VENC. HABILITACIÓN":"10/09/2026","ESTADO":"VIGENTE","OBSERVACIONES":"SUJETA A PRESENTACION DE PLANOS","COORDENADAS":"","Descripción":"CARIBBEAN S.R.L\nVENTA DE PILETAS\nLIBRES DEL SUR 706, Chascomús, Buenos Aires\nBarrio: BARRIO JARDIN\nPadrón: A3-3634\nEstado: VENCIDA","RUBRO NORMALIZADO":"VENTA DE PILETAS"}},{"type":"Feature","geometry":{"type":"Point","coordinates":[-58.013646,-35.577672,0]},"properties":{"name":"FABRICACION -VENTA DE ABERT ALUM","description":{"@type":"html","value":"descripción: <br>styleUrl: #icon-1899-BDBDBD<br>NOMBRE / COMERCIO: HUALDE JAVIER FRANCISCO<br>CUIT: 23-20367010-9<br>CONTACTO: <br>CATEGORÍA FISCAL: RESPONSABLE INSCRIPTO<br>DIRECCIÓN: ESTADOS UNIDOS ESQUINA VARELA Y MAR<br>BARRIO: FATIMA<br>RUBRO: FABRICACION -VENTA DE ABERT ALUM<br>CATEGORIA: FERRETERÍA Y CONSTRUCCIÓN<br>PADRÓN N°: A3-1553<br>INSPECTOR/A: SOFIA- IRMA<br>ÚLTIMA VISITA: 2026-05-22<br>VENC. HABILITACIÓN: <br>ESTADO: SIN DATOS<br>OBSERVACIONES: <br>COORDENADAS: -35.5776723, -58.0136464<br>icon-opacity: <br>icon-color: <br>icon-scale: <br>icon-offset: <br>icon-offset-units: <br>icon: <br>Descripción: <br>RUBRO NORMALIZADO: "},"styleUrl":"#icon-1899-BDBDBD","descripción":"","NOMBRE / COMERCIO":"HUALDE JAVIER FRANCISCO","CUIT":"23-20367010-9","CONTACTO":"2241562063","CATEGORÍA FISCAL":"RESPONSABLE INSCRIPTO","DIRECCIÓN":"ESTADOS UNIDOS ESQUINA VARELA Y MAR","BARRIO":"FATIMA","RUBRO":"FABRICACION -VENTA DE ABERT ALUM","CATEGORIA":"FERRETERÍA Y CONSTRUCCIÓN","PADRÓN N°":"A3-1553","INSPECTOR/A":"SOFIA- IRMA","ÚLTIMA VISITA":"2026-05-22","VENC. HABILITACIÓN":"10/12/2025","ESTADO":"SIN DATOS","OBSERVACIONES":"HABILITACION VIGENTE","COORDENADAS":"-35.5776723, -58.0136464","icon-opacity":"","icon-color":"","icon-scale":"","icon-offset":"","icon-offset-units":"","icon":"","Descripción":"","RUBRO NORMALIZADO":""}},{"type":"Feature","geometry":{"type":"Point","coordinates":[-58.012289,-35.571417,0]},"properties":{"name":"ALQUILER DE VAJILLA","description":{"@type":"html","value":"descripción: Descripción: GIACCHINO NICOLAS ARIEL<br>ALQUILER DE VAJILLA<br>QUINTANA 364, Chascomús, Buenos Aires<br>Barrio: CENTRO<br>Padrón: A3-3278<br>Estado: SIN FECHA<br>NOMBRE / COMERCIO: GIACCHINO NICOLAS ARIEL<br>CUIT: 20-28532649-5<br>CONTACTO: 1135716643<br>CATEGORÍA FISCAL: NO REGISTRA IMPUESTOS ACTIVOS<br>DIRECCIÓN: QUINTANA 364<br>BARRIO: CENTRO<br>RUBRO: ALQUILER DE VAJILLA<br>RUBRO NORMALIZADO: ALQUILER DE VAJILLA<br>CATEGORIA: EVENTOS Y CEREMONIAS<br>PADRÓN N°: A3-3278<br>INSPECTOR/A: SOFIA- IRMA<br>ÚLTIMA VISITA: 2026-04-09<br>VENC. HABILITACIÓN: 10/03/2027<br>ESTADO: VIGENTE<br>OBSERVACIONES:<br>styleUrl: #icon-1899-7CB342<br>NOMBRE / COMERCIO: GIACCHINO NICOLAS ARIEL<br>CUIT: 20-28532649-5<br>CONTACTO: 1135716643<br>CATEGORÍA FISCAL: NO REGISTRA IMPUESTOS ACTIVOS<br>DIRECCIÓN: QUINTANA 364<br>BARRIO: CENTRO<br>RUBRO: ALQUILER DE VAJILLA<br>CATEGORIA: EVENTOS Y CEREMONIAS<br>PADRÓN N°: A3-3278<br>INSPECTOR/A: SOFIA- IRMA<br>ÚLTIMA VISITA: 2026-04-09<br>VENC. HABILITACIÓN: 10/03/2027<br>ESTADO: VIGENTE<br>OBSERVACIONES: <br>COORDENADAS: <br>icon-opacity: 1<br>icon-color: #7cb342<br>icon-scale: 1<br>icon-offset: [32,64]<br>icon-offset-units: [\"pixels\",\"insetPixels\"]<br>icon: https://www.gstatic.com/mapspro/images/stock/503-wht-blank_maps.png<br>Descripción: GIACCHINO NICOLAS ARIEL<br>ALQUILER DE VAJILLA<br>QUINTANA 364, Chascomús, Buenos Aires<br>Barrio: CENTRO<br>Padrón: A3-3278<br>Estado: SIN FECHA<br>RUBRO NORMALIZADO: ALQUILER DE VAJILLA"},"styleUrl":"#icon-1899-7CB342","label-scale":0,"icon-opacity":"1","icon-color":"#7cb342","icon-scale":"1","icon-offset":"[32,64]","icon-offset-units":"[\"pixels\",\"insetPixels\"]","icon":"https://www.gstatic.com/mapspro/images/stock/503-wht-blank_maps.png","descripción":"Descripción: GIACCHINO NICOLAS ARIEL\nALQUILER DE VAJILLA\nQUINTANA 364, Chascomús, Buenos Aires\nBarrio: CENTRO\nPadrón: A3-3278\nEstado: SIN FECHA\nNOMBRE / COMERCIO: GIACCHINO NICOLAS ARIEL\nCUIT: 20-28532649-5\nCONTACTO: 1135716643\nCATEGORÍA FISCAL: NO REGISTRA IMPUESTOS ACTIVOS\nDIRECCIÓN: QUINTANA 364, Chascomús, Buenos Aires\nBARRIO: CENTRO\nRUBRO: ALQUILER DE VAJILLA\nRUBRO NORMALIZADO: ALQUILER DE VAJILLA\nCATEGORIA: EVENTOS Y CEREMONIAS\nPADRÓN N°: A3-3278\nINSPECTOR/A: SOFIA- IRMA\nÚLTIMA VISITA: 2026-04-09\nVENC. HABILITACIÓN: NaT\nESTADO: SIN FECHA\nOBSERVACIONES:","NOMBRE / COMERCIO":"GIACCHINO NICOLAS ARIEL","CUIT":"20-28532649-5","CONTACTO":"1135716643","CATEGORÍA FISCAL":"NO REGISTRA IMPUESTOS ACTIVOS","DIRECCIÓN":"QUINTANA 364","BARRIO":"CENTRO","RUBRO":"ALQUILER DE VAJILLA","CATEGORIA":"EVENTOS Y CEREMONIAS","PADRÓN N°":"A3-3278","INSPECTOR/A":"SOFIA- IRMA","ÚLTIMA VISITA":"2026-04-09","VENC. HABILITACIÓN":"10/03/2027","ESTADO":"VIGENTE","OBSERVACIONES":"","COORDENADAS":"","Descripción":"GIACCHINO NICOLAS ARIEL\nALQUILER DE VAJILLA\nQUINTANA 364, Chascomús, Buenos Aires\nBarrio: CENTRO\nPadrón: A3-3278\nEstado: SIN FECHA","RUBRO NORMALIZADO":"ALQUILER DE VAJILLA"}},{"type":"Feature","geometry":{"type":"Point","coordinates":[-58.011102,-35.563515,0]},"properties":{"name":"KIOSCO","description":{"@type":"html","value":"descripción: Descripción: ARRARAS NESTOR ALFREDO<br>KIOSCO<br>YRIGOYEN 343, Chascomús, Buenos Aires<br>Barrio: CENTRO<br>Padrón: A3-4097<br>Estado: VIGENTE<br>NOMBRE / COMERCIO: ARRARAS NESTOR ALFREDO<br>CUIT: 20203672501<br>CONTACTO: 2241614440<br>CATEGORÍA FISCAL: MONOTRIBUTISTA D<br>DIRECCIÓN: YRIGOYEN 343<br>BARRIO: CENTRO<br>RUBRO: KIOSCO<br>RUBRO NORMALIZADO: KIOSCO<br>CATEGORIA: KIOSCO Y LIBRERÍA<br>PADRÓN N°: A3-4097<br>INSPECTOR/A: YANINA<br>ÚLTIMA VISITA: 2025-08-11<br>VENC. HABILITACIÓN: 05/02/2028<br>ESTADO: VIGENTE<br>OBSERVACIONES: HABILITACION VIGENTE.<br>styleUrl: #icon-1899-7CB342<br>NOMBRE / COMERCIO: ARRARAS NESTOR ALFREDO<br>CUIT: 20203672501<br>CONTACTO: 2241614440<br>CATEGORÍA FISCAL: MONOTRIBUTISTA D<br>DIRECCIÓN: YRIGOYEN 343<br>BARRIO: CENTRO<br>RUBRO: KIOSCO<br>CATEGORIA: KIOSCO Y LIBRERÍA<br>PADRÓN N°: A3-4097<br>INSPECTOR/A: YANINA<br>ÚLTIMA VISITA: 2025-08-11<br>VENC. HABILITACIÓN: 05/02/2028<br>ESTADO: VIGENTE<br>OBSERVACIONES: HABILITACION VIGENTE.<br>COORDENADAS: <br>icon-opacity: 1<br>icon-color: #7cb342<br>icon-scale: 1<br>icon-offset: [32,64]<br>icon-offset-units: [\"pixels\",\"insetPixels\"]<br>icon: https://www.gstatic.com/mapspro/images/stock/503-wht-blank_maps.png<br>Descripción: ARRARAS NESTOR ALFREDO<br>KIOSCO<br>YRIGOYEN 343, Chascomús, Buenos Aires<br>Barrio: CENTRO<br>Padrón: A3-4097<br>Estado: VIGENTE<br>RUBRO NORMALIZADO: KIOSCO"},"styleUrl":"#icon-1899-7CB342","label-scale":0,"icon-opacity":"1","icon-color":"#7cb342","icon-scale":"1","icon-offset":"[32,64]","icon-offset-units":"[\"pixels\",\"insetPixels\"]","icon":"https://www.gstatic.com/mapspro/images/stock/503-wht-blank_maps.png","descripción":"Descripción: ARRARAS NESTOR ALFREDO\nKIOSCO\nYRIGOYEN 343, Chascomús, Buenos Aires\nBarrio: CENTRO\nPadrón: A3-4097\nEstado: VIGENTE\nNOMBRE / COMERCIO: ARRARAS NESTOR ALFREDO\nCUIT: 20203672501\nCONTACTO: 2241614440\nCATEGORÍA FISCAL: MONOTRIBUTISTA D\nDIRECCIÓN: YRIGOYEN 343, Chascomús, Buenos Aires\nBARRIO: CENTRO\nRUBRO: KIOSCO\nRUBRO NORMALIZADO: KIOSCO\nCATEGORIA: KIOSCO Y LIBRERÍA\nPADRÓN N°: A3-4097\nINSPECTOR/A: YANINA\nÚLTIMA VISITA: 2025-08-11\nVENC. HABILITACIÓN: 2028-02-05\nESTADO: VIGENTE\nOBSERVACIONES: HABILITACION VIGENTE.","NOMBRE / COMERCIO":"ARRARAS NESTOR ALFREDO","CUIT":"20203672501","CONTACTO":"2241614440","CATEGORÍA FISCAL":"MONOTRIBUTISTA D","DIRECCIÓN":"YRIGOYEN 343","BARRIO":"CENTRO","RUBRO":"KIOSCO","CATEGORIA":"KIOSCO Y LIBRERÍA","PADRÓN N°":"A3-4097","INSPECTOR/A":"YANINA","ÚLTIMA VISITA":"2025-08-11","VENC. HABILITACIÓN":"05/02/2028","ESTADO":"VIGENTE","OBSERVACIONES":"HABILITACION VIGENTE.","COORDENADAS":"","Descripción":"ARRARAS NESTOR ALFREDO\nKIOSCO\nYRIGOYEN 343, Chascomús, Buenos Aires\nBarrio: CENTRO\nPadrón: A3-4097\nEstado: VIGENTE","RUBRO NORMALIZADO":"KIOSCO"}},{"type":"Feature","geometry":{"type":"Point","coordinates":[-58.011102,-35.563515,0]},"properties":{"name":"QUIMICA","description":{"@type":"html","value":"descripción: Descripción: CELANO ANDREA EMI<br>QUIMICA<br>YRIGOYEN, Chascomús, Buenos Aires<br>Barrio: BARRIO JARDIN<br>Padrón: A3-4501<br>Estado: VIGENTE<br>NOMBRE / COMERCIO: CELANO ANDREA EMI<br>CUIT: 27-28769689-8<br>CONTACTO: 2241542503<br>CATEGORÍA FISCAL: MONOTRIBUTISTA A<br>DIRECCIÓN: YRIGOYEN<br>BARRIO: JARDIN<br>RUBRO: QUIMICA<br>RUBRO NORMALIZADO: QUIMICA<br>CATEGORIA: OTROS SERVICIOS<br>PADRÓN N°: A3-4501<br>INSPECTOR/A: YANINA<br>ÚLTIMA VISITA: 2024-12-09<br>VENC. HABILITACIÓN: 07/10/2027<br>ESTADO: VIGENTE<br>OBSERVACIONES: HABILITACION 07-10-2027<br>styleUrl: #icon-1899-795548<br>NOMBRE / COMERCIO: CELANO ANDREA EMI<br>CUIT: 27-28769689-8<br>CONTACTO: 2241542503<br>CATEGORÍA FISCAL: MONOTRIBUTISTA A<br>DIRECCIÓN: YRIGOYEN<br>BARRIO: JARDIN<br>RUBRO: QUIMICA<br>CATEGORIA: OTROS SERVICIOS<br>PADRÓN N°: A3-4501<br>INSPECTOR/A: YANINA<br>ÚLTIMA VISITA: 2024-12-09<br>VENC. HABILITACIÓN: 07/10/2027<br>ESTADO: VIGENTE<br>OBSERVACIONES: HABILITACION 07-10-2027<br>COORDENADAS: <br>icon-opacity: 1<br>icon-color: #795548<br>icon-scale: 1<br>icon-offset: [32,64]<br>icon-offset-units: [\"pixels\",\"insetPixels\"]<br>icon: https://www.gstatic.com/mapspro/images/stock/503-wht-blank_maps.png<br>Descripción: CELANO ANDREA EMI<br>QUIMICA<br>YRIGOYEN, Chascomús, Buenos Aires<br>Barrio: BARRIO JARDIN<br>Padrón: A3-4501<br>Estado: VIGENTE<br>RUBRO NORMALIZADO: QUIMICA"},"styleUrl":"#icon-1899-795548","label-scale":0,"icon-opacity":"1","icon-color":"#795548","icon-scale":"1","icon-offset":"[32,64]","icon-offset-units":"[\"pixels\",\"insetPixels\"]","icon":"https://www.gstatic.com/mapspro/images/stock/503-wht-blank_maps.png","descripción":"Descripción: CELANO ANDREA EMI\nQUIMICA\nYRIGOYEN, Chascomús, Buenos Aires\nBarrio: BARRIO JARDIN\nPadrón: A3-4501\nEstado: VIGENTE\nNOMBRE / COMERCIO: CELANO ANDREA EMI\nCUIT: 27-28769689-8\nCONTACTO: 2241542503\nCATEGORÍA FISCAL: MONOTRIBUTISTA A\nDIRECCIÓN: YRIGOYEN, Chascomús, Buenos Aires\nBARRIO: BARRIO JARDIN\nRUBRO: QUIMICA\nRUBRO NORMALIZADO: QUIMICA\nCATEGORIA: OTROS SERVICIOS\nPADRÓN N°: A3-4501\nINSPECTOR/A: YANINA\nÚLTIMA VISITA: 2024-12-09\nVENC. HABILITACIÓN: 2027-10-07\nESTADO: VIGENTE\nOBSERVACIONES: HABILITACION 07-10-2027","NOMBRE / COMERCIO":"CELANO ANDREA EMI","CUIT":"27-28769689-8","CONTACTO":"2241542503","CATEGORÍA FISCAL":"MONOTRIBUTISTA A","DIRECCIÓN":"YRIGOYEN","BARRIO":"JARDIN","RUBRO":"QUIMICA","CATEGORIA":"OTROS SERVICIOS","PADRÓN N°":"A3-4501","INSPECTOR/A":"YANINA","ÚLTIMA VISITA":"2024-12-09","VENC. HABILITACIÓN":"07/10/2027","ESTADO":"VIGENTE","OBSERVACIONES":"HABILITACION 07-10-2027","COORDENADAS":"","Descripción":"CELANO ANDREA EMI\nQUIMICA\nYRIGOYEN, Chascomús, Buenos Aires\nBarrio: BARRIO JARDIN\nPadrón: A3-4501\nEstado: VIGENTE","RUBRO NORMALIZADO":"QUIMICA"}},{"type":"Feature","geometry":{"type":"Point","coordinates":[-58.014514,-35.572751,0]},"properties":{"name":"VENTA DE BICICLETAS","description":{"@type":"html","value":"descripción: Descripción: ALFONSIN ESTEBAN<br>VENTA DE BICICLETAS<br>LIBRES DEL SUR 476, Chascomús, Buenos Aires<br>Barrio: CENTRO<br>Padrón: A4-0184<br>Estado: VENCIDA<br>NOMBRE / COMERCIO: ALFONSIN ESTEBAN<br>CUIT: 20-20367063-0<br>CONTACTO: <br>CATEGORÍA FISCAL: NO REGISTRA IMPUESTOS ACTIVOS<br>DIRECCIÓN: LIBRES  DEL SUR 476<br>BARRIO: CENTRO<br>RUBRO: VENTA DE BICICLETAS<br>RUBRO NORMALIZADO: VENTA DE BICICLETAS<br>CATEGORIA: OTROS SERVICIOS<br>PADRÓN N°: A4-0184<br>INSPECTOR/A: YANINA<br>ÚLTIMA VISITA: 2025-10-08<br>VENC. HABILITACIÓN: 09/05/2019<br>ESTADO: VENCIDA<br>OBSERVACIONES: DEBE REGULARIZAR HABILITACION VENCIDA EN 2019<br>styleUrl: #icon-1899-7CB342<br>NOMBRE / COMERCIO: ALFONSIN ESTEBAN<br>CUIT: 20-20367063-0<br>CONTACTO: <br>CATEGORÍA FISCAL: NO REGISTRA IMPUESTOS ACTIVOS<br>DIRECCIÓN: LIBRES  DEL SUR 476<br>BARRIO: CENTRO<br>RUBRO: VENTA DE BICICLETAS<br>CATEGORIA: OTROS SERVICIOS<br>PADRÓN N°: A4-0184<br>INSPECTOR/A: YANINA<br>ÚLTIMA VISITA: 2025-10-08<br>VENC. HABILITACIÓN: 09/05/2019<br>ESTADO: VENCIDA<br>OBSERVACIONES: DEBE REGULARIZAR HABILITACION VENCIDA EN 2019<br>COORDENADAS: <br>icon-opacity: 1<br>icon-color: #7cb342<br>icon-scale: 1<br>icon-offset: [32,64]<br>icon-offset-units: [\"pixels\",\"insetPixels\"]<br>icon: https://www.gstatic.com/mapspro/images/stock/503-wht-blank_maps.png<br>Descripción: ALFONSIN ESTEBAN<br>VENTA DE BICICLETAS<br>LIBRES DEL SUR 476, Chascomús, Buenos Aires<br>Barrio: CENTRO<br>Padrón: A4-0184<br>Estado: VENCIDA<br>RUBRO NORMALIZADO: VENTA DE BICICLETAS"},"styleUrl":"#icon-1899-7CB342","label-scale":0,"icon-opacity":"1","icon-color":"#7cb342","icon-scale":"1","icon-offset":"[32,64]","icon-offset-units":"[\"pixels\",\"insetPixels\"]","icon":"https://www.gstatic.com/mapspro/images/stock/503-wht-blank_maps.png","descripción":"Descripción: ALFONSIN ESTEBAN\nVENTA DE BICICLETAS\nLIBRES DEL SUR 476, Chascomús, Buenos Aires\nBarrio: CENTRO\nPadrón: A4-0184\nEstado: VENCIDA\nNOMBRE / COMERCIO: ALFONSIN ESTEBAN\nCUIT: 20-20367063-0\nCONTACTO: 2241507959\nCATEGORÍA FISCAL: NO REGISTRA IMPUESTOS ACTIVOS\nDIRECCIÓN: LIBRES DEL SUR 476, Chascomús, Buenos Aires\nBARRIO: CENTRO\nRUBRO: VENTA DE BICICLETAS\nRUBRO NORMALIZADO: VENTA DE BICICLETAS\nCATEGORIA: OTROS SERVICIOS\nPADRÓN N°: A4-0184\nINSPECTOR/A: YANINA\nÚLTIMA VISITA: 2025-10-08\nVENC. HABILITACIÓN: 2019-05-09\nESTADO: VENCIDA\nOBSERVACIONES: DEBE REGULARIZAR HABILITACION VENCIDA EN 2019","NOMBRE / COMERCIO":"ALFONSIN ESTEBAN","CUIT":"20-20367063-0","CONTACTO":"2241507959","CATEGORÍA FISCAL":"NO REGISTRA IMPUESTOS ACTIVOS","DIRECCIÓN":"LIBRES  DEL SUR 476","BARRIO":"CENTRO","RUBRO":"VENTA DE BICICLETAS","CATEGORIA":"OTROS SERVICIOS","PADRÓN N°":"A4-0184","INSPECTOR/A":"YANINA","ÚLTIMA VISITA":"2025-10-08","VENC. HABILITACIÓN":"09/05/2019","ESTADO":"VENCIDA","OBSERVACIONES":"DEBE REGULARIZAR HABILITACION VENCIDA EN 2019","COORDENADAS":"","Descripción":"ALFONSIN ESTEBAN\nVENTA DE BICICLETAS\nLIBRES DEL SUR 476, Chascomús, Buenos Aires\nBarrio: CENTRO\nPadrón: A4-0184\nEstado: VENCIDA","RUBRO NORMALIZADO":"VENTA DE BICICLETAS"}},{"type":"Feature","geometry":{"type":"Point","coordinates":[-58.008746,-35.575958,0]},"properties":{"name":"VENTA DE BEBID ALCOHOL","description":{"@type":"html","value":"descripción: Descripción: BORDACHAR ADRIAN ALBERTO<br>VENTA DE BEBID ALCOHOL<br>ARENALES 185, Chascomús, Buenos Aires<br>Barrio: CENTRO<br>Padrón: A3-4384<br>Estado: SIN FECHA<br>NOMBRE / COMERCIO: BORDACHAR ADRIAN ALBERTO<br>CUIT: 20-20961267-5<br>CONTACTO: <br>CATEGORÍA FISCAL: RESPONSABLE INSCRIPTO<br>DIRECCIÓN: ARENALES 185<br>BARRIO: CENTRO<br>RUBRO: VENTA DE BEBID ALCOHOL<br>RUBRO NORMALIZADO: VENTA DE BEBID ALCOHOL<br>CATEGORIA: OTROS SERVICIOS<br>PADRÓN N°: A3-4384<br>INSPECTOR/A: YANINA<br>ÚLTIMA VISITA: 2025-01-18<br>VENC. HABILITACIÓN: 22/06/2026<br>ESTADO: VIGENTE<br>OBSERVACIONES: POSEE HABILITACION COMERCIAL VENCIDA 15/11/25 SE OTORGA PLAZO 15 DIAS<br>styleUrl: #icon-1899-7CB342<br>NOMBRE / COMERCIO: BORDACHAR ADRIAN ALBERTO<br>CUIT: 20-20961267-5<br>CONTACTO: <br>CATEGORÍA FISCAL: RESPONSABLE INSCRIPTO<br>DIRECCIÓN: ARENALES 185<br>BARRIO: CENTRO<br>RUBRO: VENTA DE BEBID ALCOHOL<br>CATEGORIA: OTROS SERVICIOS<br>PADRÓN N°: A3-4384<br>INSPECTOR/A: YANINA<br>ÚLTIMA VISITA: 2025-01-18<br>VENC. HABILITACIÓN: 22/06/2026<br>ESTADO: VIGENTE<br>OBSERVACIONES: POSEE HABILITACION COMERCIAL VENCIDA 15/11/25 SE OTORGA PLAZO 15 DIAS<br>COORDENADAS: <br>icon-opacity: 1<br>icon-color: #7cb342<br>icon-scale: 1<br>icon-offset: [32,64]<br>icon-offset-units: [\"pixels\",\"insetPixels\"]<br>icon: https://www.gstatic.com/mapspro/images/stock/503-wht-blank_maps.png<br>Descripción: BORDACHAR ADRIAN ALBERTO<br>VENTA DE BEBID ALCOHOL<br>ARENALES 185, Chascomús, Buenos Aires<br>Barrio: CENTRO<br>Padrón: A3-4384<br>Estado: SIN FECHA<br>RUBRO NORMALIZADO: VENTA DE BEBID ALCOHOL"},"styleUrl":"#icon-1899-7CB342","label-scale":0,"icon-opacity":"1","icon-color":"#7cb342","icon-scale":"1","icon-offset":"[32,64]","icon-offset-units":"[\"pixels\",\"insetPixels\"]","icon":"https://www.gstatic.com/mapspro/images/stock/503-wht-blank_maps.png","descripción":"Descripción: BORDACHAR ADRIAN ALBERTO\nVENTA DE BEBID ALCOHOL\nARENALES 185, Chascomús, Buenos Aires\nBarrio: CENTRO\nPadrón: A3-4384\nEstado: SIN FECHA\nNOMBRE / COMERCIO: BORDACHAR ADRIAN ALBERTO\nCUIT: 20-20961267-5\nCONTACTO: 2241574058\nCATEGORÍA FISCAL: RESPONSABLE INSCRIPTO\nDIRECCIÓN: ARENALES 185, Chascomús, Buenos Aires\nBARRIO: CENTRO\nRUBRO: VENTA DE BEBID ALCOHOL\nRUBRO NORMALIZADO: VENTA DE BEBID ALCOHOL\nCATEGORIA: OTROS SERVICIOS\nPADRÓN N°: A3-4384\nINSPECTOR/A: SOFIA- IRMA\nÚLTIMA VISITA: 2025-08-31\nVENC. HABILITACIÓN: NaT\nESTADO: SIN FECHA\nOBSERVACIONES: DEBERA RETIRAR HABILITACION COMERCIAL","NOMBRE / COMERCIO":"BORDACHAR ADRIAN ALBERTO","CUIT":"20-20961267-5","CONTACTO":"2241574058","CATEGORÍA FISCAL":"RESPONSABLE INSCRIPTO","DIRECCIÓN":"ARENALES 185","BARRIO":"CENTRO","RUBRO":"VENTA DE BEBID ALCOHOL","CATEGORIA":"OTROS SERVICIOS","PADRÓN N°":"A3-4384","INSPECTOR/A":"YANINA","ÚLTIMA VISITA":"2025-01-18","VENC. HABILITACIÓN":"22/06/2026","ESTADO":"VIGENTE","OBSERVACIONES":"POSEE HABILITACION COMERCIAL VENCIDA 15/11/25 SE OTORGA PLAZO 15 DIAS","COORDENADAS":"","Descripción":"BORDACHAR ADRIAN ALBERTO\nVENTA DE BEBID ALCOHOL\nARENALES 185, Chascomús, Buenos Aires\nBarrio: CENTRO\nPadrón: A3-4384\nEstado: SIN FECHA","RUBRO NORMALIZADO":"VENTA DE BEBID ALCOHOL"}},{"type":"Feature","geometry":{"type":"Point","coordinates":[-58.013313,-35.572797,0]},"properties":{"name":"QUIMICA","description":{"@type":"html","value":"descripción: Descripción: CABRERA OSCAR JAVIER<br>QUIMICA<br>ALVEAR 167, Chascomús, Buenos Aires<br>Barrio: CENTRO<br>Padrón: A3-4416<br>Estado: SIN FECHA<br>NOMBRE / COMERCIO: CABRERA OSCAR JAVIER<br>CUIT: 20-36868999-9<br>CONTACTO: 2241612216<br>CATEGORÍA FISCAL: MONOTRIBUTISTA C<br>DIRECCIÓN: ALVEAR 167<br>BARRIO: CENTRO<br>RUBRO: QUIMICA<br>RUBRO NORMALIZADO: QUIMICA<br>CATEGORIA: OTROS SERVICIOS<br>PADRÓN N°: A3-4416<br>INSPECTOR/A: SOFIA- IRMA<br>ÚLTIMA VISITA: 2026-08-27<br>VENC. HABILITACIÓN: 15/01/2024<br>ESTADO: VENCIDA<br>OBSERVACIONES: EL MISMO MANIFIESTA QUE CAMBIA DE DOMICILIO, Y QUE EL PROXIMO MES TENDRIA HABILITACION<br>styleUrl: #icon-1899-7CB342<br>NOMBRE / COMERCIO: CABRERA OSCAR JAVIER<br>CUIT: 20-36868999-9<br>CONTACTO: 2241612216<br>CATEGORÍA FISCAL: MONOTRIBUTISTA C<br>DIRECCIÓN: ALVEAR 167<br>BARRIO: CENTRO<br>RUBRO: QUIMICA<br>CATEGORIA: OTROS SERVICIOS<br>PADRÓN N°: A3-4416<br>INSPECTOR/A: SOFIA- IRMA<br>ÚLTIMA VISITA: 2026-08-27<br>VENC. HABILITACIÓN: 15/01/2024<br>ESTADO: VENCIDA<br>OBSERVACIONES: EL MISMO MANIFIESTA QUE CAMBIA DE DOMICILIO, Y QUE EL PROXIMO MES TENDRIA HABILITACION<br>COORDENADAS: <br>icon-opacity: 1<br>icon-color: #7cb342<br>icon-scale: 1<br>icon-offset: [32,64]<br>icon-offset-units: [\"pixels\",\"insetPixels\"]<br>icon: https://www.gstatic.com/mapspro/images/stock/503-wht-blank_maps.png<br>Descripción: CABRERA OSCAR JAVIER<br>QUIMICA<br>ALVEAR 167, Chascomús, Buenos Aires<br>Barrio: CENTRO<br>Padrón: A3-4416<br>Estado: SIN FECHA<br>RUBRO NORMALIZADO: QUIMICA"},"styleUrl":"#icon-1899-7CB342","label-scale":0,"icon-opacity":"1","icon-color":"#7cb342","icon-scale":"1","icon-offset":"[32,64]","icon-offset-units":"[\"pixels\",\"insetPixels\"]","icon":"https://www.gstatic.com/mapspro/images/stock/503-wht-blank_maps.png","descripción":"Descripción: CABRERA OSCAR JAVIER\nQUIMICA\nALVEAR 167, Chascomús, Buenos Aires\nBarrio: CENTRO\nPadrón: A3-4416\nEstado: SIN FECHA\nNOMBRE / COMERCIO: CABRERA OSCAR JAVIER\nCUIT: 20-36868999-9\nCONTACTO: 2241612216\nCATEGORÍA FISCAL: MONOTRIBUTISTA C\nDIRECCIÓN: ALVEAR 167, Chascomús, Buenos Aires\nBARRIO: CENTRO\nRUBRO: QUIMICA\nRUBRO NORMALIZADO: QUIMICA\nCATEGORIA: OTROS SERVICIOS\nPADRÓN N°: A3-4416\nINSPECTOR/A: SOFIA- IRMA\nÚLTIMA VISITA: 2026-08-27\nVENC. HABILITACIÓN: NaT\nESTADO: SIN FECHA\nOBSERVACIONES: EL MISMO MANIFIESTA QUE CAMBIA DE DOMICILIO, Y QUE EL PROXIMO MES TENDRIA HABILITACION","NOMBRE / COMERCIO":"CABRERA OSCAR JAVIER","CUIT":"20-36868999-9","CONTACTO":"2241612216","CATEGORÍA FISCAL":"MONOTRIBUTISTA C","DIRECCIÓN":"ALVEAR 167","BARRIO":"CENTRO","RUBRO":"QUIMICA","CATEGORIA":"OTROS SERVICIOS","PADRÓN N°":"A3-4416","INSPECTOR/A":"SOFIA- IRMA","ÚLTIMA VISITA":"2026-08-27","VENC. HABILITACIÓN":"15/01/2024","ESTADO":"VENCIDA","OBSERVACIONES":"EL MISMO MANIFIESTA QUE CAMBIA DE DOMICILIO, Y QUE EL PROXIMO MES TENDRIA HABILITACION","COORDENADAS":"","Descripción":"CABRERA OSCAR JAVIER\nQUIMICA\nALVEAR 167, Chascomús, Buenos Aires\nBarrio: CENTRO\nPadrón: A3-4416\nEstado: SIN FECHA","RUBRO NORMALIZADO":"QUIMICA"}},{"type":"Feature","geometry":{"type":"Point","coordinates":[-58.013409,-35.57361,0]},"properties":{"name":"VENTA ART DE LIMPIEZA-PERF-","description":{"@type":"html","value":"descripción: Descripción: ORTEGA SABRINA SOLEDAD<br>VENTA ART DE LIMPIEZA-PERF-<br>FRANKLIN 197, Chascomús, Buenos Aires<br>Barrio: CENTRO<br>Padrón: A3-4420<br>Estado: SIN FECHA<br>NOMBRE / COMERCIO: ORTEGA SABRINA SOLEDAD<br>CUIT: 27-29522635-3<br>CONTACTO: 2241534154<br>CATEGORÍA FISCAL: MONOTRIBUTISTA C<br>DIRECCIÓN: FRANKLIN 197<br>BARRIO: CENTRO<br>RUBRO: VENTA ART DE LIMPIEZA-PERF-<br>RUBRO NORMALIZADO: VENTA ART DE LIMPIEZA<br>CATEGORIA: OTROS SERVICIOS<br>PADRÓN N°: A3-4420<br>INSPECTOR/A: SOFIA- IRMA<br>ÚLTIMA VISITA: 2024-05-23<br>VENC. HABILITACIÓN: 10/10/2026<br>ESTADO: VIGENTE<br>OBSERVACIONES: HABILITA VIGENTE 10-10-2026<br>styleUrl: #icon-1899-7CB342<br>NOMBRE / COMERCIO: ORTEGA SABRINA SOLEDAD<br>CUIT: 27-29522635-3<br>CONTACTO: 2241534154<br>CATEGORÍA FISCAL: MONOTRIBUTISTA C<br>DIRECCIÓN: FRANKLIN 197<br>BARRIO: CENTRO<br>RUBRO: VENTA ART DE LIMPIEZA-PERF-<br>CATEGORIA: OTROS SERVICIOS<br>PADRÓN N°: A3-4420<br>INSPECTOR/A: SOFIA- IRMA<br>ÚLTIMA VISITA: 2024-05-23<br>VENC. HABILITACIÓN: 10/10/2026<br>ESTADO: VIGENTE<br>OBSERVACIONES: HABILITA VIGENTE 10-10-2026<br>COORDENADAS: <br>icon-opacity: 1<br>icon-color: #7cb342<br>icon-scale: 1<br>icon-offset: [32,64]<br>icon-offset-units: [\"pixels\",\"insetPixels\"]<br>icon: https://www.gstatic.com/mapspro/images/stock/503-wht-blank_maps.png<br>Descripción: ORTEGA SABRINA SOLEDAD<br>VENTA ART DE LIMPIEZA-PERF-<br>FRANKLIN 197, Chascomús, Buenos Aires<br>Barrio: CENTRO<br>Padrón: A3-4420<br>Estado: SIN FECHA<br>RUBRO NORMALIZADO: VENTA ART DE LIMPIEZA"},"styleUrl":"#icon-1899-7CB342","label-scale":0,"icon-opacity":"1","icon-color":"#7cb342","icon-scale":"1","icon-offset":"[32,64]","icon-offset-units":"[\"pixels\",\"insetPixels\"]","icon":"https://www.gstatic.com/mapspro/images/stock/503-wht-blank_maps.png","descripción":"Descripción: ORTEGA SABRINA SOLEDAD\nVENTA ART DE LIMPIEZA-PERF-\nFRANKLIN 197, Chascomús, Buenos Aires\nBarrio: CENTRO\nPadrón: A3-4420\nEstado: SIN FECHA\nNOMBRE / COMERCIO: ORTEGA SABRINA SOLEDAD\nCUIT: 27-29522635-3\nCONTACTO: 2241534154\nCATEGORÍA FISCAL: MONOTRIBUTISTA C\nDIRECCIÓN: FRANKLIN 197, Chascomús, Buenos Aires\nBARRIO: CENTRO\nRUBRO: VENTA ART DE LIMPIEZA-PERF-\nRUBRO NORMALIZADO: VENTA ART DE LIMPIEZA\nCATEGORIA: OTROS SERVICIOS\nPADRÓN N°: A3-4420\nINSPECTOR/A: SOFIA- IRMA\nÚLTIMA VISITA: 2024-05-23\nVENC. HABILITACIÓN: NaT\nESTADO: SIN FECHA\nOBSERVACIONES: HABILITA VIGENTE 10-10-2026","NOMBRE / COMERCIO":"ORTEGA SABRINA SOLEDAD","CUIT":"27-29522635-3","CONTACTO":"2241534154","CATEGORÍA FISCAL":"MONOTRIBUTISTA C","DIRECCIÓN":"FRANKLIN 197","BARRIO":"CENTRO","RUBRO":"VENTA ART DE LIMPIEZA-PERF-","CATEGORIA":"OTROS SERVICIOS","PADRÓN N°":"A3-4420","INSPECTOR/A":"SOFIA- IRMA","ÚLTIMA VISITA":"2024-05-23","VENC. HABILITACIÓN":"10/10/2026","ESTADO":"VIGENTE","OBSERVACIONES":"HABILITA VIGENTE 10-10-2026","COORDENADAS":"","Descripción":"ORTEGA SABRINA SOLEDAD\nVENTA ART DE LIMPIEZA-PERF-\nFRANKLIN 197, Chascomús, Buenos Aires\nBarrio: CENTRO\nPadrón: A3-4420\nEstado: SIN FECHA","RUBRO NORMALIZADO":"VENTA ART DE LIMPIEZA"}},{"type":"Feature","geometry":{"type":"Point","coordinates":[-58.016933,-35.5578,0]},"properties":{"name":"VENTA DE ARTDE LIMP-COSMET","description":{"@type":"html","value":"descripción: Descripción: VETIGRASS LIMPIEZA Y PERF<br>VENTA DE ARTDE LIMP-COSMET<br>LIBRES DEL SUR 266, Chascomús, Buenos Aires<br>Barrio: CENTRO<br>Padrón: A3-2851<br>Estado: VENCIDA<br>NOMBRE / COMERCIO: VETIGRASS LIMPIEZA Y PERF<br>CUIT: 30-71212204-4<br>CONTACTO: 2241676674<br>CATEGORÍA FISCAL: SA<br>DIRECCIÓN: L DEL SUR 266<br>BARRIO: CENTRO<br>RUBRO: VENTA DE ARTDE LIMP-COSMET<br>RUBRO NORMALIZADO: VENTA DE ARTDE LIMP<br>CATEGORIA: OTROS SERVICIOS<br>PADRÓN N°: A3-2851<br>INSPECTOR/A: YANINA<br>ÚLTIMA VISITA: 2025-09-30<br>VENC. HABILITACIÓN: 20/10/2028<br>ESTADO: VIGENTE<br>OBSERVACIONES: SE ENCUENTRA APTO EN MEDIDAS DE SEGURIDAD SEGUN NORMATIA VIGENTE, MATAFUEGOS N°80216 VTO PH 9/28 VTO CARGA 9/26 N°80486 VENCE PH 9/28 VTO CARGA 8/26.<br>styleUrl: #icon-1899-7CB342<br>NOMBRE / COMERCIO: VETIGRASS LIMPIEZA Y PERF<br>CUIT: 30-71212204-4<br>CONTACTO: 2241676674<br>CATEGORÍA FISCAL: SA<br>DIRECCIÓN: L DEL SUR 266<br>BARRIO: CENTRO<br>RUBRO: VENTA DE ARTDE LIMP-COSMET<br>CATEGORIA: OTROS SERVICIOS<br>PADRÓN N°: A3-2851<br>INSPECTOR/A: YANINA<br>ÚLTIMA VISITA: 2025-09-30<br>VENC. HABILITACIÓN: 20/10/2028<br>ESTADO: VIGENTE<br>OBSERVACIONES: SE ENCUENTRA APTO EN MEDIDAS DE SEGURIDAD SEGUN NORMATIA VIGENTE, MATAFUEGOS N°80216 VTO PH 9/28 VTO CARGA 9/26 N°80486 VENCE PH 9/28 VTO CARGA 8/26.<br>COORDENADAS: <br>icon-opacity: 1<br>icon-color: #7cb342<br>icon-scale: 1<br>icon-offset: [32,64]<br>icon-offset-units: [\"pixels\",\"insetPixels\"]<br>icon: https://www.gstatic.com/mapspro/images/stock/503-wht-blank_maps.png<br>Descripción: VETIGRASS LIMPIEZA Y PERF<br>VENTA DE ARTDE LIMP-COSMET<br>LIBRES DEL SUR 266, Chascomús, Buenos Aires<br>Barrio: CENTRO<br>Padrón: A3-2851<br>Estado: VENCIDA<br>RUBRO NORMALIZADO: VENTA DE ARTDE LIMP"},"styleUrl":"#icon-1899-7CB342","label-scale":0,"icon-opacity":"1","icon-color":"#7cb342","icon-scale":"1","icon-offset":"[32,64]","icon-offset-units":"[\"pixels\",\"insetPixels\"]","icon":"https://www.gstatic.com/mapspro/images/stock/503-wht-blank_maps.png","descripción":"Descripción: VETIGRASS LIMPIEZA Y PERF\nVENTA DE ARTDE LIMP-COSMET\nLIBRES DEL SUR 266, Chascomús, Buenos Aires\nBarrio: CENTRO\nPadrón: A3-2851\nEstado: VENCIDA\nNOMBRE / COMERCIO: VETIGRASS LIMPIEZA Y PERF\nCUIT: 30-71212204-4\nCONTACTO: 2241676674\nCATEGORÍA FISCAL: SA\nDIRECCIÓN: LIBRES DEL SUR 266, Chascomús, Buenos Aires\nBARRIO: CENTRO\nRUBRO: VENTA DE ARTDE LIMP-COSMET\nRUBRO NORMALIZADO: VENTA DE ARTDE LIMP\nCATEGORIA: OTROS SERVICIOS\nPADRÓN N°: A3-2851\nINSPECTOR/A: YANINA\nÚLTIMA VISITA: 2025-09-30\nVENC. HABILITACIÓN: 2025-06-28\nESTADO: VENCIDA\nOBSERVACIONES: SE ENCUENTRA APTO EN MEDIDAS DE SEGURIDAD SEGUN NORMATIA VIGENTE, MATAFUEGOS N°80216 VTO PH 9/28 VTO CARGA 9/26 N°80486 VENCE PH 9/28 VTO CARGA 8/26.","NOMBRE / COMERCIO":"VETIGRASS LIMPIEZA Y PERF","CUIT":"30-71212204-4","CONTACTO":"2241676674","CATEGORÍA FISCAL":"SA","DIRECCIÓN":"L DEL SUR 266","BARRIO":"CENTRO","RUBRO":"VENTA DE ARTDE LIMP-COSMET","CATEGORIA":"OTROS SERVICIOS","PADRÓN N°":"A3-2851","INSPECTOR/A":"YANINA","ÚLTIMA VISITA":"2025-09-30","VENC. HABILITACIÓN":"20/10/2028","ESTADO":"VIGENTE","OBSERVACIONES":"SE ENCUENTRA APTO EN MEDIDAS DE SEGURIDAD SEGUN NORMATIA VIGENTE, MATAFUEGOS N°80216 VTO PH 9/28 VTO CARGA 9/26 N°80486 VENCE PH 9/28 VTO CARGA 8/26.","COORDENADAS":"","Descripción":"VETIGRASS LIMPIEZA Y PERF\nVENTA DE ARTDE LIMP-COSMET\nLIBRES DEL SUR 266, Chascomús, Buenos Aires\nBarrio: CENTRO\nPadrón: A3-2851\nEstado: VENCIDA","RUBRO NORMALIZADO":"VENTA DE ARTDE LIMP"}},{"type":"Feature","geometry":{"type":"Point","coordinates":[-58.011102,-35.563515,0]},"properties":{"name":"VENTA ARTICULOS LIMPIEZA","description":{"@type":"html","value":"descripción: Descripción: GARCIA AILEN MICAELA<br>VENTA ARTICULOS LIMPIEZA<br>YRIGOYEN 302, Chascomús, Buenos Aires<br>Barrio: EL HUECO<br>Padrón: A3-4518<br>Estado: VIGENTE<br>NOMBRE / COMERCIO: GARCIA AILEN MICAELA<br>CUIT: 27-41103963-9<br>CONTACTO: 2241527163<br>CATEGORÍA FISCAL: MONOTRIBUTISTA A<br>DIRECCIÓN: HIPÓLITO YRIGOYEN 302<br>BARRIO: EL HUECO<br>RUBRO: VENTA ARTICULOS LIMPIEZA<br>RUBRO NORMALIZADO: VENTA ARTICULOS LIMPIEZA<br>CATEGORIA: OTROS SERVICIOS<br>PADRÓN N°: A3-4518<br>INSPECTOR/A: YANINA<br>ÚLTIMA VISITA: 2025-05-28<br>VENC. HABILITACIÓN: 11/11/2027<br>ESTADO: VIGENTE<br>OBSERVACIONES: HABILITACION VTO 11/11/27<br>styleUrl: #icon-1899-C2185B<br>NOMBRE / COMERCIO: GARCIA AILEN MICAELA<br>CUIT: 27-41103963-9<br>CONTACTO: 2241527163<br>CATEGORÍA FISCAL: MONOTRIBUTISTA A<br>DIRECCIÓN: HIPÓLITO YRIGOYEN 302<br>BARRIO: EL HUECO<br>RUBRO: VENTA ARTICULOS LIMPIEZA<br>CATEGORIA: OTROS SERVICIOS<br>PADRÓN N°: A3-4518<br>INSPECTOR/A: YANINA<br>ÚLTIMA VISITA: 2025-05-28<br>VENC. HABILITACIÓN: 11/11/2027<br>ESTADO: VIGENTE<br>OBSERVACIONES: HABILITACION VTO 11/11/27<br>COORDENADAS: <br>icon-opacity: 1<br>icon-color: #c2185b<br>icon-scale: 1<br>icon-offset: [32,64]<br>icon-offset-units: [\"pixels\",\"insetPixels\"]<br>icon: https://www.gstatic.com/mapspro/images/stock/503-wht-blank_maps.png<br>Descripción: GARCIA AILEN MICAELA<br>VENTA ARTICULOS LIMPIEZA<br>YRIGOYEN 302, Chascomús, Buenos Aires<br>Barrio: EL HUECO<br>Padrón: A3-4518<br>Estado: VIGENTE<br>RUBRO NORMALIZADO: VENTA ARTICULOS LIMPIEZA"},"styleUrl":"#icon-1899-C2185B","label-scale":0,"icon-opacity":"1","icon-color":"#c2185b","icon-scale":"1","icon-offset":"[32,64]","icon-offset-units":"[\"pixels\",\"insetPixels\"]","icon":"https://www.gstatic.com/mapspro/images/stock/503-wht-blank_maps.png","descripción":"Descripción: GARCIA AILEN MICAELA\nVENTA ARTICULOS LIMPIEZA\nYRIGOYEN 302, Chascomús, Buenos Aires\nBarrio: EL HUECO\nPadrón: A3-4518\nEstado: VIGENTE\nNOMBRE / COMERCIO: GARCIA AILEN MICAELA\nCUIT: 27-41103963-9\nCONTACTO: 2241527163\nCATEGORÍA FISCAL: MONOTRIBUTISTA A\nDIRECCIÓN: YRIGOYEN 302, Chascomús, Buenos Aires\nBARRIO: EL HUECO\nRUBRO: VENTA ARTICULOS LIMPIEZA\nRUBRO NORMALIZADO: VENTA ARTICULOS LIMPIEZA\nCATEGORIA: OTROS SERVICIOS\nPADRÓN N°: A3-4518\nINSPECTOR/A: YANINA\nÚLTIMA VISITA: 2025-05-28\nVENC. HABILITACIÓN: 2027-11-11\nESTADO: VIGENTE\nOBSERVACIONES: HABILITACION VTO 11/11/27","NOMBRE / COMERCIO":"GARCIA AILEN MICAELA","CUIT":"27-41103963-9","CONTACTO":"2241527163","CATEGORÍA FISCAL":"MONOTRIBUTISTA A","DIRECCIÓN":"HIPÓLITO YRIGOYEN 302","BARRIO":"EL HUECO","RUBRO":"VENTA ARTICULOS LIMPIEZA","CATEGORIA":"OTROS SERVICIOS","PADRÓN N°":"A3-4518","INSPECTOR/A":"YANINA","ÚLTIMA VISITA":"2025-05-28","VENC. HABILITACIÓN":"11/11/2027","ESTADO":"VIGENTE","OBSERVACIONES":"HABILITACION VTO 11/11/27","COORDENADAS":"","Descripción":"GARCIA AILEN MICAELA\nVENTA ARTICULOS LIMPIEZA\nYRIGOYEN 302, Chascomús, Buenos Aires\nBarrio: EL HUECO\nPadrón: A3-4518\nEstado: VIGENTE","RUBRO NORMALIZADO":"VENTA ARTICULOS LIMPIEZA"}},{"type":"Feature","geometry":{"type":"Point","coordinates":[-57.987328,-35.570584,0]},"properties":{"name":"OFICINA ADMINSTRATIVA DE VENTA DE MEDIA","description":{"@type":"html","value":"descripción: Descripción: HYXAZAS SA<br>OFICINA ADMINSTRATIVA DE VENTA DE MEDIA<br>GARAY 200, Chascomús, Buenos Aires<br>Barrio: EL HUECO<br>Padrón: A3-4177<br>Estado: VIGENTE<br>NOMBRE / COMERCIO: HYXAZAS SA<br>CUIT: 30-70957907-6<br>CONTACTO: 2241561902<br>CATEGORÍA FISCAL: SA<br>DIRECCIÓN: GARAY 200<br>BARRIO: EL HUECO<br>RUBRO: OFICINA ADMINSTRATIVA DE VENTA DE MEDIA<br>RUBRO NORMALIZADO: OFICINA ADMINSTRATIVA DE VENTA DE MEDIA<br>CATEGORIA: OTROS SERVICIOS<br>PADRÓN N°: A3-4177<br>INSPECTOR/A: <br>ÚLTIMA VISITA: <br>VENC. HABILITACIÓN: 10/06/2028<br>ESTADO: VIGENTE<br>OBSERVACIONES: HABILIITACION EN VIGENCIA<br>styleUrl: #icon-1899-C2185B<br>NOMBRE / COMERCIO: HYXAZAS SA<br>CUIT: 30-70957907-6<br>CONTACTO: 2241561902<br>CATEGORÍA FISCAL: SA<br>DIRECCIÓN: GARAY 200<br>BARRIO: EL HUECO<br>RUBRO: OFICINA ADMINSTRATIVA DE VENTA DE MEDIA<br>CATEGORIA: OTROS SERVICIOS<br>PADRÓN N°: A3-4177<br>INSPECTOR/A: <br>ÚLTIMA VISITA: <br>VENC. HABILITACIÓN: 10/06/2028<br>ESTADO: VIGENTE<br>OBSERVACIONES: HABILIITACION EN VIGENCIA<br>COORDENADAS: <br>icon-opacity: 1<br>icon-color: #c2185b<br>icon-scale: 1<br>icon-offset: [32,64]<br>icon-offset-units: [\"pixels\",\"insetPixels\"]<br>icon: https://www.gstatic.com/mapspro/images/stock/503-wht-blank_maps.png<br>Descripción: HYXAZAS SA<br>OFICINA ADMINSTRATIVA DE VENTA DE MEDIA<br>GARAY 200, Chascomús, Buenos Aires<br>Barrio: EL HUECO<br>Padrón: A3-4177<br>Estado: VIGENTE<br>RUBRO NORMALIZADO: OFICINA ADMINSTRATIVA DE VENTA DE MEDIA"},"styleUrl":"#icon-1899-C2185B","label-scale":0,"icon-opacity":"1","icon-color":"#c2185b","icon-scale":"1","icon-offset":"[32,64]","icon-offset-units":"[\"pixels\",\"insetPixels\"]","icon":"https://www.gstatic.com/mapspro/images/stock/503-wht-blank_maps.png","descripción":"Descripción: HYXAZAS SA\nOFICINA ADMINSTRATIVA DE VENTA DE MEDIA\nGARAY 200, Chascomús, Buenos Aires\nBarrio: EL HUECO\nPadrón: A3-4177\nEstado: VIGENTE\nNOMBRE / COMERCIO: HYXAZAS SA\nCUIT: 30-70957907-6\nCONTACTO: 2241561902\nCATEGORÍA FISCAL: SA\nDIRECCIÓN: GARAY 200, Chascomús, Buenos Aires\nBARRIO: EL HUECO\nRUBRO: OFICINA ADMINSTRATIVA DE VENTA DE MEDIA\nRUBRO NORMALIZADO: OFICINA ADMINSTRATIVA DE VENTA DE MEDIA\nCATEGORIA: OTROS SERVICIOS\nPADRÓN N°: A3-4177\nINSPECTOR/A: \nÚLTIMA VISITA: NaT\nVENC. HABILITACIÓN: 2028-06-10\nESTADO: VIGENTE\nOBSERVACIONES: HABILIITACION EN VIGENCIA","NOMBRE / COMERCIO":"HYXAZAS SA","CUIT":"30-70957907-6","CONTACTO":"2241561902","CATEGORÍA FISCAL":"SA","DIRECCIÓN":"GARAY 200","BARRIO":"EL HUECO","RUBRO":"OFICINA ADMINSTRATIVA DE VENTA DE MEDIA","CATEGORIA":"OTROS SERVICIOS","PADRÓN N°":"A3-4177","INSPECTOR/A":"","ÚLTIMA VISITA":"NaT","VENC. HABILITACIÓN":"10/06/2028","ESTADO":"VIGENTE","OBSERVACIONES":"HABILIITACION EN VIGENCIA","COORDENADAS":"","Descripción":"HYXAZAS SA\nOFICINA ADMINSTRATIVA DE VENTA DE MEDIA\nGARAY 200, Chascomús, Buenos Aires\nBarrio: EL HUECO\nPadrón: A3-4177\nEstado: VIGENTE","RUBRO NORMALIZADO":"OFICINA ADMINSTRATIVA DE VENTA DE MEDIA"}},{"type":"Feature","geometry":{"type":"Point","coordinates":[-57.987328,-35.570584,0]},"properties":{"name":"VENTA DE ART LIMPIEZA","description":{"@type":"html","value":"descripción: Descripción: MAGARIÑOS CLAUDIO MARTIN<br>VENTA DE ART LIMPIEZA<br>GARAY 78, Chascomús, Buenos Aires<br>Barrio: EL HUECO<br>Padrón: A3-4534<br>Estado: SIN FECHA<br>NOMBRE / COMERCIO: MAGARIÑOS CLAUDIO MARTIN<br>CUIT: 20-22369557-5<br>CONTACTO: 2241580096<br>CATEGORÍA FISCAL: MONOTRIBUTISTA D<br>DIRECCIÓN: GARAY 78<br>BARRIO: EL HUECO<br>RUBRO: VENTA DE ART LIMPIEZA<br>RUBRO NORMALIZADO: VENTA DE ART LIMPIEZA<br>CATEGORIA: OTROS SERVICIOS<br>PADRÓN N°: A3-4534<br>INSPECTOR/A: YANINA<br>ÚLTIMA VISITA: 2025-05-07<br>VENC. HABILITACIÓN: 02/01/2028<br>ESTADO: VIGENTE<br>OBSERVACIONES: HABILITACION VTO 2/1/2028<br>styleUrl: #icon-1899-C2185B<br>NOMBRE / COMERCIO: MAGARIÑOS CLAUDIO MARTIN<br>CUIT: 20-22369557-5<br>CONTACTO: 2241580096<br>CATEGORÍA FISCAL: MONOTRIBUTISTA D<br>DIRECCIÓN: GARAY 78<br>BARRIO: EL HUECO<br>RUBRO: VENTA DE ART LIMPIEZA<br>CATEGORIA: OTROS SERVICIOS<br>PADRÓN N°: A3-4534<br>INSPECTOR/A: YANINA<br>ÚLTIMA VISITA: 2025-05-07<br>VENC. HABILITACIÓN: 02/01/2028<br>ESTADO: VIGENTE<br>OBSERVACIONES: HABILITACION VTO 2/1/2028<br>COORDENADAS: <br>icon-opacity: 1<br>icon-color: #c2185b<br>icon-scale: 1<br>icon-offset: [32,64]<br>icon-offset-units: [\"pixels\",\"insetPixels\"]<br>icon: https://www.gstatic.com/mapspro/images/stock/503-wht-blank_maps.png<br>Descripción: MAGARIÑOS CLAUDIO MARTIN<br>VENTA DE ART LIMPIEZA<br>GARAY 78, Chascomús, Buenos Aires<br>Barrio: EL HUECO<br>Padrón: A3-4534<br>Estado: SIN FECHA<br>RUBRO NORMALIZADO: VENTA DE ART LIMPIEZA"},"styleUrl":"#icon-1899-C2185B","label-scale":0,"icon-opacity":"1","icon-color":"#c2185b","icon-scale":"1","icon-offset":"[32,64]","icon-offset-units":"[\"pixels\",\"insetPixels\"]","icon":"https://www.gstatic.com/mapspro/images/stock/503-wht-blank_maps.png","descripción":"Descripción: MAGARIÑOS CLAUDIO MARTIN\nVENTA DE ART LIMPIEZA\nGARAY 78, Chascomús, Buenos Aires\nBarrio: EL HUECO\nPadrón: A3-4534\nEstado: SIN FECHA\nNOMBRE / COMERCIO: MAGARIÑOS CLAUDIO MARTIN\nCUIT: 20-22369557-5\nCONTACTO: 2241580096\nCATEGORÍA FISCAL: MONOTRIBUTISTA D\nDIRECCIÓN: GARAY 78, Chascomús, Buenos Aires\nBARRIO: EL HUECO\nRUBRO: VENTA DE ART LIMPIEZA\nRUBRO NORMALIZADO: VENTA DE ART LIMPIEZA\nCATEGORIA: OTROS SERVICIOS\nPADRÓN N°: A3-4534\nINSPECTOR/A: YANINA\nÚLTIMA VISITA: 2025-05-07\nVENC. HABILITACIÓN: NaT\nESTADO: SIN FECHA\nOBSERVACIONES: HABILITACION VTO 2/1/2028","NOMBRE / COMERCIO":"MAGARIÑOS CLAUDIO MARTIN","CUIT":"20-22369557-5","CONTACTO":"2241580096","CATEGORÍA FISCAL":"MONOTRIBUTISTA D","DIRECCIÓN":"GARAY 78","BARRIO":"EL HUECO","RUBRO":"VENTA DE ART LIMPIEZA","CATEGORIA":"OTROS SERVICIOS","PADRÓN N°":"A3-4534","INSPECTOR/A":"YANINA","ÚLTIMA VISITA":"2025-05-07","VENC. HABILITACIÓN":"02/01/2028","ESTADO":"VIGENTE","OBSERVACIONES":"HABILITACION VTO 2/1/2028","COORDENADAS":"","Descripción":"MAGARIÑOS CLAUDIO MARTIN\nVENTA DE ART LIMPIEZA\nGARAY 78, Chascomús, Buenos Aires\nBarrio: EL HUECO\nPadrón: A3-4534\nEstado: SIN FECHA","RUBRO NORMALIZADO":"VENTA DE ART LIMPIEZA"}},{"type":"Feature","geometry":{"type":"Point","coordinates":[-58.014514,-35.572751,0]},"properties":{"name":"KIOSKO-LIBRER-JUGUET-FOTOC","description":{"@type":"html","value":"descripción: Descripción: PRIANTE SOCIEDAD SIMPLE<br>KIOSKO-LIBRER-JUGUET-FOTOC<br>LIBRES DEL SUR 244, Chascomús, Buenos Aires<br>Barrio: CENTRO<br>Padrón: A4-0219<br>Estado: VENCIDA<br>NOMBRE / COMERCIO: PRIANTE SOCIEDAD SIMPLE<br>CUIT: 30-71537190-8<br>CONTACTO: 2241430131<br>CATEGORÍA FISCAL: SS<br>DIRECCIÓN: LIBRES  DEL SUR 244<br>BARRIO: CENTRO<br>RUBRO: KIOSKO-LIBRER-JUGUET-FOTOC<br>RUBRO NORMALIZADO: KIOSKO<br>CATEGORIA: KIOSCO Y LIBRERÍA<br>PADRÓN N°: A4-0219<br>INSPECTOR/A: SOFIA- IRMA<br>ÚLTIMA VISITA: 18567.0<br>VENC. HABILITACIÓN: 25/05/2025<br>ESTADO: VENCIDA<br>OBSERVACIONES: <br>styleUrl: #icon-1899-7CB342<br>NOMBRE / COMERCIO: PRIANTE SOCIEDAD SIMPLE<br>CUIT: 30-71537190-8<br>CONTACTO: 2241430131<br>CATEGORÍA FISCAL: SS<br>DIRECCIÓN: LIBRES  DEL SUR 244<br>BARRIO: CENTRO<br>RUBRO: KIOSKO-LIBRER-JUGUET-FOTOC<br>CATEGORIA: KIOSCO Y LIBRERÍA<br>PADRÓN N°: A4-0219<br>INSPECTOR/A: SOFIA- IRMA<br>ÚLTIMA VISITA: 18567.0<br>VENC. HABILITACIÓN: 25/05/2025<br>ESTADO: VENCIDA<br>OBSERVACIONES: <br>COORDENADAS: <br>icon-opacity: 1<br>icon-color: #7cb342<br>icon-scale: 1<br>icon-offset: [32,64]<br>icon-offset-units: [\"pixels\",\"insetPixels\"]<br>icon: https://www.gstatic.com/mapspro/images/stock/503-wht-blank_maps.png<br>Descripción: PRIANTE SOCIEDAD SIMPLE<br>KIOSKO-LIBRER-JUGUET-FOTOC<br>LIBRES DEL SUR 244, Chascomús, Buenos Aires<br>Barrio: CENTRO<br>Padrón: A4-0219<br>Estado: VENCIDA<br>RUBRO NORMALIZADO: KIOSKO"},"styleUrl":"#icon-1899-7CB342","label-scale":0,"icon-opacity":"1","icon-color":"#7cb342","icon-scale":"1","icon-offset":"[32,64]","icon-offset-units":"[\"pixels\",\"insetPixels\"]","icon":"https://www.gstatic.com/mapspro/images/stock/503-wht-blank_maps.png","descripción":"Descripción: PRIANTE SOCIEDAD SIMPLE\nKIOSKO-LIBRER-JUGUET-FOTOC\nLIBRES DEL SUR 244, Chascomús, Buenos Aires\nBarrio: CENTRO\nPadrón: A4-0219\nEstado: VENCIDA\nNOMBRE / COMERCIO: PRIANTE SOCIEDAD SIMPLE\nCUIT: 30-71537190-8\nCONTACTO: 2241430131\nCATEGORÍA FISCAL: SS\nDIRECCIÓN: LIBRES DEL SUR 244, Chascomús, Buenos Aires\nBARRIO: CENTRO\nRUBRO: KIOSKO-LIBRER-JUGUET-FOTOC\nRUBRO NORMALIZADO: KIOSKO\nCATEGORIA: KIOSCO Y LIBRERÍA\nPADRÓN N°: A4-0219\nINSPECTOR/A: YANINA\nÚLTIMA VISITA: 2025-09-15\nVENC. HABILITACIÓN: 2025-05-25\nESTADO: VENCIDA\nOBSERVACIONES: AL MOMENTO DE LA INSPECCION NO POSEE HABILITACION A LA VISTA, SE VOLVERA A PASAR EN PLAZO OTORGADO","NOMBRE / COMERCIO":"PRIANTE SOCIEDAD SIMPLE","CUIT":"30-71537190-8","CONTACTO":"2241430131","CATEGORÍA FISCAL":"SS","DIRECCIÓN":"LIBRES  DEL SUR 244","BARRIO":"CENTRO","RUBRO":"KIOSKO-LIBRER-JUGUET-FOTOC","CATEGORIA":"KIOSCO Y LIBRERÍA","PADRÓN N°":"A4-0219","INSPECTOR/A":"SOFIA- IRMA","ÚLTIMA VISITA":"18567.0","VENC. HABILITACIÓN":"25/05/2025","ESTADO":"VENCIDA","OBSERVACIONES":"AL MOMENTO DE LA INSPECCION NO POSEE HABILITACION A LA VISTA, SE VOLVERA A PASAR EN PLAZO OTORGADO","COORDENADAS":"","Descripción":"PRIANTE SOCIEDAD SIMPLE\nKIOSKO-LIBRER-JUGUET-FOTOC\nLIBRES DEL SUR 244, Chascomús, Buenos Aires\nBarrio: CENTRO\nPadrón: A4-0219\nEstado: VENCIDA","RUBRO NORMALIZADO":"KIOSKO"}},{"type":"Feature","geometry":{"type":"Point","coordinates":[-57.991966,-35.587152,0]},"properties":{"name":"VENTA DE ART DE PESCA","description":{"@type":"html","value":"descripción: PADRÓN N°: A3 3948<br><br>styleUrl: #icon-1899-0288D1<br>NOMBRE / COMERCIO: ZUPO MAXIMILIANO ARIEL<br>CUIT: 23272736669<br>CONTACTO: 2241578368<br>CATEGORÍA FISCAL: RESPONSABLE INSCRIPTO<br>DIRECCIÓN: MAGDALENA  641<br>BARRIO: ESTEBAN ECHEVERRIA<br>RUBRO: VENTA DE ART DE PESCA<br>CATEGORIA: OTROS SERVICIOS<br>PADRÓN N°: A3 3948<br>INSPECTOR/A: YANINA<br>ÚLTIMA VISITA: 2026-03-11<br>VENC. HABILITACIÓN: 10/01/2027<br>ESTADO: VIGENTE<br>OBSERVACIONES: <br>COORDENADAS: <br>icon-opacity: 1<br>icon-color: #0288d1<br>icon-scale: 1<br>icon-offset: [32,64]<br>icon-offset-units: [\"pixels\",\"insetPixels\"]<br>icon: https://www.gstatic.com/mapspro/images/stock/503-wht-blank_maps.png<br>Descripción: ZUPO MAXIMILIANO ARIEL<br>VENTA DE ART DE PESCA<br>MAGDALENA 641, Chascomús, Buenos Aires<br>Barrio: ESTEBAN ECHEVERRIA<br>Padrón: A3 3948<br>Estado: SIN FECHA<br>RUBRO NORMALIZADO: VENTA DE ART DE PESCA"},"styleUrl":"#icon-1899-0288D1","label-scale":0,"icon-opacity":"1","icon-color":"#0288d1","icon-scale":"1","icon-offset":"[32,64]","icon-offset-units":"[\"pixels\",\"insetPixels\"]","icon":"https://www.gstatic.com/mapspro/images/stock/503-wht-blank_maps.png","descripción":"PADRÓN N°: A3 3948\n","NOMBRE / COMERCIO":"ZUPO MAXIMILIANO ARIEL","CUIT":"23272736669","CONTACTO":"2241578368","CATEGORÍA FISCAL":"RESPONSABLE INSCRIPTO","DIRECCIÓN":"MAGDALENA  641","BARRIO":"ESTEBAN ECHEVERRIA","RUBRO":"VENTA DE ART DE PESCA","CATEGORIA":"OTROS SERVICIOS","PADRÓN N°":"A3 3948","INSPECTOR/A":"YANINA","ÚLTIMA VISITA":"2026-03-11","VENC. HABILITACIÓN":"10/01/2027","ESTADO":"VIGENTE","OBSERVACIONES":"","COORDENADAS":"","Descripción":"ZUPO MAXIMILIANO ARIEL\nVENTA DE ART DE PESCA\nMAGDALENA 641, Chascomús, Buenos Aires\nBarrio: ESTEBAN ECHEVERRIA\nPadrón: A3 3948\nEstado: SIN FECHA","RUBRO NORMALIZADO":"VENTA DE ART DE PESCA"}},{"type":"Feature","geometry":{"type":"Point","coordinates":[-58.00354,-35.576327,0]},"properties":{"name":"VENTA ART LIMPIEZA","description":{"@type":"html","value":"descripción: Descripción: CABRERA GUSTAVO ADOLFO<br>VENTA ART LIMPIEZA<br>AV ALFONSIN 750, Chascomús, Buenos Aires<br>Barrio: GALLO BLANCO<br>Padrón: A3-2507<br>Estado: SIN FECHA<br>NOMBRE / COMERCIO: CABRERA GUSTAVO ADOLFO<br>CUIT: 20-23005873-4<br>CONTACTO: 2241458804<br>CATEGORÍA FISCAL: MONOTRIBUTISTA B<br>DIRECCIÓN: AV PTE. ALFONSIN 750<br>BARRIO: GALLO BLANCO<br>RUBRO: VENTA ART LIMPIEZA<br>RUBRO NORMALIZADO: VENTA ART LIMPIEZA<br>CATEGORIA: OTROS SERVICIOS<br>PADRÓN N°: A3-2507<br>INSPECTOR/A: SOFIA- IRMA<br>ÚLTIMA VISITA: 2024-08-29<br>VENC. HABILITACIÓN: 19/03/2028<br>ESTADO: VIGENTE<br>OBSERVACIONES: HAB 18-03-2025<br>styleUrl: #icon-1899-3949AB<br>NOMBRE / COMERCIO: CABRERA GUSTAVO ADOLFO<br>CUIT: 20-23005873-4<br>CONTACTO: 2241458804<br>CATEGORÍA FISCAL: MONOTRIBUTISTA B<br>DIRECCIÓN: AV PTE. ALFONSIN 750<br>BARRIO: GALLO BLANCO<br>RUBRO: VENTA ART LIMPIEZA<br>CATEGORIA: OTROS SERVICIOS<br>PADRÓN N°: A3-2507<br>INSPECTOR/A: SOFIA- IRMA<br>ÚLTIMA VISITA: 2024-08-29<br>VENC. HABILITACIÓN: 19/03/2028<br>ESTADO: VIGENTE<br>OBSERVACIONES: HAB 18-03-2025<br>COORDENADAS: <br>icon-opacity: 1<br>icon-color: #3949ab<br>icon-scale: 1<br>icon-offset: [32,64]<br>icon-offset-units: [\"pixels\",\"insetPixels\"]<br>icon: https://www.gstatic.com/mapspro/images/stock/503-wht-blank_maps.png<br>Descripción: CABRERA GUSTAVO ADOLFO<br>VENTA ART LIMPIEZA<br>AV ALFONSIN 750, Chascomús, Buenos Aires<br>Barrio: GALLO BLANCO<br>Padrón: A3-2507<br>Estado: SIN FECHA<br>RUBRO NORMALIZADO: VENTA ART LIMPIEZA"},"styleUrl":"#icon-1899-3949AB","label-scale":0,"icon-opacity":"1","icon-color":"#3949ab","icon-scale":"1","icon-offset":"[32,64]","icon-offset-units":"[\"pixels\",\"insetPixels\"]","icon":"https://www.gstatic.com/mapspro/images/stock/503-wht-blank_maps.png","descripción":"Descripción: CABRERA GUSTAVO ADOLFO\nVENTA ART LIMPIEZA\nAV ALFONSIN 750, Chascomús, Buenos Aires\nBarrio: GALLO BLANCO\nPadrón: A3-2507\nEstado: SIN FECHA\nNOMBRE / COMERCIO: CABRERA GUSTAVO ADOLFO\nCUIT: 20-23005873-4\nCONTACTO: 2241458804\nCATEGORÍA FISCAL: MONOTRIBUTISTA B\nDIRECCIÓN: AV ALFONSIN 750, Chascomús, Buenos Aires\nBARRIO: GALLO BLANCO\nRUBRO: VENTA ART LIMPIEZA\nRUBRO NORMALIZADO: VENTA ART LIMPIEZA\nCATEGORIA: OTROS SERVICIOS\nPADRÓN N°: A3-2507\nINSPECTOR/A: SOFIA- IRMA\nÚLTIMA VISITA: 2024-08-29\nVENC. HABILITACIÓN: NaT\nESTADO: SIN FECHA\nOBSERVACIONES: HAB 18-03-2025","NOMBRE / COMERCIO":"CABRERA GUSTAVO ADOLFO","CUIT":"20-23005873-4","CONTACTO":"2241458804","CATEGORÍA FISCAL":"MONOTRIBUTISTA B","DIRECCIÓN":"AV PTE. ALFONSIN 750","BARRIO":"GALLO BLANCO","RUBRO":"VENTA ART LIMPIEZA","CATEGORIA":"OTROS SERVICIOS","PADRÓN N°":"A3-2507","INSPECTOR/A":"SOFIA- IRMA","ÚLTIMA VISITA":"2024-08-29","VENC. HABILITACIÓN":"19/03/2028","ESTADO":"VIGENTE","OBSERVACIONES":"HAB 18-03-2025","COORDENADAS":"","Descripción":"CABRERA GUSTAVO ADOLFO\nVENTA ART LIMPIEZA\nAV ALFONSIN 750, Chascomús, Buenos Aires\nBarrio: GALLO BLANCO\nPadrón: A3-2507\nEstado: SIN FECHA","RUBRO NORMALIZADO":"VENTA ART LIMPIEZA"}},{"type":"Feature","geometry":{"type":"Point","coordinates":[-58.014354,-35.577611,0]},"properties":{"name":"VENTA DE MADERAS","description":{"@type":"html","value":"descripción: Descripción: ZIMMERMAN EUGENIO<br>VENTA DE MADERAS<br>AV LASTRA 962, Chascomús, Buenos Aires<br>Barrio: GALLO BLANCO<br>Padrón: A4-0359<br>Estado: SIN FECHA<br>NOMBRE / COMERCIO: ZIMMERMAN EUGENIO<br>CUIT: 20-24401546-9<br>CONTACTO: 2241415705<br>CATEGORÍA FISCAL: MONOTRIBUTISTA B<br>DIRECCIÓN: AV LASTRA 962<br>BARRIO: GALLO BLANCO<br>RUBRO: VENTA DE MADERAS<br>RUBRO NORMALIZADO: VENTA DE MADERAS<br>CATEGORIA: OTROS SERVICIOS<br>PADRÓN N°: A4-0359<br>INSPECTOR/A: SOFIA- IRMA<br>ÚLTIMA VISITA: 2024-08-30<br>VENC. HABILITACIÓN: 30/06/2026<br>ESTADO: VIGENTE<br>OBSERVACIONES: HABILITACION 30-06-2025<br>styleUrl: #icon-1899-3949AB<br>NOMBRE / COMERCIO: ZIMMERMAN EUGENIO<br>CUIT: 20-24401546-9<br>CONTACTO: 2241415705<br>CATEGORÍA FISCAL: MONOTRIBUTISTA B<br>DIRECCIÓN: AV LASTRA 962<br>BARRIO: GALLO BLANCO<br>RUBRO: VENTA DE MADERAS<br>CATEGORIA: OTROS SERVICIOS<br>PADRÓN N°: A4-0359<br>INSPECTOR/A: SOFIA- IRMA<br>ÚLTIMA VISITA: 2024-08-30<br>VENC. HABILITACIÓN: 30/06/2026<br>ESTADO: VIGENTE<br>OBSERVACIONES: HABILITACION 30-06-2025<br>COORDENADAS: <br>icon-opacity: 1<br>icon-color: #3949ab<br>icon-scale: 1<br>icon-offset: [32,64]<br>icon-offset-units: [\"pixels\",\"insetPixels\"]<br>icon: https://www.gstatic.com/mapspro/images/stock/503-wht-blank_maps.png<br>Descripción: ZIMMERMAN EUGENIO<br>VENTA DE MADERAS<br>AV LASTRA 962, Chascomús, Buenos Aires<br>Barrio: GALLO BLANCO<br>Padrón: A4-0359<br>Estado: SIN FECHA<br>RUBRO NORMALIZADO: VENTA DE MADERAS"},"styleUrl":"#icon-1899-3949AB","label-scale":0,"icon-opacity":"1","icon-color":"#3949ab","icon-scale":"1","icon-offset":"[32,64]","icon-offset-units":"[\"pixels\",\"insetPixels\"]","icon":"https://www.gstatic.com/mapspro/images/stock/503-wht-blank_maps.png","descripción":"Descripción: ZIMMERMAN EUGENIO\nVENTA DE MADERAS\nAV LASTRA 962, Chascomús, Buenos Aires\nBarrio: GALLO BLANCO\nPadrón: A4-0359\nEstado: SIN FECHA\nNOMBRE / COMERCIO: ZIMMERMAN EUGENIO\nCUIT: 20-24401546-9\nCONTACTO: 2241415705\nCATEGORÍA FISCAL: MONOTRIBUTISTA B\nDIRECCIÓN: AV LASTRA 962, Chascomús, Buenos Aires\nBARRIO: GALLO BLANCO\nRUBRO: VENTA DE MADERAS\nRUBRO NORMALIZADO: VENTA DE MADERAS\nCATEGORIA: OTROS SERVICIOS\nPADRÓN N°: A4-0359\nINSPECTOR/A: SOFIA- IRMA\nÚLTIMA VISITA: 2024-08-30\nVENC. HABILITACIÓN: NaT\nESTADO: SIN FECHA\nOBSERVACIONES: HABILITACION 30-06-2025","NOMBRE / COMERCIO":"ZIMMERMAN EUGENIO","CUIT":"20-24401546-9","CONTACTO":"2241415705","CATEGORÍA FISCAL":"MONOTRIBUTISTA B","DIRECCIÓN":"AV LASTRA 962","BARRIO":"GALLO BLANCO","RUBRO":"VENTA DE MADERAS","CATEGORIA":"OTROS SERVICIOS","PADRÓN N°":"A4-0359","INSPECTOR/A":"SOFIA- IRMA","ÚLTIMA VISITA":"2024-08-30","VENC. HABILITACIÓN":"30/06/2026","ESTADO":"VIGENTE","OBSERVACIONES":"HABILITACION 30-06-2025","COORDENADAS":"","Descripción":"ZIMMERMAN EUGENIO\nVENTA DE MADERAS\nAV LASTRA 962, Chascomús, Buenos Aires\nBarrio: GALLO BLANCO\nPadrón: A4-0359\nEstado: SIN FECHA","RUBRO NORMALIZADO":"VENTA DE MADERAS"}},{"type":"Feature","geometry":{"type":"Point","coordinates":[-57.976443,-35.564438,0]},"properties":{"name":"REPARACION DE MOTOGUADAÑAS","description":{"@type":"html","value":"descripción: Descripción: VALSECCHI PABLO MARTIN<br>REPARACION DE MOTOGUADAÑAS<br>CASTELAR 155, Chascomús, Buenos Aires<br>Barrio: LA NORIA<br>Padrón: A3-4544<br>Estado: VIGENTE<br>NOMBRE / COMERCIO: VALSECCHI PABLO MARTIN<br>CUIT: 23-21845487-9<br>CONTACTO: 2241679907<br>CATEGORÍA FISCAL: MONOTRIBUTISTA A<br>DIRECCIÓN: CASTELAR 155<br>BARRIO: LA NORIA<br>RUBRO: REPARACION DE MOTOGUADAÑAS<br>RUBRO NORMALIZADO: REPARACION DE MOTOGUADAÑAS<br>CATEGORIA: OTROS SERVICIOS<br>PADRÓN N°: A3-4544<br>INSPECTOR/A: YANINA<br>ÚLTIMA VISITA: 2025-06-30<br>VENC. HABILITACIÓN: 20/01/2028<br>ESTADO: VIGENTE<br>OBSERVACIONES:<br>styleUrl: #icon-1899-F57C00<br>NOMBRE / COMERCIO: VALSECCHI PABLO MARTIN<br>CUIT: 23-21845487-9<br>CONTACTO: 2241679907<br>CATEGORÍA FISCAL: MONOTRIBUTISTA A<br>DIRECCIÓN: CASTELAR 155<br>BARRIO: LA NORIA<br>RUBRO: REPARACION DE MOTOGUADAÑAS<br>CATEGORIA: OTROS SERVICIOS<br>PADRÓN N°: A3-4544<br>INSPECTOR/A: YANINA<br>ÚLTIMA VISITA: 2025-06-30<br>VENC. HABILITACIÓN: 20/01/2028<br>ESTADO: VIGENTE<br>OBSERVACIONES: <br>COORDENADAS: <br>icon-opacity: 1<br>icon-color: #f57c00<br>icon-scale: 1<br>icon-offset: [32,64]<br>icon-offset-units: [\"pixels\",\"insetPixels\"]<br>icon: https://www.gstatic.com/mapspro/images/stock/503-wht-blank_maps.png<br>Descripción: VALSECCHI PABLO MARTIN<br>REPARACION DE MOTOGUADAÑAS<br>CASTELAR 155, Chascomús, Buenos Aires<br>Barrio: LA NORIA<br>Padrón: A3-4544<br>Estado: VIGENTE<br>RUBRO NORMALIZADO: REPARACION DE MOTOGUADAÑAS"},"styleUrl":"#icon-1899-F57C00","label-scale":0,"icon-opacity":"1","icon-color":"#f57c00","icon-scale":"1","icon-offset":"[32,64]","icon-offset-units":"[\"pixels\",\"insetPixels\"]","icon":"https://www.gstatic.com/mapspro/images/stock/503-wht-blank_maps.png","descripción":"Descripción: VALSECCHI PABLO MARTIN\nREPARACION DE MOTOGUADAÑAS\nCASTELAR 155, Chascomús, Buenos Aires\nBarrio: LA NORIA\nPadrón: A3-4544\nEstado: VIGENTE\nNOMBRE / COMERCIO: VALSECCHI PABLO MARTIN\nCUIT: 23-21845487-9\nCONTACTO: 2241679907\nCATEGORÍA FISCAL: MONOTRIBUTISTA A\nDIRECCIÓN: CASTELAR 155, Chascomús, Buenos Aires\nBARRIO: LA NORIA\nRUBRO: REPARACION DE MOTOGUADAÑAS\nRUBRO NORMALIZADO: REPARACION DE MOTOGUADAÑAS\nCATEGORIA: OTROS SERVICIOS\nPADRÓN N°: A3-4544\nINSPECTOR/A: YANINA\nÚLTIMA VISITA: 2025-06-30\nVENC. HABILITACIÓN: 2028-01-20\nESTADO: VIGENTE\nOBSERVACIONES:","NOMBRE / COMERCIO":"VALSECCHI PABLO MARTIN","CUIT":"23-21845487-9","CONTACTO":"2241679907","CATEGORÍA FISCAL":"MONOTRIBUTISTA A","DIRECCIÓN":"CASTELAR 155","BARRIO":"LA NORIA","RUBRO":"REPARACION DE MOTOGUADAÑAS","CATEGORIA":"OTROS SERVICIOS","PADRÓN N°":"A3-4544","INSPECTOR/A":"YANINA","ÚLTIMA VISITA":"2025-06-30","VENC. HABILITACIÓN":"20/01/2028","ESTADO":"VIGENTE","OBSERVACIONES":"","COORDENADAS":"","Descripción":"VALSECCHI PABLO MARTIN\nREPARACION DE MOTOGUADAÑAS\nCASTELAR 155, Chascomús, Buenos Aires\nBarrio: LA NORIA\nPadrón: A3-4544\nEstado: VIGENTE","RUBRO NORMALIZADO":"REPARACION DE MOTOGUADAÑAS"}},{"type":"Feature","geometry":{"type":"Point","coordinates":[-57.972866,-35.582017,0]},"properties":{"name":"CENTRO DE ALM TRANS DE ENVASES","description":{"@type":"html","value":"descripción: Descripción: ASOCIACION CIVIL  CAMPO LIMPIO SGE<br>CENTRO DE ALM TRANS DE ENVASES<br>RUTA 2 KM 119, Chascomús, Buenos Aires<br>Barrio: RUTA<br>Padrón: A5-0769<br>Estado: VENCIDA<br>NOMBRE / COMERCIO: ASOCIACION CIVIL \nCAMPO LIMPIO SGE<br>CAMPO LIMPIO SGE<br>CUIT: 30-71670142-1<br>CONTACTO: 1162446951<br>CATEGORÍA FISCAL: ASOCIACION<br>DIRECCIÓN: RUTA 2 KM 119<br>BARRIO: <br>RUBRO: CENTRO DE ALM TRANS DE ENVASES<br>RUBRO NORMALIZADO: CENTRO DE ALM TRANS DE ENVASES<br>CATEGORIA: OTROS SERVICIOS<br>PADRÓN N°: A5-0769<br>INSPECTOR/A: <br>ÚLTIMA VISITA: <br>VENC. HABILITACIÓN: 15/10/2024<br>ESTADO: VENCIDA<br>OBSERVACIONES: CANC DE DEUDA INMUEBLE Y NO CONFORME A PLANO<br>styleUrl: #icon-1899-097138<br>NOMBRE / COMERCIO: ASOCIACION CIVIL \nCAMPO LIMPIO SGE<br>CAMPO LIMPIO SGE<br>CUIT: 30-71670142-1<br>CONTACTO: 1162446951<br>CATEGORÍA FISCAL: ASOCIACION<br>DIRECCIÓN: RUTA 2 KM 119<br>BARRIO: <br>RUBRO: CENTRO DE ALM TRANS DE ENVASES<br>CATEGORIA: OTROS SERVICIOS<br>PADRÓN N°: A5-0769<br>INSPECTOR/A: <br>ÚLTIMA VISITA: <br>VENC. HABILITACIÓN: 15/10/2024<br>ESTADO: VENCIDA<br>OBSERVACIONES: CANC DE DEUDA INMUEBLE Y NO CONFORME A PLANO<br>COORDENADAS: <br>icon-opacity: 1<br>icon-color: #097138<br>icon-scale: 1<br>icon-offset: [32,64]<br>icon-offset-units: [\"pixels\",\"insetPixels\"]<br>icon: https://www.gstatic.com/mapspro/images/stock/503-wht-blank_maps.png<br>Descripción: ASOCIACION CIVIL  CAMPO LIMPIO SGE<br>CENTRO DE ALM TRANS DE ENVASES<br>RUTA 2 KM 119, Chascomús, Buenos Aires<br>Barrio: RUTA<br>Padrón: A5-0769<br>Estado: VENCIDA<br>RUBRO NORMALIZADO: CENTRO DE ALM TRANS DE ENVASES"},"styleUrl":"#icon-1899-097138","label-scale":0,"icon-opacity":"1","icon-color":"#097138","icon-scale":"1","icon-offset":"[32,64]","icon-offset-units":"[\"pixels\",\"insetPixels\"]","icon":"https://www.gstatic.com/mapspro/images/stock/503-wht-blank_maps.png","descripción":"Descripción: ASOCIACION CIVIL  CAMPO LIMPIO SGE\nCENTRO DE ALM TRANS DE ENVASES\nRUTA 2 KM 119, Chascomús, Buenos Aires\nBarrio: RUTA\nPadrón: A5-0769\nEstado: VENCIDA\nNOMBRE / COMERCIO: ASOCIACION CIVIL \nCAMPO LIMPIO SGE\nCUIT: 30-71670142-1\nCONTACTO: 1162446951\nCATEGORÍA FISCAL: ASOCIACION\nDIRECCIÓN: RUTA 2 KM 119, Chascomús, Buenos Aires\nBARRIO: RUTA\nRUBRO: CENTRO DE ALM TRANS DE ENVASES\nRUBRO NORMALIZADO: CENTRO DE ALM TRANS DE ENVASES\nCATEGORIA: OTROS SERVICIOS\nPADRÓN N°: A5-0769\nINSPECTOR/A: \nÚLTIMA VISITA: NaT\nVENC. HABILITACIÓN: 2024-10-15\nESTADO: VENCIDA\nOBSERVACIONES: CANC DE DEUDA INMUEBLE Y NO CONFORME A PLANO","NOMBRE / COMERCIO":"ASOCIACION CIVIL \nCAMPO LIMPIO SGE","CUIT":"30-71670142-1","CONTACTO":"1162446951","CATEGORÍA FISCAL":"ASOCIACION","DIRECCIÓN":"RUTA 2 KM 119","BARRIO":"RUTA","RUBRO":"CENTRO DE ALM TRANS DE ENVASES","CATEGORIA":"OTROS SERVICIOS","PADRÓN N°":"A5-0769","INSPECTOR/A":"","ÚLTIMA VISITA":"NaT","VENC. HABILITACIÓN":"15/10/2024","ESTADO":"VENCIDA","OBSERVACIONES":"CANC DE DEUDA INMUEBLE Y NO CONFORME A PLANO","COORDENADAS":"","Descripción":"ASOCIACION CIVIL  CAMPO LIMPIO SGE\nCENTRO DE ALM TRANS DE ENVASES\nRUTA 2 KM 119, Chascomús, Buenos Aires\nBarrio: RUTA\nPadrón: A5-0769\nEstado: VENCIDA","RUBRO NORMALIZADO":"CENTRO DE ALM TRANS DE ENVASES"}},{"type":"Feature","geometry":{"type":"Point","coordinates":[-57.972866,-35.582017,0]},"properties":{"name":"Producción de Alambres y Electrodos de soldadura.","description":{"@type":"html","value":"descripción: Descripción: Conarco Alambres y Soldaduras S.A.<br>Producción de Alambres y Electrodos de soldadura.<br>Ruta 2 Km 118, Chascomús, Buenos Aires<br>Barrio: RUTA<br>Padrón: B1-0010<br>Estado: VENCIDA<br>NOMBRE / COMERCIO: Conarco Alambres y Soldaduras S.A.<br>CUIT: 30-55825751-9<br>CONTACTO: 1122653270<br>CATEGORÍA FISCAL: SA<br>DIRECCIÓN: Ruta 2 Km 118<br>BARRIO: RUTA<br>RUBRO: Producción de Alambres y Electrodos de soldadura.<br>RUBRO NORMALIZADO: PRODUCCIÓN DE ALAMBRES Y ELECTRODOS DE SOLDADURA.<br>CATEGORIA: OTROS SERVICIOS<br>PADRÓN N°: B1-0010<br>INSPECTOR/A: YANINA<br>ÚLTIMA VISITA: 2026-01-23<br>VENC. HABILITACIÓN: 20/05/2028<br>ESTADO: VIGENTE<br>OBSERVACIONES: TRAMITANDO RENOVACION DE HABILITACION<br>styleUrl: #icon-1899-097138<br>NOMBRE / COMERCIO: Conarco Alambres y Soldaduras S.A.<br>CUIT: 30-55825751-9<br>CONTACTO: 1122653270<br>CATEGORÍA FISCAL: SA<br>DIRECCIÓN: Ruta 2 Km 118<br>BARRIO: RUTA<br>RUBRO: Producción de Alambres y Electrodos de soldadura.<br>CATEGORIA: OTROS SERVICIOS<br>PADRÓN N°: B1-0010<br>INSPECTOR/A: YANINA<br>ÚLTIMA VISITA: 2026-01-23<br>VENC. HABILITACIÓN: 20/05/2028<br>ESTADO: VIGENTE<br>OBSERVACIONES: TRAMITANDO RENOVACION DE HABILITACION<br>COORDENADAS: <br>icon-opacity: 1<br>icon-color: #097138<br>icon-scale: 1<br>icon-offset: [32,64]<br>icon-offset-units: [\"pixels\",\"insetPixels\"]<br>icon: https://www.gstatic.com/mapspro/images/stock/503-wht-blank_maps.png<br>Descripción: Conarco Alambres y Soldaduras S.A.<br>Producción de Alambres y Electrodos de soldadura.<br>Ruta 2 Km 118, Chascomús, Buenos Aires<br>Barrio: RUTA<br>Padrón: B1-0010<br>Estado: VENCIDA<br>RUBRO NORMALIZADO: PRODUCCIÓN DE ALAMBRES Y ELECTRODOS DE SOLDADURA."},"styleUrl":"#icon-1899-097138","label-scale":0,"icon-opacity":"1","icon-color":"#097138","icon-scale":"1","icon-offset":"[32,64]","icon-offset-units":"[\"pixels\",\"insetPixels\"]","icon":"https://www.gstatic.com/mapspro/images/stock/503-wht-blank_maps.png","descripción":"Descripción: Conarco Alambres y Soldaduras S.A.\nProducción de Alambres y Electrodos de soldadura.\nRuta 2 Km 118, Chascomús, Buenos Aires\nBarrio: RUTA\nPadrón: B1-0010\nEstado: VENCIDA\nNOMBRE / COMERCIO: Conarco Alambres y Soldaduras S.A.\nCUIT: 30-55825751-9\nCONTACTO: 1122653270\nCATEGORÍA FISCAL: SA\nDIRECCIÓN: Ruta 2 Km 118, Chascomús, Buenos Aires\nBARRIO: RUTA\nRUBRO: Producción de Alambres y Electrodos de soldadura.\nRUBRO NORMALIZADO: PRODUCCIÓN DE ALAMBRES Y ELECTRODOS DE SOLDADURA.\nCATEGORIA: OTROS SERVICIOS\nPADRÓN N°: B1-0010\nINSPECTOR/A: YANINA\nÚLTIMA VISITA: 2026-01-23\nVENC. HABILITACIÓN: 2026-01-10\nESTADO: VENCIDA\nOBSERVACIONES: TRAMITANDO RENOVACION DE HABILITACION","NOMBRE / COMERCIO":"Conarco Alambres y Soldaduras S.A.","CUIT":"30-55825751-9","CONTACTO":"1122653270","CATEGORÍA FISCAL":"SA","DIRECCIÓN":"Ruta 2 Km 118","BARRIO":"RUTA","RUBRO":"Producción de Alambres y Electrodos de soldadura.","CATEGORIA":"OTROS SERVICIOS","PADRÓN N°":"B1-0010","INSPECTOR/A":"YANINA","ÚLTIMA VISITA":"2026-01-23","VENC. HABILITACIÓN":"20/05/2028","ESTADO":"VIGENTE","OBSERVACIONES":"TRAMITANDO RENOVACION DE HABILITACION","COORDENADAS":"","Descripción":"Conarco Alambres y Soldaduras S.A.\nProducción de Alambres y Electrodos de soldadura.\nRuta 2 Km 118, Chascomús, Buenos Aires\nBarrio: RUTA\nPadrón: B1-0010\nEstado: VENCIDA","RUBRO NORMALIZADO":"PRODUCCIÓN DE ALAMBRES Y ELECTRODOS DE SOLDADURA."}},{"type":"Feature","geometry":{"type":"Point","coordinates":[-58.015969,-35.557822,0]},"properties":{"name":"VENTA DE ACC PARA AUTOS","description":{"@type":"html","value":"descripción: Descripción: ROJAS MARIANO<br>VENTA DE ACC PARA AUTOS<br>ALVEAR 529, Chascomús, Buenos Aires<br>Barrio: VILLA LUJAN<br>Padrón: A3-3127<br>Estado: VENCIDA<br>NOMBRE / COMERCIO: ROJAS MARIANO<br>CUIT: 20-25041753-6<br>CONTACTO: 2241445724<br>CATEGORÍA FISCAL: MONOTRIBUTISTA G<br>DIRECCIÓN: ALVEAR 529<br>BARRIO: VILLA LUJAN<br>RUBRO: VENTA DE ACC PARA AUTOS<br>RUBRO NORMALIZADO: VENTA DE ACC PARA AUTOS<br>CATEGORIA: OTROS SERVICIOS<br>PADRÓN N°: A3-3127<br>INSPECTOR/A: SOFIA- IRMA<br>ÚLTIMA VISITA: 2026-05-07<br>VENC. HABILITACIÓN: 10/10/2025<br>ESTADO: VENCIDA<br>OBSERVACIONES:<br>styleUrl: #icon-1899-1A237E<br>NOMBRE / COMERCIO: ROJAS MARIANO<br>CUIT: 20-25041753-6<br>CONTACTO: 2241445724<br>CATEGORÍA FISCAL: MONOTRIBUTISTA G<br>DIRECCIÓN: ALVEAR 529<br>BARRIO: VILLA LUJAN<br>RUBRO: VENTA DE ACC PARA AUTOS<br>CATEGORIA: OTROS SERVICIOS<br>PADRÓN N°: A3-3127<br>INSPECTOR/A: SOFIA- IRMA<br>ÚLTIMA VISITA: 2026-05-07<br>VENC. HABILITACIÓN: 10/10/2025<br>ESTADO: VENCIDA<br>OBSERVACIONES: <br>COORDENADAS: <br>icon-opacity: 1<br>icon-color: #1a237e<br>icon-scale: 1<br>icon-offset: [32,64]<br>icon-offset-units: [\"pixels\",\"insetPixels\"]<br>icon: https://www.gstatic.com/mapspro/images/stock/503-wht-blank_maps.png<br>Descripción: ROJAS MARIANO<br>VENTA DE ACC PARA AUTOS<br>ALVEAR 529, Chascomús, Buenos Aires<br>Barrio: VILLA LUJAN<br>Padrón: A3-3127<br>Estado: VENCIDA<br>RUBRO NORMALIZADO: VENTA DE ACC PARA AUTOS"},"styleUrl":"#icon-1899-1A237E","label-scale":0,"icon-opacity":"1","icon-color":"#1a237e","icon-scale":"1","icon-offset":"[32,64]","icon-offset-units":"[\"pixels\",\"insetPixels\"]","icon":"https://www.gstatic.com/mapspro/images/stock/503-wht-blank_maps.png","descripción":"Descripción: ROJAS MARIANO\nVENTA DE ACC PARA AUTOS\nALVEAR 529, Chascomús, Buenos Aires\nBarrio: VILLA LUJAN\nPadrón: A3-3127\nEstado: VENCIDA\nNOMBRE / COMERCIO: ROJAS MARIANO\nCUIT: 20-25041753-6\nCONTACTO: 2241445724\nCATEGORÍA FISCAL: MONOTRIBUTISTA G\nDIRECCIÓN: ALVEAR 529, Chascomús, Buenos Aires\nBARRIO: VILLA LUJAN\nRUBRO: VENTA DE ACC PARA AUTOS\nRUBRO NORMALIZADO: VENTA DE ACC PARA AUTOS\nCATEGORIA: OTROS SERVICIOS\nPADRÓN N°: A3-3127\nINSPECTOR/A: SOFIA- IRMA\nÚLTIMA VISITA: 2026-02-03\nVENC. HABILITACIÓN: 2025-10-10\nESTADO: VENCIDA\nOBSERVACIONES:","NOMBRE / COMERCIO":"ROJAS MARIANO","CUIT":"20-25041753-6","CONTACTO":"2241445724","CATEGORÍA FISCAL":"MONOTRIBUTISTA G","DIRECCIÓN":"ALVEAR 529","BARRIO":"VILLA LUJAN","RUBRO":"VENTA DE ACC PARA AUTOS","CATEGORIA":"OTROS SERVICIOS","PADRÓN N°":"A3-3127","INSPECTOR/A":"SOFIA- IRMA","ÚLTIMA VISITA":"2026-05-07","VENC. HABILITACIÓN":"10/10/2025","ESTADO":"VENCIDA","OBSERVACIONES":"","COORDENADAS":"","Descripción":"ROJAS MARIANO\nVENTA DE ACC PARA AUTOS\nALVEAR 529, Chascomús, Buenos Aires\nBarrio: VILLA LUJAN\nPadrón: A3-3127\nEstado: VENCIDA","RUBRO NORMALIZADO":"VENTA DE ACC PARA AUTOS"}},{"type":"Feature","geometry":{"type":"Point","coordinates":[-58.016933,-35.5578,0]},"properties":{"name":"SERV Y VENTA COMP Y ACC","description":{"@type":"html","value":"descripción: Descripción: LEULIET WALTER ARIEL<br>SERV Y VENTA COMP Y ACC<br>LIBRES DEL SUR 245, Chascomús, Buenos Aires<br>Barrio: CENTRO<br>Padrón: A4-0576<br>Estado: VIGENTE<br>NOMBRE / COMERCIO: LEULIET WALTER ARIEL<br>CUIT: 20-26074429-2<br>CONTACTO: 2241460514<br>CATEGORÍA FISCAL: RESPONSABLE INSCRIPTO<br>DIRECCIÓN: LIBRES DEL SUR 245<br>BARRIO: CENTRO<br>RUBRO: SERV Y VENTA COMP Y ACC<br>RUBRO NORMALIZADO: SERV Y VENTA COMP Y ACC<br>CATEGORIA: TECNOLOGÍA Y COMUNICACIONES<br>PADRÓN N°: A4-0576<br>INSPECTOR/A: SOFIA- IRMA<br>ÚLTIMA VISITA: 2025-09-15<br>VENC. HABILITACIÓN: 09/10/2028<br>ESTADO: VIGENTE<br>OBSERVACIONES: SE ENCUENTRA EN TRAMITE SE DEJA PLAZO PARA QUE CONTINUE<br>styleUrl: #icon-1899-7CB342<br>NOMBRE / COMERCIO: LEULIET WALTER ARIEL<br>CUIT: 20-26074429-2<br>CONTACTO: 2241460514<br>CATEGORÍA FISCAL: RESPONSABLE INSCRIPTO<br>DIRECCIÓN: LIBRES DEL SUR 245<br>BARRIO: CENTRO<br>RUBRO: SERV Y VENTA COMP Y ACC<br>CATEGORIA: TECNOLOGÍA Y COMUNICACIONES<br>PADRÓN N°: A4-0576<br>INSPECTOR/A: SOFIA- IRMA<br>ÚLTIMA VISITA: 2025-09-15<br>VENC. HABILITACIÓN: 09/10/2028<br>ESTADO: VIGENTE<br>OBSERVACIONES: SE ENCUENTRA EN TRAMITE SE DEJA PLAZO PARA QUE CONTINUE<br>COORDENADAS: <br>icon-opacity: 1<br>icon-color: #7cb342<br>icon-scale: 1<br>icon-offset: [32,64]<br>icon-offset-units: [\"pixels\",\"insetPixels\"]<br>icon: https://www.gstatic.com/mapspro/images/stock/503-wht-blank_maps.png<br>Descripción: LEULIET WALTER ARIEL<br>SERV Y VENTA COMP Y ACC<br>LIBRES DEL SUR 245, Chascomús, Buenos Aires<br>Barrio: CENTRO<br>Padrón: A4-0576<br>Estado: VIGENTE<br>RUBRO NORMALIZADO: SERV Y VENTA COMP Y ACC"},"styleUrl":"#icon-1899-7CB342","label-scale":0,"icon-opacity":"1","icon-color":"#7cb342","icon-scale":"1","icon-offset":"[32,64]","icon-offset-units":"[\"pixels\",\"insetPixels\"]","icon":"https://www.gstatic.com/mapspro/images/stock/503-wht-blank_maps.png","descripción":"Descripción: LEULIET WALTER ARIEL\nSERV Y VENTA COMP Y ACC\nLIBRES DEL SUR 245, Chascomús, Buenos Aires\nBarrio: CENTRO\nPadrón: A4-0576\nEstado: VIGENTE\nNOMBRE / COMERCIO: LEULIET WALTER ARIEL\nCUIT: 20-26074429-2\nCONTACTO: 2241460514\nCATEGORÍA FISCAL: RESPONSABLE INSCRIPTO\nDIRECCIÓN: LIBRES DEL SUR 245, Chascomús, Buenos Aires\nBARRIO: CENTRO\nRUBRO: SERV Y VENTA COMP Y ACC\nRUBRO NORMALIZADO: SERV Y VENTA COMP Y ACC\nCATEGORIA: TECNOLOGÍA Y COMUNICACIONES\nPADRÓN N°: A4-0576\nINSPECTOR/A: SOFIA- IRMA\nÚLTIMA VISITA: 2025-09-15\nVENC. HABILITACIÓN: 2028-10-09\nESTADO: VIGENTE\nOBSERVACIONES: SE ENCUENTRA EN TRAMITE SE DEJA PLAZO PARA QUE CONTINUE","NOMBRE / COMERCIO":"LEULIET WALTER ARIEL","CUIT":"20-26074429-2","CONTACTO":"2241460514","CATEGORÍA FISCAL":"RESPONSABLE INSCRIPTO","DIRECCIÓN":"LIBRES DEL SUR 245","BARRIO":"CENTRO","RUBRO":"SERV Y VENTA COMP Y ACC","CATEGORIA":"TECNOLOGÍA Y COMUNICACIONES","PADRÓN N°":"A4-0576","INSPECTOR/A":"SOFIA- IRMA","ÚLTIMA VISITA":"2025-09-15","VENC. HABILITACIÓN":"09/10/2028","ESTADO":"VIGENTE","OBSERVACIONES":"SE ENCUENTRA EN TRAMITE SE DEJA PLAZO PARA QUE CONTINUE","COORDENADAS":"","Descripción":"LEULIET WALTER ARIEL\nSERV Y VENTA COMP Y ACC\nLIBRES DEL SUR 245, Chascomús, Buenos Aires\nBarrio: CENTRO\nPadrón: A4-0576\nEstado: VIGENTE","RUBRO NORMALIZADO":"SERV Y VENTA COMP Y ACC"}}]}