{"type":"FeatureCollection","features":[{"type":"Feature","geometry":{"type":"Point","coordinates":[-58.013313,-35.572797,0]},"properties":{"name":"COPIAR/FOTOC-LIBRERÍA","description":{"@type":"html","value":"descripción: Descripción: GERLOTTI CRISTINA<br>COPIAR/FOTOC-LIBRERÍA<br>ALVEAR 126, Chascomús, Buenos Aires<br>Barrio: CENTRO<br>Padrón: A3-1250<br>Estado: VIGENTE<br>NOMBRE / COMERCIO: GERLOTTI CRISTINA<br>CUIT: 27-14517192-5<br>CONTACTO: 2241412077<br>CATEGORÍA FISCAL: RESPONSABLE INSCRIPTO<br>DIRECCIÓN: ALVEAR 126<br>BARRIO: CENTRO<br>RUBRO: COPIAR/FOTOC-LIBRERÍA<br>RUBRO NORMALIZADO: COPIAR<br>CATEGORIA: KIOSCO Y LIBRERÍA<br>PADRÓN N°: A3-1250<br>INSPECTOR/A: SOFIA- IRMA<br>ÚLTIMA VISITA: 2025-08-28<br>VENC. HABILITACIÓN: 27/05/2028<br>ESTADO: VIGENTE<br>OBSERVACIONES: EQUIPO N°059055 VTO 6/26<br>styleUrl: #icon-1899-7CB342<br>icon-opacity: 1<br>icon-color: #7cb342<br>icon-scale: 1<br>icon-offset: [32,64]<br>icon-offset-units: [\"pixels\",\"insetPixels\"]<br>icon: https://www.gstatic.com/mapspro/images/stock/503-wht-blank_maps.png<br>Descripción: GERLOTTI CRISTINA<br>COPIAR/FOTOC-LIBRERÍA<br>ALVEAR 126, Chascomús, Buenos Aires<br>Barrio: CENTRO<br>Padrón: A3-1250<br>Estado: VIGENTE<br>NOMBRE / COMERCIO: GERLOTTI CRISTINA<br>CUIT: 27-14517192-5<br>CONTACTO: 2241412077<br>CATEGORÍA FISCAL: RESPONSABLE INSCRIPTO<br>DIRECCIÓN: ALVEAR 126<br>BARRIO: CENTRO<br>RUBRO: COPIAR/FOTOC-LIBRERÍA<br>RUBRO NORMALIZADO: COPIAR<br>CATEGORIA: KIOSCO Y LIBRERÍA<br>PADRÓN N°: A3-1250<br>INSPECTOR/A: SOFIA- IRMA<br>ÚLTIMA VISITA: 2025-08-28<br>VENC. HABILITACIÓN: 27/05/2028<br>ESTADO: VIGENTE<br>OBSERVACIONES: EQUIPO N°059055 VTO 6/26"},"styleUrl":"#icon-1899-7CB342","descripción":"Descripción: GERLOTTI CRISTINA\nCOPIAR/FOTOC-LIBRERÍA\nALVEAR 126, Chascomús, Buenos Aires\nBarrio: CENTRO\nPadrón: A3-1250\nEstado: VIGENTE\nNOMBRE / COMERCIO: GERLOTTI CRISTINA\nCUIT: 27-14517192-5\nCONTACTO: 2241412077\nCATEGORÍA FISCAL: RESPONSABLE INSCRIPTO\nDIRECCIÓN: ALVEAR 126, Chascomús, Buenos Aires\nBARRIO: CENTRO\nRUBRO: COPIAR/FOTOC-LIBRERÍA\nRUBRO NORMALIZADO: COPIAR\nCATEGORIA: KIOSCO Y LIBRERÍA\nPADRÓN N°: A3-1250\nINSPECTOR/A: SOFIA- IRMA\nÚLTIMA VISITA: 2025-08-28\nVENC. HABILITACIÓN: 2028-05-27\nESTADO: VIGENTE\nOBSERVACIONES: EQUIPO N°059055 VTO 6/26","icon-opacity":"1","icon-color":"#7cb342","icon-scale":"1","icon-offset":"[32,64]","icon-offset-units":"[\"pixels\",\"insetPixels\"]","icon":"https://www.gstatic.com/mapspro/images/stock/503-wht-blank_maps.png","Descripción":"GERLOTTI CRISTINA\nCOPIAR/FOTOC-LIBRERÍA\nALVEAR 126, Chascomús, Buenos Aires\nBarrio: CENTRO\nPadrón: A3-1250\nEstado: VIGENTE","NOMBRE / COMERCIO":"GERLOTTI CRISTINA","CUIT":"27-14517192-5","CONTACTO":"2241412077","CATEGORÍA FISCAL":"RESPONSABLE INSCRIPTO","DIRECCIÓN":"ALVEAR 126","BARRIO":"CENTRO","RUBRO":"COPIAR/FOTOC-LIBRERÍA","RUBRO NORMALIZADO":"COPIAR","CATEGORIA":"KIOSCO Y LIBRERÍA","PADRÓN N°":"A3-1250","INSPECTOR/A":"SOFIA- IRMA","ÚLTIMA VISITA":"2025-08-28","VENC. HABILITACIÓN":"27/05/2028","ESTADO":"VIGENTE","OBSERVACIONES":"EQUIPO N°059055 VTO 6/26"}},{"type":"Feature","geometry":{"type":"Point","coordinates":[-58.014757,-35.57869,0]},"properties":{"name":"MIT COMPUTACION","description":{"@type":"html","value":"descripción: Descripción: TRAVERSO LUCIANO/MIT COMPUTACION<br>MIT COMPUTACION<br>CRAMER 201, Chascomús, Buenos Aires<br>Barrio: CENTRO<br>Padrón: A4-0739<br>Estado: VIGENTE<br>NOMBRE / COMERCIO: TRAVERSO LUCIANO/MIT COMPUTACION<br>CUIT: 20-30729062-7<br>CONTACTO: 2241552439<br>CATEGORÍA FISCAL: MONOTRIBUTISTA E<br>DIRECCIÓN: CRAMER 201<br>BARRIO: CENTRO<br>RUBRO: MIT COMPUTACION<br>RUBRO NORMALIZADO: MIT COMPUTACION<br>CATEGORIA: TECNOLOGÍA Y COMUNICACIONES<br>PADRÓN N°: A4-0739<br>INSPECTOR/A: SOFIA- IRMA<br>ÚLTIMA VISITA: 2025-12-29<br>VENC. HABILITACIÓN: 20/05/2027<br>ESTADO: VIGENTE<br>OBSERVACIONES: POSEE HABILITACION COMERCIAL CON FECHA 20/5/27<br>styleUrl: #icon-1899-7CB342<br>icon-opacity: 1<br>icon-color: #7cb342<br>icon-scale: 1<br>icon-offset: [32,64]<br>icon-offset-units: [\"pixels\",\"insetPixels\"]<br>icon: https://www.gstatic.com/mapspro/images/stock/503-wht-blank_maps.png<br>Descripción: TRAVERSO LUCIANO/MIT COMPUTACION<br>MIT COMPUTACION<br>CRAMER 201, Chascomús, Buenos Aires<br>Barrio: CENTRO<br>Padrón: A4-0739<br>Estado: VIGENTE<br>NOMBRE / COMERCIO: TRAVERSO LUCIANO/MIT COMPUTACION<br>CUIT: 20-30729062-7<br>CONTACTO: 2241552439<br>CATEGORÍA FISCAL: MONOTRIBUTISTA E<br>DIRECCIÓN: CRAMER 201<br>BARRIO: CENTRO<br>RUBRO: MIT COMPUTACION<br>RUBRO NORMALIZADO: MIT COMPUTACION<br>CATEGORIA: TECNOLOGÍA Y COMUNICACIONES<br>PADRÓN N°: A4-0739<br>INSPECTOR/A: SOFIA- IRMA<br>ÚLTIMA VISITA: 2025-12-29<br>VENC. HABILITACIÓN: 20/05/2027<br>ESTADO: VIGENTE<br>OBSERVACIONES: POSEE HABILITACION COMERCIAL CON FECHA 20/5/27"},"styleUrl":"#icon-1899-7CB342","descripción":"Descripción: TRAVERSO LUCIANO/MIT COMPUTACION\nMIT COMPUTACION\nCRAMER 201, Chascomús, Buenos Aires\nBarrio: CENTRO\nPadrón: A4-0739\nEstado: VIGENTE\nNOMBRE / COMERCIO: TRAVERSO LUCIANO/MIT COMPUTACION\nCUIT: 20-30729062-7\nCONTACTO: 2241552439\nCATEGORÍA FISCAL: MONOTRIBUTISTA E\nDIRECCIÓN: CRAMER 201, Chascomús, Buenos Aires\nBARRIO: CENTRO\nRUBRO: MIT COMPUTACION\nRUBRO NORMALIZADO: MIT COMPUTACION\nCATEGORIA: TECNOLOGÍA Y COMUNICACIONES\nPADRÓN N°: A4-0739\nINSPECTOR/A: SOFIA- IRMA\nÚLTIMA VISITA: 2025-12-29\nVENC. HABILITACIÓN: 2027-05-20\nESTADO: VIGENTE\nOBSERVACIONES: POSEE HABILITACION COMERCIAL CON FECHA 20/5/27","icon-opacity":"1","icon-color":"#7cb342","icon-scale":"1","icon-offset":"[32,64]","icon-offset-units":"[\"pixels\",\"insetPixels\"]","icon":"https://www.gstatic.com/mapspro/images/stock/503-wht-blank_maps.png","Descripción":"TRAVERSO LUCIANO/MIT COMPUTACION\nMIT COMPUTACION\nCRAMER 201, Chascomús, Buenos Aires\nBarrio: CENTRO\nPadrón: A4-0739\nEstado: VIGENTE","NOMBRE / COMERCIO":"TRAVERSO LUCIANO/MIT COMPUTACION","CUIT":"20-30729062-7","CONTACTO":"2241552439","CATEGORÍA FISCAL":"MONOTRIBUTISTA E","DIRECCIÓN":"CRAMER 201","BARRIO":"CENTRO","RUBRO":"MIT COMPUTACION","RUBRO NORMALIZADO":"MIT COMPUTACION","CATEGORIA":"TECNOLOGÍA Y COMUNICACIONES","PADRÓN N°":"A4-0739","INSPECTOR/A":"SOFIA- IRMA","ÚLTIMA VISITA":"2025-12-29","VENC. HABILITACIÓN":"20/05/2027","ESTADO":"VIGENTE","OBSERVACIONES":"POSEE HABILITACION COMERCIAL CON FECHA 20/5/27"}},{"type":"Feature","geometry":{"type":"Point","coordinates":[-58.014514,-35.572751,0]},"properties":{"name":"KIOSKO-LIBRER-JUGUET-FOTOC","description":{"@type":"html","value":"descripción: Descripción: PRIANTE SOCIEDAD SIMPLE<br>KIOSKO-LIBRER-JUGUET-FOTOC<br>LIBRES DEL SUR 244, Chascomús, Buenos Aires<br>Barrio: CENTRO<br>Padrón: A4-0219<br>Estado: VENCIDA<br>NOMBRE / COMERCIO: PRIANTE SOCIEDAD SIMPLE<br>CUIT: 30-71537190-8<br>CONTACTO: 2241430131<br>CATEGORÍA FISCAL: SS<br>DIRECCIÓN: LIBRES  DEL SUR 244<br>BARRIO: CENTRO<br>RUBRO: KIOSKO-LIBRER-JUGUET-FOTOC<br>RUBRO NORMALIZADO: KIOSKO<br>CATEGORIA: KIOSCO Y LIBRERÍA<br>PADRÓN N°: A4-0219<br>INSPECTOR/A: SOFIA- IRMA<br>ÚLTIMA VISITA: 18567.0<br>VENC. HABILITACIÓN: 25/05/2025<br>ESTADO: VENCIDA<br>OBSERVACIONES: <br>styleUrl: #icon-1899-7CB342<br>icon-opacity: 1<br>icon-color: #7cb342<br>icon-scale: 1<br>icon-offset: [32,64]<br>icon-offset-units: [\"pixels\",\"insetPixels\"]<br>icon: https://www.gstatic.com/mapspro/images/stock/503-wht-blank_maps.png<br>Descripción: PRIANTE SOCIEDAD SIMPLE<br>KIOSKO-LIBRER-JUGUET-FOTOC<br>LIBRES DEL SUR 244, Chascomús, Buenos Aires<br>Barrio: CENTRO<br>Padrón: A4-0219<br>Estado: VENCIDA<br>NOMBRE / COMERCIO: PRIANTE SOCIEDAD SIMPLE<br>CUIT: 30-71537190-8<br>CONTACTO: 2241430131<br>CATEGORÍA FISCAL: SS<br>DIRECCIÓN: LIBRES  DEL SUR 244<br>BARRIO: CENTRO<br>RUBRO: KIOSKO-LIBRER-JUGUET-FOTOC<br>RUBRO NORMALIZADO: KIOSKO<br>CATEGORIA: KIOSCO Y LIBRERÍA<br>PADRÓN N°: A4-0219<br>INSPECTOR/A: SOFIA- IRMA<br>ÚLTIMA VISITA: 18567.0<br>VENC. HABILITACIÓN: 25/05/2025<br>ESTADO: VENCIDA<br>OBSERVACIONES: AL MOMENTO DE LA INSPECCION NO POSEE HABILITACION A LA VISTA, SE VOLVERA A PASAR EN PLAZO OTORGADO"},"styleUrl":"#icon-1899-7CB342","label-scale":0,"icon-opacity":"1","icon-color":"#7cb342","icon-scale":"1","icon-offset":"[32,64]","icon-offset-units":"[\"pixels\",\"insetPixels\"]","icon":"https://www.gstatic.com/mapspro/images/stock/503-wht-blank_maps.png","descripción":"Descripción: PRIANTE SOCIEDAD SIMPLE\nKIOSKO-LIBRER-JUGUET-FOTOC\nLIBRES DEL SUR 244, Chascomús, Buenos Aires\nBarrio: CENTRO\nPadrón: A4-0219\nEstado: VENCIDA\nNOMBRE / COMERCIO: PRIANTE SOCIEDAD SIMPLE\nCUIT: 30-71537190-8\nCONTACTO: 2241430131\nCATEGORÍA FISCAL: SS\nDIRECCIÓN: LIBRES DEL SUR 244, Chascomús, Buenos Aires\nBARRIO: CENTRO\nRUBRO: KIOSKO-LIBRER-JUGUET-FOTOC\nRUBRO NORMALIZADO: KIOSKO\nCATEGORIA: KIOSCO Y LIBRERÍA\nPADRÓN N°: A4-0219\nINSPECTOR/A: YANINA\nÚLTIMA VISITA: 2025-09-15\nVENC. HABILITACIÓN: 2025-05-25\nESTADO: VENCIDA\nOBSERVACIONES: AL MOMENTO DE LA INSPECCION NO POSEE HABILITACION A LA VISTA, SE VOLVERA A PASAR EN PLAZO OTORGADO","Descripción":"PRIANTE SOCIEDAD SIMPLE\nKIOSKO-LIBRER-JUGUET-FOTOC\nLIBRES DEL SUR 244, Chascomús, Buenos Aires\nBarrio: CENTRO\nPadrón: A4-0219\nEstado: VENCIDA","NOMBRE / COMERCIO":"PRIANTE SOCIEDAD SIMPLE","CUIT":"30-71537190-8","CONTACTO":"2241430131","CATEGORÍA FISCAL":"SS","DIRECCIÓN":"LIBRES  DEL SUR 244","BARRIO":"CENTRO","RUBRO":"KIOSKO-LIBRER-JUGUET-FOTOC","RUBRO NORMALIZADO":"KIOSKO","CATEGORIA":"KIOSCO Y LIBRERÍA","PADRÓN N°":"A4-0219","INSPECTOR/A":"SOFIA- IRMA","ÚLTIMA VISITA":"18567.0","VENC. HABILITACIÓN":"25/05/2025","ESTADO":"VENCIDA","OBSERVACIONES":"AL MOMENTO DE LA INSPECCION NO POSEE HABILITACION A LA VISTA, SE VOLVERA A PASAR EN PLAZO OTORGADO"}},{"type":"Feature","geometry":{"type":"Point","coordinates":[-58.014514,-35.572751,0]},"properties":{"name":"VENTA DE PILETAS","description":{"@type":"html","value":"descripción: Descripción: CARIBBEAN S.R.L<br>VENTA DE PILETAS<br>LIBRES DEL SUR 706, Chascomús, Buenos Aires<br>Barrio: BARRIO JARDIN<br>Padrón: A3-3634<br>Estado: VENCIDA<br>NOMBRE / COMERCIO: CARIBBEAN S.R.L<br>CUIT: 30-71534164-2<br>CONTACTO: 430719<br>CATEGORÍA FISCAL: SRL<br>DIRECCIÓN: LIBRES DEL SUR 7063<br>BARRIO: BARRIO JARDIN<br>RUBRO: VENTA DE PILETAS<br>RUBRO NORMALIZADO: VENTA DE PILETAS<br>CATEGORIA: OTROS SERVICIOS<br>PADRÓN N°: A3-3634<br>INSPECTOR/A: <br>ÚLTIMA VISITA: <br>VENC. HABILITACIÓN: 10/09/2026<br>ESTADO: VIGENTE<br>OBSERVACIONES: SUJETA A PRESENTACION DE PLANOS<br>styleUrl: #icon-1899-795548<br>icon-opacity: 1<br>icon-color: #795548<br>icon-scale: 1<br>icon-offset: [32,64]<br>icon-offset-units: [\"pixels\",\"insetPixels\"]<br>icon: https://www.gstatic.com/mapspro/images/stock/503-wht-blank_maps.png<br>Descripción: CARIBBEAN S.R.L<br>VENTA DE PILETAS<br>LIBRES DEL SUR 706, Chascomús, Buenos Aires<br>Barrio: BARRIO JARDIN<br>Padrón: A3-3634<br>Estado: VENCIDA<br>NOMBRE / COMERCIO: CARIBBEAN S.R.L<br>CUIT: 30-71534164-2<br>CONTACTO: 430719<br>CATEGORÍA FISCAL: SRL<br>DIRECCIÓN: LIBRES DEL SUR 7063<br>BARRIO: BARRIO JARDIN<br>RUBRO: VENTA DE PILETAS<br>RUBRO NORMALIZADO: VENTA DE PILETAS<br>CATEGORIA: OTROS SERVICIOS<br>PADRÓN N°: A3-3634<br>INSPECTOR/A: <br>ÚLTIMA VISITA: <br>VENC. HABILITACIÓN: 10/09/2026<br>ESTADO: VIGENTE<br>OBSERVACIONES: SUJETA A PRESENTACION DE PLANOS"},"styleUrl":"#icon-1899-795548","descripción":"Descripción: CARIBBEAN S.R.L\nVENTA DE PILETAS\nLIBRES DEL SUR 706, Chascomús, Buenos Aires\nBarrio: BARRIO JARDIN\nPadrón: A3-3634\nEstado: VENCIDA\nNOMBRE / COMERCIO: CARIBBEAN S.R.L\nCUIT: 30-71534164-2\nCONTACTO: 430719\nCATEGORÍA FISCAL: SRL\nDIRECCIÓN: LIBRES DEL SUR 706, Chascomús, Buenos Aires\nBARRIO: BARRIO JARDIN\nRUBRO: VENTA DE PILETAS\nRUBRO NORMALIZADO: VENTA DE PILETAS\nCATEGORIA: OTROS SERVICIOS\nPADRÓN N°: A3-3634\nINSPECTOR/A: \nÚLTIMA VISITA: NaT\nVENC. HABILITACIÓN: 2025-11-10\nESTADO: VENCIDA\nOBSERVACIONES: SUJETA A PRESENTACION DE PLANOS","icon-opacity":"1","icon-color":"#795548","icon-scale":"1","icon-offset":"[32,64]","icon-offset-units":"[\"pixels\",\"insetPixels\"]","icon":"https://www.gstatic.com/mapspro/images/stock/503-wht-blank_maps.png","Descripción":"CARIBBEAN S.R.L\nVENTA DE PILETAS\nLIBRES DEL SUR 706, Chascomús, Buenos Aires\nBarrio: BARRIO JARDIN\nPadrón: A3-3634\nEstado: VENCIDA","NOMBRE / COMERCIO":"CARIBBEAN S.R.L","CUIT":"30-71534164-2","CONTACTO":"430719","CATEGORÍA FISCAL":"SRL","DIRECCIÓN":"LIBRES DEL SUR 7063","BARRIO":"BARRIO JARDIN","RUBRO":"VENTA DE PILETAS","RUBRO NORMALIZADO":"VENTA DE PILETAS","CATEGORIA":"OTROS SERVICIOS","PADRÓN N°":"A3-3634","INSPECTOR/A":"","ÚLTIMA VISITA":"NaT","VENC. HABILITACIÓN":"10/09/2026","ESTADO":"VIGENTE","OBSERVACIONES":"SUJETA A PRESENTACION DE PLANOS"}},{"type":"Feature","geometry":{"type":"Point","coordinates":[-58.008843,-35.567768,0]},"properties":{"name":"VENTA DE ELECTRODOMESTICOS","description":{"@type":"html","value":"descripción: Descripción: MEDINA CARLOS ALBERTO<br>VENTA DE ELECTRODOMESTICOS<br>MACHADO 613, Chascomús, Buenos Aires<br>Barrio: LA NORIA<br>Padrón: A4- 0781<br>Estado: VENCIDA<br>NOMBRE / COMERCIO: MEDINA CARLOS ALBERTO<br>CUIT: 20-27144569-6<br>CONTACTO: 2241495186<br>CATEGORÍA FISCAL: RESPONSABLE INSCRIPTO<br>DIRECCIÓN: MACHADO 613<br>BARRIO: LA NORIA<br>RUBRO: VENTA DE ELECTRODOMESTICOS<br>RUBRO NORMALIZADO: VENTA DE ELECTRODOMESTICOS<br>CATEGORIA: OTROS SERVICIOS<br>PADRÓN N°: A4- 0781<br>INSPECTOR/A: YANINA<br>ÚLTIMA VISITA: 2025-07-08<br>VENC. HABILITACIÓN: 15/08/2025<br>ESTADO: VENCIDA<br>OBSERVACIONES: HABILITACION PROVISORIA VIGENTE<br>styleUrl: #icon-1899-F57C00<br>icon-opacity: 1<br>icon-color: #f57c00<br>icon-scale: 1<br>icon-offset: [32,64]<br>icon-offset-units: [\"pixels\",\"insetPixels\"]<br>icon: https://www.gstatic.com/mapspro/images/stock/503-wht-blank_maps.png<br>Descripción: MEDINA CARLOS ALBERTO<br>VENTA DE ELECTRODOMESTICOS<br>MACHADO 613, Chascomús, Buenos Aires<br>Barrio: LA NORIA<br>Padrón: A4- 0781<br>Estado: VENCIDA<br>NOMBRE / COMERCIO: MEDINA CARLOS ALBERTO<br>CUIT: 20-27144569-6<br>CONTACTO: 2241495186<br>CATEGORÍA FISCAL: RESPONSABLE INSCRIPTO<br>DIRECCIÓN: MACHADO 613<br>BARRIO: LA NORIA<br>RUBRO: VENTA DE ELECTRODOMESTICOS<br>RUBRO NORMALIZADO: VENTA DE ELECTRODOMESTICOS<br>CATEGORIA: OTROS SERVICIOS<br>PADRÓN N°: A4- 0781<br>INSPECTOR/A: YANINA<br>ÚLTIMA VISITA: 2025-07-08<br>VENC. HABILITACIÓN: 15/08/2025<br>ESTADO: VENCIDA<br>OBSERVACIONES: HABILITACION PROVISORIA VIGENTE"},"styleUrl":"#icon-1899-F57C00","label-scale":0,"icon-opacity":"1","icon-color":"#f57c00","icon-scale":"1","icon-offset":"[32,64]","icon-offset-units":"[\"pixels\",\"insetPixels\"]","icon":"https://www.gstatic.com/mapspro/images/stock/503-wht-blank_maps.png","descripción":"Descripción: MEDINA CARLOS ALBERTO\nVENTA DE ELECTRODOMESTICOS\nMACHADO 613, Chascomús, Buenos Aires\nBarrio: LA NORIA\nPadrón: A4- 0781\nEstado: VENCIDA\nNOMBRE / COMERCIO: MEDINA CARLOS ALBERTO\nCUIT: 20-27144569-6\nCONTACTO: 2241495186\nCATEGORÍA FISCAL: RESPONSABLE INSCRIPTO\nDIRECCIÓN: MACHADO 613, Chascomús, Buenos Aires\nBARRIO: LA NORIA\nRUBRO: VENTA DE ELECTRODOMESTICOS\nRUBRO NORMALIZADO: VENTA DE ELECTRODOMESTICOS\nCATEGORIA: OTROS SERVICIOS\nPADRÓN N°: A4- 0781\nINSPECTOR/A: YANINA\nÚLTIMA VISITA: 2025-07-08\nVENC. HABILITACIÓN: 2025-08-15\nESTADO: VENCIDA\nOBSERVACIONES: HABILITACION PROVISORIA VIGENTE","Descripción":"MEDINA CARLOS ALBERTO\nVENTA DE ELECTRODOMESTICOS\nMACHADO 613, Chascomús, Buenos Aires\nBarrio: LA NORIA\nPadrón: A4- 0781\nEstado: VENCIDA","NOMBRE / COMERCIO":"MEDINA CARLOS ALBERTO","CUIT":"20-27144569-6","CONTACTO":"2241495186","CATEGORÍA FISCAL":"RESPONSABLE INSCRIPTO","DIRECCIÓN":"MACHADO 613","BARRIO":"LA NORIA","RUBRO":"VENTA DE ELECTRODOMESTICOS","RUBRO NORMALIZADO":"VENTA DE ELECTRODOMESTICOS","CATEGORIA":"OTROS SERVICIOS","PADRÓN N°":"A4- 0781","INSPECTOR/A":"YANINA","ÚLTIMA VISITA":"2025-07-08","VENC. HABILITACIÓN":"15/08/2025","ESTADO":"VENCIDA","OBSERVACIONES":"HABILITACION PROVISORIA VIGENTE"}},{"type":"Feature","geometry":{"type":"Point","coordinates":[-58.016933,-35.5578,0]},"properties":{"name":"VENTA COMPUTADORAS INSUMOS","description":{"@type":"html","value":"descripción: Descripción: CASCO JAVIER RAUL<br>VENTA COMPUTADORAS INSUMOS<br>LIBRES DEL SUR 121, Chascomús, Buenos Aires<br>Barrio: CENTRO<br>Padrón: A4-0611<br>Estado: VENCIDA<br>NOMBRE / COMERCIO: CASCO JAVIER RAUL<br>CUIT: 20-22840707-1<br>CONTACTO: 2241527677<br>CATEGORÍA FISCAL: RESPONSABLE INSCRIPTO<br>DIRECCIÓN: LIBRES DEL SUR 121<br>BARRIO: CENTRO<br>RUBRO: VENTA COMPUTADORAS INSUMOS<br>RUBRO NORMALIZADO: VENTA COMPUTADORAS INSUMOS<br>CATEGORIA: TECNOLOGÍA Y COMUNICACIONES<br>PADRÓN N°: A4-0611<br>INSPECTOR/A: <br>ÚLTIMA VISITA: 2026-05-15<br>VENC. HABILITACIÓN: 15/12/2024<br>ESTADO: VENCIDA<br>OBSERVACIONES: <br>styleUrl: #icon-1899-7CB342<br>icon-opacity: 1<br>icon-color: #7cb342<br>icon-scale: 1<br>icon-offset: [32,64]<br>icon-offset-units: [\"pixels\",\"insetPixels\"]<br>icon: https://www.gstatic.com/mapspro/images/stock/503-wht-blank_maps.png<br>Descripción: CASCO JAVIER RAUL<br>VENTA COMPUTADORAS INSUMOS<br>LIBRES DEL SUR 121, Chascomús, Buenos Aires<br>Barrio: CENTRO<br>Padrón: A4-0611<br>Estado: VENCIDA<br>NOMBRE / COMERCIO: CASCO JAVIER RAUL<br>CUIT: 20-22840707-1<br>CONTACTO: 2241527677<br>CATEGORÍA FISCAL: RESPONSABLE INSCRIPTO<br>DIRECCIÓN: LIBRES DEL SUR 121<br>BARRIO: CENTRO<br>RUBRO: VENTA COMPUTADORAS INSUMOS<br>RUBRO NORMALIZADO: VENTA COMPUTADORAS INSUMOS<br>CATEGORIA: TECNOLOGÍA Y COMUNICACIONES<br>PADRÓN N°: A4-0611<br>INSPECTOR/A: <br>ÚLTIMA VISITA: 2026-05-15<br>VENC. HABILITACIÓN: 15/12/2024<br>ESTADO: VENCIDA<br>OBSERVACIONES: HABILITACION PROVISORIA, REGULAR. SE OTORGA PLAZO"},"styleUrl":"#icon-1899-7CB342","label-scale":0,"icon-opacity":"1","icon-color":"#7cb342","icon-scale":"1","icon-offset":"[32,64]","icon-offset-units":"[\"pixels\",\"insetPixels\"]","icon":"https://www.gstatic.com/mapspro/images/stock/503-wht-blank_maps.png","descripción":"Descripción: CASCO JAVIER RAUL\nVENTA COMPUTADORAS INSUMOS\nLIBRES DEL SUR 121, Chascomús, Buenos Aires\nBarrio: CENTRO\nPadrón: A4-0611\nEstado: VENCIDA\nNOMBRE / COMERCIO: CASCO JAVIER RAUL\nCUIT: 20-22840707-1\nCONTACTO: 2241527677\nCATEGORÍA FISCAL: RESPONSABLE INSCRIPTO\nDIRECCIÓN: LIBRES DEL SUR 121, Chascomús, Buenos Aires\nBARRIO: CENTRO\nRUBRO: VENTA COMPUTADORAS INSUMOS\nRUBRO NORMALIZADO: VENTA COMPUTADORAS INSUMOS\nCATEGORIA: TECNOLOGÍA Y COMUNICACIONES\nPADRÓN N°: A4-0611\nINSPECTOR/A: SOFIA- IRMA\nÚLTIMA VISITA: 2025-10-09\nVENC. HABILITACIÓN: 2024-12-15\nESTADO: VENCIDA\nOBSERVACIONES: HABILITACION PROVISORIA, REGULAR. SE OTORGA PLAZO","Descripción":"CASCO JAVIER RAUL\nVENTA COMPUTADORAS INSUMOS\nLIBRES DEL SUR 121, Chascomús, Buenos Aires\nBarrio: CENTRO\nPadrón: A4-0611\nEstado: VENCIDA","NOMBRE / COMERCIO":"CASCO JAVIER RAUL","CUIT":"20-22840707-1","CONTACTO":"2241527677","CATEGORÍA FISCAL":"RESPONSABLE INSCRIPTO","DIRECCIÓN":"LIBRES DEL SUR 121","BARRIO":"CENTRO","RUBRO":"VENTA COMPUTADORAS INSUMOS","RUBRO NORMALIZADO":"VENTA COMPUTADORAS INSUMOS","CATEGORIA":"TECNOLOGÍA Y COMUNICACIONES","PADRÓN N°":"A4-0611","INSPECTOR/A":"SOFIA- IRMA","ÚLTIMA VISITA":"2026-05-15","VENC. HABILITACIÓN":"15/12/2024","ESTADO":"VENCIDA","OBSERVACIONES":"HABILITACION PROVISORIA, REGULAR. SE OTORGA PLAZO"}},{"type":"Feature","geometry":{"type":"Point","coordinates":[-58.014514,-35.572751,0]},"properties":{"name":"IMPRENTA","description":{"@type":"html","value":"descripción: Descripción: CASTRO ORLANDO JOSE<br>IMPRENTA<br>LIBRES DEL SUR 294, Chascomús, Buenos Aires<br><br><br>styleUrl: #icon-1899-7CB342<br>icon-opacity: 1<br>icon-color: #7cb342<br>icon-scale: 1<br>icon-offset: [32,64]<br>icon-offset-units: [\"pixels\",\"insetPixels\"]<br>icon: https://www.gstatic.com/mapspro/images/stock/503-wht-blank_maps.png<br>Descripción: CASTRO ORLANDO JOSE<br>IMPRENTA<br>LIBRES DEL SUR 294, Chascomús, Buenos Aires<br>Barrio: CENTRO<br>Padrón: A3-2643<br>Estado: SIN FECHA<br>NOMBRE / COMERCIO: CASTRO ORLANDO JOSE<br>CUIT: 20-10096494-6<br>CONTACTO: 2241676604<br>CATEGORÍA FISCAL: RESPONSABLE INSCRIPTO<br>DIRECCIÓN: LIBRES  DEL SUR 294<br>BARRIO: CENTRO<br>RUBRO: IMPRENTA<br>RUBRO NORMALIZADO: IMPRENTA<br>CATEGORIA: TECNOLOGÍA Y COMUNICACIONES<br>PADRÓN N°: A3-2643<br>INSPECTOR/A: SOFIA- IRMA<br>ÚLTIMA VISITA: 2026-06-03<br>VENC. HABILITACIÓN: 08/05/2026<br>ESTADO: VENCIDA<br>OBSERVACIONES: "},"styleUrl":"#icon-1899-7CB342","label-scale":0,"icon-opacity":"1","icon-color":"#7cb342","icon-scale":"1","icon-offset":"[32,64]","icon-offset-units":"[\"pixels\",\"insetPixels\"]","icon":"https://www.gstatic.com/mapspro/images/stock/503-wht-blank_maps.png","descripción":"Descripción: CASTRO ORLANDO JOSE\nIMPRENTA\nLIBRES DEL SUR 294, Chascomús, Buenos Aires\n\n","Descripción":"CASTRO ORLANDO JOSE\nIMPRENTA\nLIBRES DEL SUR 294, Chascomús, Buenos Aires\nBarrio: CENTRO\nPadrón: A3-2643\nEstado: SIN FECHA","NOMBRE / COMERCIO":"CASTRO ORLANDO JOSE","CUIT":"20-10096494-6","CONTACTO":"2241676604","CATEGORÍA FISCAL":"RESPONSABLE INSCRIPTO","DIRECCIÓN":"LIBRES  DEL SUR 294","BARRIO":"CENTRO","RUBRO":"IMPRENTA","RUBRO NORMALIZADO":"IMPRENTA","CATEGORIA":"TECNOLOGÍA Y COMUNICACIONES","PADRÓN N°":"A3-2643","INSPECTOR/A":"SOFIA- IRMA","ÚLTIMA VISITA":"2026-06-03","VENC. HABILITACIÓN":"08/05/2026","ESTADO":"VENCIDA","OBSERVACIONES":""}},{"type":"Feature","geometry":{"type":"Point","coordinates":[-58.016933,-35.5578,0]},"properties":{"name":"SERVICIO DE FOTO","description":{"@type":"html","value":"descripción: Descripción: CEPEDA LUIS EDUARDO<br>SERVICIO DE FOTO<br>LIBRES DEL SUR 28, Chascomús, Buenos Aires<br>Barrio: CENTRO<br>Padrón: A3-3641<br>Estado: VENCIDA<br>NOMBRE / COMERCIO: CEPEDA LUIS EDUARDO<br>CUIT: 20-25300101-2<br>CONTACTO: 2241455765<br>CATEGORÍA FISCAL: MONOTRIBUTISTA C<br>DIRECCIÓN: LIBRES  DEL SUR 28<br>BARRIO: CENTRO<br>RUBRO: SERVICIO DE FOTO<br>RUBRO NORMALIZADO: SERVICIO DE FOTO<br>CATEGORIA: TECNOLOGÍA Y COMUNICACIONES<br>PADRÓN N°: A3-3641<br>INSPECTOR/A: YANINA<br>ÚLTIMA VISITA: 2025-10-17<br>VENC. HABILITACIÓN: 12/04/2025<br>ESTADO: VENCIDA<br>OBSERVACIONES: CUMPLIMENTO LO SOLICITADO EN EL ACTA ANTERIOR, EQUIPO N° A433722 VTO CARGA 10/26<br>styleUrl: #icon-1899-7CB342<br>icon-opacity: 1<br>icon-color: #7cb342<br>icon-scale: 1<br>icon-offset: [32,64]<br>icon-offset-units: [\"pixels\",\"insetPixels\"]<br>icon: https://www.gstatic.com/mapspro/images/stock/503-wht-blank_maps.png<br>Descripción: CEPEDA LUIS EDUARDO<br>SERVICIO DE FOTO<br>LIBRES DEL SUR 28, Chascomús, Buenos Aires<br>Barrio: CENTRO<br>Padrón: A3-3641<br>Estado: VENCIDA<br>NOMBRE / COMERCIO: CEPEDA LUIS EDUARDO<br>CUIT: 20-25300101-2<br>CONTACTO: 2241455765<br>CATEGORÍA FISCAL: MONOTRIBUTISTA C<br>DIRECCIÓN: LIBRES  DEL SUR 28<br>BARRIO: CENTRO<br>RUBRO: SERVICIO DE FOTO<br>RUBRO NORMALIZADO: SERVICIO DE FOTO<br>CATEGORIA: TECNOLOGÍA Y COMUNICACIONES<br>PADRÓN N°: A3-3641<br>INSPECTOR/A: YANINA<br>ÚLTIMA VISITA: 2025-10-17<br>VENC. HABILITACIÓN: 12/04/2025<br>ESTADO: VENCIDA<br>OBSERVACIONES: CUMPLIMENTO LO SOLICITADO EN EL ACTA ANTERIOR, EQUIPO N° A433722 VTO CARGA 10/26"},"styleUrl":"#icon-1899-7CB342","label-scale":0,"icon-opacity":"1","icon-color":"#7cb342","icon-scale":"1","icon-offset":"[32,64]","icon-offset-units":"[\"pixels\",\"insetPixels\"]","icon":"https://www.gstatic.com/mapspro/images/stock/503-wht-blank_maps.png","descripción":"Descripción: CEPEDA LUIS EDUARDO\nSERVICIO DE FOTO\nLIBRES DEL SUR 28, Chascomús, Buenos Aires\nBarrio: CENTRO\nPadrón: A3-3641\nEstado: VENCIDA\nNOMBRE / COMERCIO: CEPEDA LUIS EDUARDO\nCUIT: 20-25300101-2\nCONTACTO: 2241455765\nCATEGORÍA FISCAL: MONOTRIBUTISTA C\nDIRECCIÓN: LIBRES DEL SUR 28, Chascomús, Buenos Aires\nBARRIO: CENTRO\nRUBRO: SERVICIO DE FOTO\nRUBRO NORMALIZADO: SERVICIO DE FOTO\nCATEGORIA: TECNOLOGÍA Y COMUNICACIONES\nPADRÓN N°: A3-3641\nINSPECTOR/A: YANINA\nÚLTIMA VISITA: 2025-10-17\nVENC. HABILITACIÓN: 2025-04-12\nESTADO: VENCIDA\nOBSERVACIONES: CUMPLIMENTO LO SOLICITADO EN EL ACTA ANTERIOR, EQUIPO N° A433722 VTO CARGA 10/26","Descripción":"CEPEDA LUIS EDUARDO\nSERVICIO DE FOTO\nLIBRES DEL SUR 28, Chascomús, Buenos Aires\nBarrio: CENTRO\nPadrón: A3-3641\nEstado: VENCIDA","NOMBRE / COMERCIO":"CEPEDA LUIS EDUARDO","CUIT":"20-25300101-2","CONTACTO":"2241455765","CATEGORÍA FISCAL":"MONOTRIBUTISTA C","DIRECCIÓN":"LIBRES  DEL SUR 28","BARRIO":"CENTRO","RUBRO":"SERVICIO DE FOTO","RUBRO NORMALIZADO":"SERVICIO DE FOTO","CATEGORIA":"TECNOLOGÍA Y COMUNICACIONES","PADRÓN N°":"A3-3641","INSPECTOR/A":"YANINA","ÚLTIMA VISITA":"2025-10-17","VENC. HABILITACIÓN":"12/04/2025","ESTADO":"VENCIDA","OBSERVACIONES":"CUMPLIMENTO LO SOLICITADO EN EL ACTA ANTERIOR, EQUIPO N° A433722 VTO CARGA 10/26"}},{"type":"Feature","geometry":{"type":"Point","coordinates":[-58.014514,-35.572751,0]},"properties":{"name":"VENTA IMP ELECT-COMP-TELEFON","description":{"@type":"html","value":"descripción: Descripción: CONSORCIO  COMERCIAL ARGENTINO-CHILENO S.A<br>VENTA IMP ELECT-COMP-TELEFON<br>LIBRES DEL SUR 112, Chascomús, Buenos Aires<br>Barrio: CENTRO<br>Padrón: A4-0725<br>Estado: VENCIDA<br>NOMBRE / COMERCIO: CONSORCIO  COMERCIAL ARGENTINO-CHILENO S.A<br>CUIT: 33-52743210-9<br>CONTACTO: 1160159826<br>CATEGORÍA FISCAL: SA<br>DIRECCIÓN: LIBRES  DEL SUR 112<br>BARRIO: CENTRO<br>RUBRO: VENTA IMP ELECT-COMP-TELEFON<br>RUBRO NORMALIZADO: VENTA IMP ELECT<br>CATEGORIA: TECNOLOGÍA Y COMUNICACIONES<br>PADRÓN N°: A4-0725<br>INSPECTOR/A: YANINA<br>ÚLTIMA VISITA: 2025-10-03<br>VENC. HABILITACIÓN: 20/04/2026<br>ESTADO: VENCIDA<br>OBSERVACIONES: EQUIPO N° 727178 VTO PH 10/29 CARGA 10/25, N°02126 VTO PH 10/25 CARGA 10/25. N°310119 PH 10/28 CARGA 10/25. POSEE MEDIDAS DE SEGURIDAD VIGE,NTES, SE TIENE EN CUENTA PARA PASAR A INSPECCIONAR LA FECHA DE LOS EQUIPOS.<br>styleUrl: #icon-1899-7CB342<br>icon-opacity: 1<br>icon-color: #7cb342<br>icon-scale: 1<br>icon-offset: [32,64]<br>icon-offset-units: [\"pixels\",\"insetPixels\"]<br>icon: https://www.gstatic.com/mapspro/images/stock/503-wht-blank_maps.png<br>Descripción: CONSORCIO  COMERCIAL ARGENTINO-CHILENO S.A<br>VENTA IMP ELECT-COMP-TELEFON<br>LIBRES DEL SUR 112, Chascomús, Buenos Aires<br>Barrio: CENTRO<br>Padrón: A4-0725<br>Estado: VENCIDA<br>NOMBRE / COMERCIO: CONSORCIO  COMERCIAL ARGENTINO-CHILENO S.A<br>CUIT: 33-52743210-9<br>CONTACTO: 1160159826<br>CATEGORÍA FISCAL: SA<br>DIRECCIÓN: LIBRES  DEL SUR 112<br>BARRIO: CENTRO<br>RUBRO: VENTA IMP ELECT-COMP-TELEFON<br>RUBRO NORMALIZADO: VENTA IMP ELECT<br>CATEGORIA: TECNOLOGÍA Y COMUNICACIONES<br>PADRÓN N°: A4-0725<br>INSPECTOR/A: YANINA<br>ÚLTIMA VISITA: 2025-10-03<br>VENC. HABILITACIÓN: 20/04/2026<br>ESTADO: VENCIDA<br>OBSERVACIONES: EQUIPO N° 727178 VTO PH 10/29 CARGA 10/25, N°02126 VTO PH 10/25 CARGA 10/25. N°310119 PH 10/28 CARGA 10/25. POSEE MEDIDAS DE SEGURIDAD VIGE,NTES, SE TIENE EN CUENTA PARA PASAR A INSPECCIONAR LA FECHA DE LOS EQUIPOS."},"styleUrl":"#icon-1899-7CB342","label-scale":0,"icon-opacity":"1","icon-color":"#7cb342","icon-scale":"1","icon-offset":"[32,64]","icon-offset-units":"[\"pixels\",\"insetPixels\"]","icon":"https://www.gstatic.com/mapspro/images/stock/503-wht-blank_maps.png","descripción":"Descripción: CONSORCIO  COMERCIAL ARGENTINO-CHILENO S.A\nVENTA IMP ELECT-COMP-TELEFON\nLIBRES DEL SUR 112, Chascomús, Buenos Aires\nBarrio: CENTRO\nPadrón: A4-0725\nEstado: VENCIDA\nNOMBRE / COMERCIO: CONSORCIO  COMERCIAL ARGENTINO-CHILENO S.A\nCUIT: 33-52743210-9\nCONTACTO: 1160159826\nCATEGORÍA FISCAL: SA\nDIRECCIÓN: LIBRES DEL SUR 112, Chascomús, Buenos Aires\nBARRIO: CENTRO\nRUBRO: VENTA IMP ELECT-COMP-TELEFON\nRUBRO NORMALIZADO: VENTA IMP ELECT\nCATEGORIA: TECNOLOGÍA Y COMUNICACIONES\nPADRÓN N°: A4-0725\nINSPECTOR/A: YANINA\nÚLTIMA VISITA: 2025-10-03\nVENC. HABILITACIÓN: 2024-08-30\nESTADO: VENCIDA\nOBSERVACIONES: EQUIPO N° 727178 VTO PH 10/29 CARGA 10/25, N°02126 VTO PH 10/25 CARGA 10/25. N°310119 PH 10/28 CARGA 10/25. POSEE MEDIDAS DE SEGURIDAD VIGE,NTES, SE TIENE EN CUENTA PARA PASAR A INSPECCIONAR LA FECHA DE LOS EQUIPOS.","Descripción":"CONSORCIO  COMERCIAL ARGENTINO-CHILENO S.A\nVENTA IMP ELECT-COMP-TELEFON\nLIBRES DEL SUR 112, Chascomús, Buenos Aires\nBarrio: CENTRO\nPadrón: A4-0725\nEstado: VENCIDA","NOMBRE / COMERCIO":"CONSORCIO  COMERCIAL ARGENTINO-CHILENO S.A","CUIT":"33-52743210-9","CONTACTO":"1160159826","CATEGORÍA FISCAL":"SA","DIRECCIÓN":"LIBRES  DEL SUR 112","BARRIO":"CENTRO","RUBRO":"VENTA IMP ELECT-COMP-TELEFON","RUBRO NORMALIZADO":"VENTA IMP ELECT","CATEGORIA":"TECNOLOGÍA Y COMUNICACIONES","PADRÓN N°":"A4-0725","INSPECTOR/A":"YANINA","ÚLTIMA VISITA":"2025-10-03","VENC. HABILITACIÓN":"20/04/2026","ESTADO":"VENCIDA","OBSERVACIONES":"EQUIPO N° 727178 VTO PH 10/29 CARGA 10/25, N°02126 VTO PH 10/25 CARGA 10/25. N°310119 PH 10/28 CARGA 10/25. POSEE MEDIDAS DE SEGURIDAD VIGE,NTES, SE TIENE EN CUENTA PARA PASAR A INSPECCIONAR LA FECHA DE LOS EQUIPOS."}},{"type":"Feature","geometry":{"type":"Point","coordinates":[-58.016933,-35.5578,0]},"properties":{"name":"REPARACION Y VENTAS DE TV","description":{"@type":"html","value":"descripción: Descripción: DE NIGRIS MARIA DE LOS ANGELES<br>REP Y VENTA TV<br>LIBRES DEL SUR 497, Chascomús, Buenos Aires<br>Barrio: CENTRO<br>Padrón: A3-3286<br>Estado: VENCIDA<br>NOMBRE / COMERCIO: DE NIGRIS MARIA DE LOS ANGELES<br>CUIT: 27-21845210-3<br>CONTACTO: 15465378<br>CATEGORÍA FISCAL: MONOTRIBUTISTA A<br>DIRECCIÓN: LIBRES  DEL SUR 497<br>BARRIO: CNTRO<br>RUBRO: REPARACION Y VENTAS DE TV<br>RUBRO NORMALIZADO: REP Y VENTA TV<br>CATEGORIA: TECNOLOGÍA Y COMUNICACIONES<br>PADRÓN N°: A3-3286<br>INSPECTOR/A: YANINA<br>ÚLTIMA VISITA: 2024-07-11<br>VENC. HABILITACIÓN: 26/02/2026<br>ESTADO: VENCIDA<br>OBSERVACIONES: PASAR A RETIRAR HABILITACION 12/07/2024<br>styleUrl: #icon-1899-7CB342<br>icon-opacity: 1<br>icon-color: #7cb342<br>icon-scale: 1<br>icon-offset: [32,64]<br>icon-offset-units: [\"pixels\",\"insetPixels\"]<br>icon: https://www.gstatic.com/mapspro/images/stock/503-wht-blank_maps.png<br>Descripción: DE NIGRIS MARIA DE LOS ANGELES<br>REP Y VENTA TV<br>LIBRES DEL SUR 497, Chascomús, Buenos Aires<br>Barrio: CENTRO<br>Padrón: A3-3286<br>Estado: VENCIDA<br>NOMBRE / COMERCIO: DE NIGRIS MARIA DE LOS ANGELES<br>CUIT: 27-21845210-3<br>CONTACTO: 15465378<br>CATEGORÍA FISCAL: MONOTRIBUTISTA A<br>DIRECCIÓN: LIBRES  DEL SUR 497<br>BARRIO: CNTRO<br>RUBRO: REPARACION Y VENTAS DE TV<br>RUBRO NORMALIZADO: REP Y VENTA TV<br>CATEGORIA: TECNOLOGÍA Y COMUNICACIONES<br>PADRÓN N°: A3-3286<br>INSPECTOR/A: YANINA<br>ÚLTIMA VISITA: 2024-07-11<br>VENC. HABILITACIÓN: 26/02/2026<br>ESTADO: VENCIDA<br>OBSERVACIONES: SE OTORGA PLAZO PARA REGULARIZAR"},"styleUrl":"#icon-1899-7CB342","label-scale":0,"icon-opacity":"1","icon-color":"#7cb342","icon-scale":"1","icon-offset":"[32,64]","icon-offset-units":"[\"pixels\",\"insetPixels\"]","icon":"https://www.gstatic.com/mapspro/images/stock/503-wht-blank_maps.png","descripción":"Descripción: DE NIGRIS MARIA DE LOS ANGELES\nREP Y VENTA TV\nLIBRES DEL SUR 497, Chascomús, Buenos Aires\nBarrio: CENTRO\nPadrón: A3-3286\nEstado: VENCIDA\nNOMBRE / COMERCIO: DE NIGRIS MARIA DE LOS ANGELES\nCUIT: 27-21845210-3\nCONTACTO: 15465378\nCATEGORÍA FISCAL: MONOTRIBUTISTA A\nDIRECCIÓN: LIBRES DEL SUR 497, Chascomús, Buenos Aires\nBARRIO: CENTRO\nRUBRO: REP Y VENTA TV\nRUBRO NORMALIZADO: REP Y VENTA TV\nCATEGORIA: TECNOLOGÍA Y COMUNICACIONES\nPADRÓN N°: A3-3286\nINSPECTOR/A: SOFIA- IRMA\nÚLTIMA VISITA: 2025-09-17\nVENC. HABILITACIÓN: 2025-03-15\nESTADO: VENCIDA\nOBSERVACIONES: SE OTORGA PLAZO PARA REGULARIZAR","Descripción":"DE NIGRIS MARIA DE LOS ANGELES\nREP Y VENTA TV\nLIBRES DEL SUR 497, Chascomús, Buenos Aires\nBarrio: CENTRO\nPadrón: A3-3286\nEstado: VENCIDA","NOMBRE / COMERCIO":"DE NIGRIS MARIA DE LOS ANGELES","CUIT":"27-21845210-3","CONTACTO":"15465378","CATEGORÍA FISCAL":"MONOTRIBUTISTA A","DIRECCIÓN":"LIBRES  DEL SUR 497","BARRIO":"CNTRO","RUBRO":"REPARACION Y VENTAS DE TV","RUBRO NORMALIZADO":"REP Y VENTA TV","CATEGORIA":"TECNOLOGÍA Y COMUNICACIONES","PADRÓN N°":"A3-3286","INSPECTOR/A":"YANINA","ÚLTIMA VISITA":"2024-07-11","VENC. HABILITACIÓN":"26/02/2026","ESTADO":"VENCIDA","OBSERVACIONES":"PASAR A RETIRAR HABILITACION 12/07/2024"}},{"type":"Feature","geometry":{"type":"Point","coordinates":[-58.014514,-35.572751,0]},"properties":{"name":"VENTA ACC PARA CELULARES","description":{"@type":"html","value":"descripción: Descripción: DI BENEDETTO JUAN CARLOS<br>VENTA ACC PARA CELULARES<br>LIBRES DEL SUR 227, Chascomús, Buenos Aires<br>Barrio: CENTRO<br>Padrón: A3-3526<br>Estado: VENCIDA<br>NOMBRE / COMERCIO: DI BENEDETTO JUAN CARLOS<br>CUIT: 23-30620803-9<br>CONTACTO: 1154247788<br>CATEGORÍA FISCAL: RESPONSABLE INSCRIPTO<br>DIRECCIÓN: LIBRES DEL SUR 227<br>BARRIO: CENTRO<br>RUBRO: VENTA ACC PARA CELULARES<br>RUBRO NORMALIZADO: VENTA ACC PARA CELULARES<br>CATEGORIA: TECNOLOGÍA Y COMUNICACIONES<br>PADRÓN N°: A3-3526<br>INSPECTOR/A: ANIBAL<br>ÚLTIMA VISITA: 2025-09-15<br>VENC. HABILITACIÓN: 08/03/2025<br>ESTADO: VENCIDA<br>OBSERVACIONES: SI CUMPLE CON LAS MEDIDAS DE SEGURIDAD SEGUN NORMATIVA VIGENTE<br>styleUrl: #icon-1899-7CB342<br>icon-opacity: 1<br>icon-color: #7cb342<br>icon-scale: 1<br>icon-offset: [32,64]<br>icon-offset-units: [\"pixels\",\"insetPixels\"]<br>icon: https://www.gstatic.com/mapspro/images/stock/503-wht-blank_maps.png<br>Descripción: DI BENEDETTO JUAN CARLOS<br>VENTA ACC PARA CELULARES<br>LIBRES DEL SUR 227, Chascomús, Buenos Aires<br>Barrio: CENTRO<br>Padrón: A3-3526<br>Estado: VENCIDA<br>NOMBRE / COMERCIO: DI BENEDETTO JUAN CARLOS<br>CUIT: 23-30620803-9<br>CONTACTO: 1154247788<br>CATEGORÍA FISCAL: RESPONSABLE INSCRIPTO<br>DIRECCIÓN: LIBRES DEL SUR 227<br>BARRIO: CENTRO<br>RUBRO: VENTA ACC PARA CELULARES<br>RUBRO NORMALIZADO: VENTA ACC PARA CELULARES<br>CATEGORIA: TECNOLOGÍA Y COMUNICACIONES<br>PADRÓN N°: A3-3526<br>INSPECTOR/A: ANIBAL<br>ÚLTIMA VISITA: 2025-09-15<br>VENC. HABILITACIÓN: 08/03/2025<br>ESTADO: VENCIDA<br>OBSERVACIONES: SI CUMPLE CON LAS MEDIDAS DE SEGURIDAD SEGUN NORMATIVA VIGENTE"},"styleUrl":"#icon-1899-7CB342","label-scale":0,"icon-opacity":"1","icon-color":"#7cb342","icon-scale":"1","icon-offset":"[32,64]","icon-offset-units":"[\"pixels\",\"insetPixels\"]","icon":"https://www.gstatic.com/mapspro/images/stock/503-wht-blank_maps.png","descripción":"Descripción: DI BENEDETTO JUAN CARLOS\nVENTA ACC PARA CELULARES\nLIBRES DEL SUR 227, Chascomús, Buenos Aires\nBarrio: CENTRO\nPadrón: A3-3526\nEstado: VENCIDA\nNOMBRE / COMERCIO: DI BENEDETTO JUAN CARLOS\nCUIT: 23-30620803-9\nCONTACTO: 1154247788\nCATEGORÍA FISCAL: RESPONSABLE INSCRIPTO\nDIRECCIÓN: LIBRES DEL SUR 227, Chascomús, Buenos Aires\nBARRIO: CENTRO\nRUBRO: VENTA ACC PARA CELULARES\nRUBRO NORMALIZADO: VENTA ACC PARA CELULARES\nCATEGORIA: TECNOLOGÍA Y COMUNICACIONES\nPADRÓN N°: A3-3526\nINSPECTOR/A: ANIBAL\nÚLTIMA VISITA: 2025-09-15\nVENC. HABILITACIÓN: 2025-03-08\nESTADO: VENCIDA\nOBSERVACIONES: SI CUMPLE CON LAS MEDIDAS DE SEGURIDAD SEGUN NORMATIVA VIGENTE","Descripción":"DI BENEDETTO JUAN CARLOS\nVENTA ACC PARA CELULARES\nLIBRES DEL SUR 227, Chascomús, Buenos Aires\nBarrio: CENTRO\nPadrón: A3-3526\nEstado: VENCIDA","NOMBRE / COMERCIO":"DI BENEDETTO JUAN CARLOS","CUIT":"23-30620803-9","CONTACTO":"1154247788","CATEGORÍA FISCAL":"RESPONSABLE INSCRIPTO","DIRECCIÓN":"LIBRES DEL SUR 227","BARRIO":"CENTRO","RUBRO":"VENTA ACC PARA CELULARES","RUBRO NORMALIZADO":"VENTA ACC PARA CELULARES","CATEGORIA":"TECNOLOGÍA Y COMUNICACIONES","PADRÓN N°":"A3-3526","INSPECTOR/A":"ANIBAL","ÚLTIMA VISITA":"2025-09-15","VENC. HABILITACIÓN":"08/03/2025","ESTADO":"VENCIDA","OBSERVACIONES":"SI CUMPLE CON LAS MEDIDAS DE SEGURIDAD SEGUN NORMATIVA VIGENTE"}},{"type":"Feature","geometry":{"type":"Point","coordinates":[-58.014514,-35.572751,0]},"properties":{"name":"DI BENEDETTO JUAN CARLOS /UPS","description":{"@type":"html","value":"descripción: Descripción: DI BENEDETTO JUAN CARLOS /UPS<br>VENTA ACC CELULARES<br><br><br>styleUrl: #icon-1899-7CB342<br>icon-opacity: 1<br>icon-color: #7cb342<br>icon-scale: 1<br>icon-offset: [32,64]<br>icon-offset-units: [\"pixels\",\"insetPixels\"]<br>icon: https://www.gstatic.com/mapspro/images/stock/503-wht-blank_maps.png<br>Descripción: DI BENEDETTO JUAN CARLOS /UPS<br>VENTA ACC CELULARES<br>LIBRES DEL SUR 67, Chascomús, Buenos Aires<br>Barrio: CENTRO<br>Padrón: A3-3791<br>Estado: SIN FECHA<br>NOMBRE / COMERCIO: DI BENEDETTO JUAN CARLOS /UPS<br>CUIT: 23-30620803-9<br>CONTACTO: 2241418230<br>CATEGORÍA FISCAL: RESPONSABLE INSCRIPTO<br>DIRECCIÓN: LIBRES DEL SUR 67, Chascomús, Buenos Aires<br>BARRIO: CENTRO<br>RUBRO: VENTA ACC CELULARES<br>RUBRO NORMALIZADO: VENTA ACC CELULARES<br>CATEGORIA: TECNOLOGÍA Y COMUNICACIONES<br>PADRÓN N°: A3-3791<br>INSPECTOR/A: SOFIA- IRMA<br>ÚLTIMA VISITA: 2025-09-05<br>VENC. HABILITACIÓN: 29/11/2027<br>ESTADO: VIGENTE<br>OBSERVACIONES: DEBE REGULARIZAR SU HABILITACION, SE OTORGA PLAZO PARA CONTINUAR."},"styleUrl":"#icon-1899-7CB342","label-scale":0,"icon-opacity":"1","icon-color":"#7cb342","icon-scale":"1","icon-offset":"[32,64]","icon-offset-units":"[\"pixels\",\"insetPixels\"]","icon":"https://www.gstatic.com/mapspro/images/stock/503-wht-blank_maps.png","descripción":"Descripción: DI BENEDETTO JUAN CARLOS /UPS\nVENTA ACC CELULARES\n\n","Descripción":"DI BENEDETTO JUAN CARLOS /UPS\nVENTA ACC CELULARES\nLIBRES DEL SUR 67, Chascomús, Buenos Aires\nBarrio: CENTRO\nPadrón: A3-3791\nEstado: SIN FECHA","NOMBRE / COMERCIO":"DI BENEDETTO JUAN CARLOS /UPS","CUIT":"23-30620803-9","CONTACTO":"2241418230","CATEGORÍA FISCAL":"RESPONSABLE INSCRIPTO","DIRECCIÓN":"LIBRES DEL SUR 67, Chascomús, Buenos Aires","BARRIO":"CENTRO","RUBRO":"VENTA ACC CELULARES","RUBRO NORMALIZADO":"VENTA ACC CELULARES","CATEGORIA":"TECNOLOGÍA Y COMUNICACIONES","PADRÓN N°":"A3-3791","INSPECTOR/A":"SOFIA- IRMA","ÚLTIMA VISITA":"2025-09-05","VENC. HABILITACIÓN":"29/11/2027","ESTADO":"VIGENTE","OBSERVACIONES":"DEBE REGULARIZAR SU HABILITACION, SE OTORGA PLAZO PARA CONTINUAR."}},{"type":"Feature","geometry":{"type":"Point","coordinates":[-58.020781,-35.570636,0]},"properties":{"name":"DOMINGUEZ PABLO DANIEL","description":{"@type":"html","value":"descripción: Descripción: DOMINGUEZ PABLO DANIEL<br>IMPRENTA-LIBRERÍA<br>MAIPU 226, Chascomús, Buenos Aires<br>Barrio: CENTRO<br>Padrón: A4-0722<br>Estado: VENCIDA<br>NOMBRE / COMERCIO: DOMINGUEZ PABLO DANIEL<br>CUIT: 20-20364929-1<br>CONTACTO: 2241440772<br>CATEGORÍA FISCAL: MONOTRIBUTISTA D<br>DIRECCIÓN: MAIPU 226, Chascomús, Buenos Aires<br>BARRIO: CENTRO<br>RUBRO: IMPRENTA-LIBRERÍA<br>RUBRO NORMALIZADO: IMPRENTA<br>CATEGORIA: TECNOLOGÍA Y COMUNICACIONES<br>PADRÓN N°: A4-0722<br>INSPECTOR/A: SOFIA- IRMA<br>ÚLTIMA VISITA: 2026-02-05<br>VENC. HABILITACIÓN: 2026-01-20<br>ESTADO: VENCIDA<br>OBSERVACIONES:<br>styleUrl: #icon-1899-7CB342<br>icon-opacity: 1<br>icon-color: #7cb342<br>icon-scale: 1<br>icon-offset: [32,64]<br>icon-offset-units: [\"pixels\",\"insetPixels\"]<br>icon: https://www.gstatic.com/mapspro/images/stock/503-wht-blank_maps.png<br>Descripción: DOMINGUEZ PABLO DANIEL<br>IMPRENTA-LIBRERÍA<br>MAIPU 226, Chascomús, Buenos Aires<br>Barrio: CENTRO<br>Padrón: A4-0722<br>Estado: VENCIDA<br>NOMBRE / COMERCIO: DOMINGUEZ PABLO DANIEL<br>CUIT: 20-20364929-1<br>CONTACTO: 2241440772<br>CATEGORÍA FISCAL: MONOTRIBUTISTA D<br>DIRECCIÓN: MAIPU 226, Chascomús, Buenos Aires<br>BARRIO: CENTRO<br>RUBRO: IMPRENTA-LIBRERÍA<br>RUBRO NORMALIZADO: IMPRENTA<br>CATEGORIA: TECNOLOGÍA Y COMUNICACIONES<br>PADRÓN N°: A4-0722<br>INSPECTOR/A: SOFIA- IRMA<br>ÚLTIMA VISITA: 2026-02-05<br>VENC. HABILITACIÓN: 2026-01-20<br>ESTADO: VENCIDA<br>OBSERVACIONES: "},"styleUrl":"#icon-1899-7CB342","label-scale":0,"icon-opacity":"1","icon-color":"#7cb342","icon-scale":"1","icon-offset":"[32,64]","icon-offset-units":"[\"pixels\",\"insetPixels\"]","icon":"https://www.gstatic.com/mapspro/images/stock/503-wht-blank_maps.png","descripción":"Descripción: DOMINGUEZ PABLO DANIEL\nIMPRENTA-LIBRERÍA\nMAIPU 226, Chascomús, Buenos Aires\nBarrio: CENTRO\nPadrón: A4-0722\nEstado: VENCIDA\nNOMBRE / COMERCIO: DOMINGUEZ PABLO DANIEL\nCUIT: 20-20364929-1\nCONTACTO: 2241440772\nCATEGORÍA FISCAL: MONOTRIBUTISTA D\nDIRECCIÓN: MAIPU 226, Chascomús, Buenos Aires\nBARRIO: CENTRO\nRUBRO: IMPRENTA-LIBRERÍA\nRUBRO NORMALIZADO: IMPRENTA\nCATEGORIA: TECNOLOGÍA Y COMUNICACIONES\nPADRÓN N°: A4-0722\nINSPECTOR/A: SOFIA- IRMA\nÚLTIMA VISITA: 2026-02-05\nVENC. HABILITACIÓN: 2026-01-20\nESTADO: VENCIDA\nOBSERVACIONES:","Descripción":"DOMINGUEZ PABLO DANIEL\nIMPRENTA-LIBRERÍA\nMAIPU 226, Chascomús, Buenos Aires\nBarrio: CENTRO\nPadrón: A4-0722\nEstado: VENCIDA","NOMBRE / COMERCIO":"DOMINGUEZ PABLO DANIEL","CUIT":"20-20364929-1","CONTACTO":"2241440772","CATEGORÍA FISCAL":"MONOTRIBUTISTA D","DIRECCIÓN":"MAIPU 226, Chascomús, Buenos Aires","BARRIO":"CENTRO","RUBRO":"IMPRENTA-LIBRERÍA","RUBRO NORMALIZADO":"IMPRENTA","CATEGORIA":"TECNOLOGÍA Y COMUNICACIONES","PADRÓN N°":"A4-0722","INSPECTOR/A":"SOFIA- IRMA","ÚLTIMA VISITA":"2026-02-05","VENC. HABILITACIÓN":"2026-01-20","ESTADO":"VENCIDA","OBSERVACIONES":""}},{"type":"Feature","geometry":{"type":"Point","coordinates":[-58.008931,-35.574987,0]},"properties":{"name":"VENTA SERV ART TELEFONICOS","description":{"@type":"html","value":"descripción: Descripción: DV STORE CHASCOMUS SRL<br>VENTA SERV ART TELEFONICOS<br>SOLER 185/17, Chascomús, Buenos Aires<br>Barrio: CENTRO<br>Padrón: A3-4183<br>Estado: VIGENTE<br>NOMBRE / COMERCIO: DV STORE CHASCOMUS SRL<br>CUIT: 33-71834149-9<br>CONTACTO: 2241692232<br>CATEGORÍA FISCAL: SRL<br>DIRECCIÓN: SOLER 185/17<br>BARRIO: CENTRO<br>RUBRO: VENTA SERV ART TELEFONICOS<br>RUBRO NORMALIZADO: VENTA SERV ART TELEFONICOS<br>CATEGORIA: TECNOLOGÍA Y COMUNICACIONES<br>PADRÓN N°: A3-4183<br>INSPECTOR/A: YANINA<br>ÚLTIMA VISITA: 2025-09-05<br>VENC. HABILITACIÓN: 25/01/2027<br>ESTADO: VIGENTE<br>OBSERVACIONES: MEDIDAS DE SEGURIDAD VIGENTES A LA FECHA, QUEDA SUJETO A PROXIMAS INSPECCIONES<br>styleUrl: #icon-1899-7CB342<br>icon-opacity: 1<br>icon-color: #7cb342<br>icon-scale: 1<br>icon-offset: [32,64]<br>icon-offset-units: [\"pixels\",\"insetPixels\"]<br>icon: https://www.gstatic.com/mapspro/images/stock/503-wht-blank_maps.png<br>Descripción: DV STORE CHASCOMUS SRL<br>VENTA SERV ART TELEFONICOS<br>SOLER 185/17, Chascomús, Buenos Aires<br>Barrio: CENTRO<br>Padrón: A3-4183<br>Estado: VIGENTE<br>NOMBRE / COMERCIO: DV STORE CHASCOMUS SRL<br>CUIT: 33-71834149-9<br>CONTACTO: 2241692232<br>CATEGORÍA FISCAL: SRL<br>DIRECCIÓN: SOLER 185/17<br>BARRIO: CENTRO<br>RUBRO: VENTA SERV ART TELEFONICOS<br>RUBRO NORMALIZADO: VENTA SERV ART TELEFONICOS<br>CATEGORIA: TECNOLOGÍA Y COMUNICACIONES<br>PADRÓN N°: A3-4183<br>INSPECTOR/A: YANINA<br>ÚLTIMA VISITA: 2025-09-05<br>VENC. HABILITACIÓN: 25/01/2027<br>ESTADO: VIGENTE<br>OBSERVACIONES: MEDIDAS DE SEGURIDAD VIGENTES A LA FECHA, QUEDA SUJETO A PROXIMAS INSPECCIONES"},"styleUrl":"#icon-1899-7CB342","descripción":"Descripción: DV STORE CHASCOMUS SRL\nVENTA SERV ART TELEFONICOS\nSOLER 185/17, Chascomús, Buenos Aires\nBarrio: CENTRO\nPadrón: A3-4183\nEstado: VIGENTE\nNOMBRE / COMERCIO: DV STORE CHASCOMUS SRL\nCUIT: 33-71834149-9\nCONTACTO: 2241692232\nCATEGORÍA FISCAL: SRL\nDIRECCIÓN: SOLER 185/17, Chascomús, Buenos Aires\nBARRIO: CENTRO\nRUBRO: VENTA SERV ART TELEFONICOS\nRUBRO NORMALIZADO: VENTA SERV ART TELEFONICOS\nCATEGORIA: TECNOLOGÍA Y COMUNICACIONES\nPADRÓN N°: A3-4183\nINSPECTOR/A: YANINA\nÚLTIMA VISITA: 2025-09-05\nVENC. HABILITACIÓN: 2027-01-25\nESTADO: VIGENTE\nOBSERVACIONES: MEDIDAS DE SEGURIDAD VIGENTES A LA FECHA, QUEDA SUJETO A PROXIMAS INSPECCIONES","icon-opacity":"1","icon-color":"#7cb342","icon-scale":"1","icon-offset":"[32,64]","icon-offset-units":"[\"pixels\",\"insetPixels\"]","icon":"https://www.gstatic.com/mapspro/images/stock/503-wht-blank_maps.png","Descripción":"DV STORE CHASCOMUS SRL\nVENTA SERV ART TELEFONICOS\nSOLER 185/17, Chascomús, Buenos Aires\nBarrio: CENTRO\nPadrón: A3-4183\nEstado: VIGENTE","NOMBRE / COMERCIO":"DV STORE CHASCOMUS SRL","CUIT":"33-71834149-9","CONTACTO":"2241692232","CATEGORÍA FISCAL":"SRL","DIRECCIÓN":"SOLER 185/17","BARRIO":"CENTRO","RUBRO":"VENTA SERV ART TELEFONICOS","RUBRO NORMALIZADO":"VENTA SERV ART TELEFONICOS","CATEGORIA":"TECNOLOGÍA Y COMUNICACIONES","PADRÓN N°":"A3-4183","INSPECTOR/A":"YANINA","ÚLTIMA VISITA":"2025-09-05","VENC. HABILITACIÓN":"25/01/2027","ESTADO":"VIGENTE","OBSERVACIONES":"MEDIDAS DE SEGURIDAD VIGENTES A LA FECHA, QUEDA SUJETO A PROXIMAS INSPECCIONES"}},{"type":"Feature","geometry":{"type":"Point","coordinates":[-58.015157,-35.573398,0]},"properties":{"name":"PROVEDORES DE INTERNET","description":{"@type":"html","value":"descripción: Descripción: FIBRA TV SA<br>PROVEEDORES DE INTERNET<br>BELGRANO 103, Chascomús, Buenos Aires<br>Barrio: CENTRO<br>Padrón: A6-0398<br>Estado: VENCIDA<br>NOMBRE / COMERCIO: FIBRA TV SA<br>CUIT: 30-71686101-1<br>CONTACTO: 22415566583<br>CATEGORÍA FISCAL: SA<br>DIRECCIÓN: BELGRANO 103<br>BARRIO: CENTRO<br>RUBRO: PROVEDORES DE INTERNET<br>RUBRO NORMALIZADO: PROVEEDORES DE INTERNET<br>CATEGORIA: TECNOLOGÍA Y COMUNICACIONES<br>PADRÓN N°: A6-0398<br>INSPECTOR/A: SOFIA- IRMA<br>ÚLTIMA VISITA: 2025-11-05<br>VENC. HABILITACIÓN: 15/12/2024<br>ESTADO: VENCIDA<br>OBSERVACIONES: SE OROTGA PLAZO PARA REGULARIZAR<br>styleUrl: #icon-1899-7CB342<br>icon-opacity: 1<br>icon-color: #7cb342<br>icon-scale: 1<br>icon-offset: [32,64]<br>icon-offset-units: [\"pixels\",\"insetPixels\"]<br>icon: https://www.gstatic.com/mapspro/images/stock/503-wht-blank_maps.png<br>Descripción: FIBRA TV SA<br>PROVEEDORES DE INTERNET<br>BELGRANO 103, Chascomús, Buenos Aires<br>Barrio: CENTRO<br>Padrón: A6-0398<br>Estado: VENCIDA<br>NOMBRE / COMERCIO: FIBRA TV SA<br>CUIT: 30-71686101-1<br>CONTACTO: 22415566583<br>CATEGORÍA FISCAL: SA<br>DIRECCIÓN: BELGRANO 103<br>BARRIO: CENTRO<br>RUBRO: PROVEDORES DE INTERNET<br>RUBRO NORMALIZADO: PROVEEDORES DE INTERNET<br>CATEGORIA: TECNOLOGÍA Y COMUNICACIONES<br>PADRÓN N°: A6-0398<br>INSPECTOR/A: SOFIA- IRMA<br>ÚLTIMA VISITA: 2025-11-05<br>VENC. HABILITACIÓN: 15/12/2024<br>ESTADO: VENCIDA<br>OBSERVACIONES: SE OROTGA PLAZO PARA REGULARIZAR"},"styleUrl":"#icon-1899-7CB342","label-scale":0,"icon-opacity":"1","icon-color":"#7cb342","icon-scale":"1","icon-offset":"[32,64]","icon-offset-units":"[\"pixels\",\"insetPixels\"]","icon":"https://www.gstatic.com/mapspro/images/stock/503-wht-blank_maps.png","descripción":"Descripción: FIBRA TV SA\nPROVEEDORES DE INTERNET\nBELGRANO 103, Chascomús, Buenos Aires\nBarrio: CENTRO\nPadrón: A6-0398\nEstado: VENCIDA\nNOMBRE / COMERCIO: FIBRA TV SA\nCUIT: 30-71686101-1\nCONTACTO: 22415566583\nCATEGORÍA FISCAL: SA\nDIRECCIÓN: BELGRANO 103, Chascomús, Buenos Aires\nBARRIO: CENTRO\nRUBRO: PROVEEDORES DE INTERNET\nRUBRO NORMALIZADO: PROVEEDORES DE INTERNET\nCATEGORIA: TECNOLOGÍA Y COMUNICACIONES\nPADRÓN N°: A6-0398\nINSPECTOR/A: SOFIA- IRMA\nÚLTIMA VISITA: 2025-11-05\nVENC. HABILITACIÓN: 2024-12-15\nESTADO: VENCIDA\nOBSERVACIONES: SE OROTGA PLAZO PARA REGULARIZAR","Descripción":"FIBRA TV SA\nPROVEEDORES DE INTERNET\nBELGRANO 103, Chascomús, Buenos Aires\nBarrio: CENTRO\nPadrón: A6-0398\nEstado: VENCIDA","NOMBRE / COMERCIO":"FIBRA TV SA","CUIT":"30-71686101-1","CONTACTO":"22415566583","CATEGORÍA FISCAL":"SA","DIRECCIÓN":"BELGRANO 103","BARRIO":"CENTRO","RUBRO":"PROVEDORES DE INTERNET","RUBRO NORMALIZADO":"PROVEEDORES DE INTERNET","CATEGORIA":"TECNOLOGÍA Y COMUNICACIONES","PADRÓN N°":"A6-0398","INSPECTOR/A":"SOFIA- IRMA","ÚLTIMA VISITA":"2025-11-05","VENC. HABILITACIÓN":"15/12/2024","ESTADO":"VENCIDA","OBSERVACIONES":"SE OROTGA PLAZO PARA REGULARIZAR"}},{"type":"Feature","geometry":{"type":"Point","coordinates":[-58.016455,-35.56618,0]},"properties":{"name":"VENTA DE CELULARES","description":{"@type":"html","value":"descripción: Descripción: GRAMONT-YOUNG<br>VENTA DE CELULARES<br>BELGRANO 14, Chascomús, Buenos Aires<br><br><br>styleUrl: #icon-1899-7CB342<br>icon-opacity: 1<br>icon-color: #7cb342<br>icon-scale: 1<br>icon-offset: [32,64]<br>icon-offset-units: [\"pixels\",\"insetPixels\"]<br>icon: https://www.gstatic.com/mapspro/images/stock/503-wht-blank_maps.png<br>Descripción: GRAMONT-YOUNG<br>VENTA DE CELULARES<br>BELGRANO 14, Chascomús, Buenos Aires<br>Barrio: CENTRO<br>Padrón: A3-4478<br>Estado: SIN FECHA<br>NOMBRE / COMERCIO: GRAMONT-YOUNG<br>CUIT: 27-41103922-1<br>CONTACTO: 2241548213<br>CATEGORÍA FISCAL: NO REGISTRA IMPUESTOS ACTIVOS<br>DIRECCIÓN: BELGRANO 14<br>BARRIO: CENTRO<br>RUBRO: VENTA DE CELULARES<br>RUBRO NORMALIZADO: VENTA DE CELULARES<br>CATEGORIA: TECNOLOGÍA Y COMUNICACIONES<br>PADRÓN N°: A3-4478<br>INSPECTOR/A: SOFIA- IRMA<br>ÚLTIMA VISITA: <br>VENC. HABILITACIÓN: 15/01/2025<br>ESTADO: VENCIDA<br>OBSERVACIONES: HABILITACION 15-01-2025<br>ULTIMO PLAZO 72 HS"},"styleUrl":"#icon-1899-7CB342","label-scale":0,"icon-opacity":"1","icon-color":"#7cb342","icon-scale":"1","icon-offset":"[32,64]","icon-offset-units":"[\"pixels\",\"insetPixels\"]","icon":"https://www.gstatic.com/mapspro/images/stock/503-wht-blank_maps.png","descripción":"Descripción: GRAMONT-YOUNG\nVENTA DE CELULARES\nBELGRANO 14, Chascomús, Buenos Aires\n\n","Descripción":"GRAMONT-YOUNG\nVENTA DE CELULARES\nBELGRANO 14, Chascomús, Buenos Aires\nBarrio: CENTRO\nPadrón: A3-4478\nEstado: SIN FECHA","NOMBRE / COMERCIO":"GRAMONT-YOUNG","CUIT":"27-41103922-1","CONTACTO":"2241548213","CATEGORÍA FISCAL":"NO REGISTRA IMPUESTOS ACTIVOS","DIRECCIÓN":"BELGRANO 14","BARRIO":"CENTRO","RUBRO":"VENTA DE CELULARES","RUBRO NORMALIZADO":"VENTA DE CELULARES","CATEGORIA":"TECNOLOGÍA Y COMUNICACIONES","PADRÓN N°":"A3-4478","INSPECTOR/A":"SOFIA- IRMA","ÚLTIMA VISITA":"2024-07-31","VENC. HABILITACIÓN":"15/01/2025","ESTADO":"VENCIDA","OBSERVACIONES":"HABILITACION 15-01-2025"}},{"type":"Feature","geometry":{"type":"Point","coordinates":[-58.015969,-35.557822,0]},"properties":{"name":"REPARACION TV","description":{"@type":"html","value":"descripción: Descripción: GRANARA MARTIN<br>REPARACION TV<br>ALVEAR 199, Chascomús, Buenos Aires<br>Barrio: CENTRO<br>Padrón: A3-3145<br>Estado: VENCIDA<br>NOMBRE / COMERCIO: GRANARA MARTIN<br>CUIT: 20-30116369-0<br>CONTACTO: 457356<br>CATEGORÍA FISCAL: MONOTRIBUTISTA D<br>DIRECCIÓN: ALVEAR 199<br>BARRIO: CENTRO<br>RUBRO: REPARACION TV<br>RUBRO NORMALIZADO: REPARACION TV<br>CATEGORIA: TECNOLOGÍA Y COMUNICACIONES<br>PADRÓN N°: A3-3145<br>INSPECTOR/A: SOFIA- IRMA<br>ÚLTIMA VISITA: 2025-09-11<br>VENC. HABILITACIÓN: 09/08/2025<br>ESTADO: VENCIDA<br>OBSERVACIONES: DEBE DE REGULARIZAR LA HABILITACION, SE DEJA COPIA<br>styleUrl: #icon-1899-7CB342<br>icon-opacity: 1<br>icon-color: #7cb342<br>icon-scale: 1<br>icon-offset: [32,64]<br>icon-offset-units: [\"pixels\",\"insetPixels\"]<br>icon: https://www.gstatic.com/mapspro/images/stock/503-wht-blank_maps.png<br>Descripción: GRANARA MARTIN<br>REPARACION TV<br>ALVEAR 199, Chascomús, Buenos Aires<br>Barrio: CENTRO<br>Padrón: A3-3145<br>Estado: VENCIDA<br>NOMBRE / COMERCIO: GRANARA MARTIN<br>CUIT: 20-30116369-0<br>CONTACTO: 457356<br>CATEGORÍA FISCAL: MONOTRIBUTISTA D<br>DIRECCIÓN: ALVEAR 199<br>BARRIO: CENTRO<br>RUBRO: REPARACION TV<br>RUBRO NORMALIZADO: REPARACION TV<br>CATEGORIA: TECNOLOGÍA Y COMUNICACIONES<br>PADRÓN N°: A3-3145<br>INSPECTOR/A: SOFIA- IRMA<br>ÚLTIMA VISITA: 2025-09-11<br>VENC. HABILITACIÓN: 09/08/2025<br>ESTADO: VENCIDA<br>OBSERVACIONES: DEBE DE REGULARIZAR LA HABILITACION, SE DEJA COPIA"},"styleUrl":"#icon-1899-7CB342","label-scale":0,"icon-opacity":"1","icon-color":"#7cb342","icon-scale":"1","icon-offset":"[32,64]","icon-offset-units":"[\"pixels\",\"insetPixels\"]","icon":"https://www.gstatic.com/mapspro/images/stock/503-wht-blank_maps.png","descripción":"Descripción: GRANARA MARTIN\nREPARACION TV\nALVEAR 199, Chascomús, Buenos Aires\nBarrio: CENTRO\nPadrón: A3-3145\nEstado: VENCIDA\nNOMBRE / COMERCIO: GRANARA MARTIN\nCUIT: 20-30116369-0\nCONTACTO: 457356\nCATEGORÍA FISCAL: MONOTRIBUTISTA D\nDIRECCIÓN: ALVEAR 199, Chascomús, Buenos Aires\nBARRIO: CENTRO\nRUBRO: REPARACION TV\nRUBRO NORMALIZADO: REPARACION TV\nCATEGORIA: TECNOLOGÍA Y COMUNICACIONES\nPADRÓN N°: A3-3145\nINSPECTOR/A: SOFIA- IRMA\nÚLTIMA VISITA: 2025-09-11\nVENC. HABILITACIÓN: 2025-08-09\nESTADO: VENCIDA\nOBSERVACIONES: DEBE DE REGULARIZAR LA HABILITACION, SE DEJA COPIA","Descripción":"GRANARA MARTIN\nREPARACION TV\nALVEAR 199, Chascomús, Buenos Aires\nBarrio: CENTRO\nPadrón: A3-3145\nEstado: VENCIDA","NOMBRE / COMERCIO":"GRANARA MARTIN","CUIT":"20-30116369-0","CONTACTO":"457356","CATEGORÍA FISCAL":"MONOTRIBUTISTA D","DIRECCIÓN":"ALVEAR 199","BARRIO":"CENTRO","RUBRO":"REPARACION TV","RUBRO NORMALIZADO":"REPARACION TV","CATEGORIA":"TECNOLOGÍA Y COMUNICACIONES","PADRÓN N°":"A3-3145","INSPECTOR/A":"SOFIA- IRMA","ÚLTIMA VISITA":"2025-09-11","VENC. HABILITACIÓN":"09/08/2025","ESTADO":"VENCIDA","OBSERVACIONES":"DEBE DE REGULARIZAR LA HABILITACION, SE DEJA COPIA"}},{"type":"Feature","geometry":{"type":"Point","coordinates":[-58.008931,-35.574987,0]},"properties":{"name":"PROVEEDORES DE INTERNET","description":{"@type":"html","value":"descripción: Descripción: LANET SOCIEDAD SIMPLE<br>PROVEEDORES DE INTERNET<br>SOLER 225, Chascomús, Buenos Aires<br>Barrio: CENTRO<br>Padrón: A6-0406<br>Estado: VIGENTE<br>NOMBRE / COMERCIO: LANET SOCIEDAD SIMPLE<br>CUIT: 33-71734844-9<br>CONTACTO: 2241671470<br>CATEGORÍA FISCAL: SS<br>DIRECCIÓN: SOLER 225<br>BARRIO: CENTRO<br>RUBRO: PROVEEDORES DE INTERNET<br>RUBRO NORMALIZADO: PROVEEDORES DE INTERNET<br>CATEGORIA: TECNOLOGÍA Y COMUNICACIONES<br>PADRÓN N°: A6-0406<br>INSPECTOR/A: SOFIA- IRMA<br>ÚLTIMA VISITA: 2025-12-17<br>VENC. HABILITACIÓN: 02/01/2028<br>ESTADO: VIGENTE<br>OBSERVACIONES: POSEE HABILITACION VIGENTE CON FECHA DE L 02/01/28<br>styleUrl: #icon-1899-7CB342<br>icon-opacity: 1<br>icon-color: #7cb342<br>icon-scale: 1<br>icon-offset: [32,64]<br>icon-offset-units: [\"pixels\",\"insetPixels\"]<br>icon: https://www.gstatic.com/mapspro/images/stock/503-wht-blank_maps.png<br>Descripción: LANET SOCIEDAD SIMPLE<br>PROVEEDORES DE INTERNET<br>SOLER 225, Chascomús, Buenos Aires<br>Barrio: CENTRO<br>Padrón: A6-0406<br>Estado: VIGENTE<br>NOMBRE / COMERCIO: LANET SOCIEDAD SIMPLE<br>CUIT: 33-71734844-9<br>CONTACTO: 2241671470<br>CATEGORÍA FISCAL: SS<br>DIRECCIÓN: SOLER 225<br>BARRIO: CENTRO<br>RUBRO: PROVEEDORES DE INTERNET<br>RUBRO NORMALIZADO: PROVEEDORES DE INTERNET<br>CATEGORIA: TECNOLOGÍA Y COMUNICACIONES<br>PADRÓN N°: A6-0406<br>INSPECTOR/A: SOFIA- IRMA<br>ÚLTIMA VISITA: 2025-12-17<br>VENC. HABILITACIÓN: 02/01/2028<br>ESTADO: VIGENTE<br>OBSERVACIONES: POSEE HABILITACION VIGENTE CON FECHA DE L 02/01/28"},"styleUrl":"#icon-1899-7CB342","descripción":"Descripción: LANET SOCIEDAD SIMPLE\nPROVEEDORES DE INTERNET\nSOLER 225, Chascomús, Buenos Aires\nBarrio: CENTRO\nPadrón: A6-0406\nEstado: VIGENTE\nNOMBRE / COMERCIO: LANET SOCIEDAD SIMPLE\nCUIT: 33-71734844-9\nCONTACTO: 2241671470\nCATEGORÍA FISCAL: SS\nDIRECCIÓN: SOLER 225, Chascomús, Buenos Aires\nBARRIO: CENTRO\nRUBRO: PROVEEDORES DE INTERNET\nRUBRO NORMALIZADO: PROVEEDORES DE INTERNET\nCATEGORIA: TECNOLOGÍA Y COMUNICACIONES\nPADRÓN N°: A6-0406\nINSPECTOR/A: SOFIA- IRMA\nÚLTIMA VISITA: 2025-12-17\nVENC. HABILITACIÓN: 2028-01-02\nESTADO: VIGENTE\nOBSERVACIONES: POSEE HABILITACION VIGENTE CON FECHA DE L 02/01/28","icon-opacity":"1","icon-color":"#7cb342","icon-scale":"1","icon-offset":"[32,64]","icon-offset-units":"[\"pixels\",\"insetPixels\"]","icon":"https://www.gstatic.com/mapspro/images/stock/503-wht-blank_maps.png","Descripción":"LANET SOCIEDAD SIMPLE\nPROVEEDORES DE INTERNET\nSOLER 225, Chascomús, Buenos Aires\nBarrio: CENTRO\nPadrón: A6-0406\nEstado: VIGENTE","NOMBRE / COMERCIO":"LANET SOCIEDAD SIMPLE","CUIT":"33-71734844-9","CONTACTO":"2241671470","CATEGORÍA FISCAL":"SS","DIRECCIÓN":"SOLER 225","BARRIO":"CENTRO","RUBRO":"PROVEEDORES DE INTERNET","RUBRO NORMALIZADO":"PROVEEDORES DE INTERNET","CATEGORIA":"TECNOLOGÍA Y COMUNICACIONES","PADRÓN N°":"A6-0406","INSPECTOR/A":"SOFIA- IRMA","ÚLTIMA VISITA":"2025-12-17","VENC. HABILITACIÓN":"02/01/2028","ESTADO":"VIGENTE","OBSERVACIONES":"POSEE HABILITACION VIGENTE CON FECHA DE L 02/01/28"}},{"type":"Feature","geometry":{"type":"Point","coordinates":[-58.014354,-35.577611,0]},"properties":{"name":"VENTA INTERNET","description":{"@type":"html","value":"descripción: Descripción: MAG VIRTUAL<br>VENTA INTERNET<br><br><br>styleUrl: #icon-1899-7CB342<br>icon-opacity: 1<br>icon-color: #7cb342<br>icon-scale: 1<br>icon-offset: [32,64]<br>icon-offset-units: [\"pixels\",\"insetPixels\"]<br>icon: https://www.gstatic.com/mapspro/images/stock/503-wht-blank_maps.png<br>Descripción: MAG VIRTUAL<br>VENTA INTERNET<br>LASTRA 427, Chascomús, Buenos Aires<br>Barrio: CENTRO<br>Padrón: A6-0304<br>Estado: SIN FECHA<br>NOMBRE / COMERCIO: MAG VIRTUAL<br>CUIT: 30-70869912-4<br>CONTACTO: 1150209880<br>CATEGORÍA FISCAL: SA<br>DIRECCIÓN: LASTRA 427<br>BARRIO: CENTRO<br>RUBRO: VENTA INTERNET<br>RUBRO NORMALIZADO: VENTA INTERNET<br>CATEGORIA: TECNOLOGÍA Y COMUNICACIONES<br>PADRÓN N°: A6-0304<br>INSPECTOR/A: SOFIA- IRMA<br>ÚLTIMA VISITA: 2024-09-17<br>VENC. HABILITACIÓN: 10/05/2026<br>ESTADO: VENCIDA<br>OBSERVACIONES: HAB PROV 12-10-2024"},"styleUrl":"#icon-1899-7CB342","label-scale":0,"icon-opacity":"1","icon-color":"#7cb342","icon-scale":"1","icon-offset":"[32,64]","icon-offset-units":"[\"pixels\",\"insetPixels\"]","icon":"https://www.gstatic.com/mapspro/images/stock/503-wht-blank_maps.png","descripción":"Descripción: MAG VIRTUAL\nVENTA INTERNET\n\n","Descripción":"MAG VIRTUAL\nVENTA INTERNET\nLASTRA 427, Chascomús, Buenos Aires\nBarrio: CENTRO\nPadrón: A6-0304\nEstado: SIN FECHA","NOMBRE / COMERCIO":"MAG VIRTUAL","CUIT":"30-70869912-4","CONTACTO":"1150209880","CATEGORÍA FISCAL":"SA","DIRECCIÓN":"LASTRA 427","BARRIO":"CENTRO","RUBRO":"VENTA INTERNET","RUBRO NORMALIZADO":"VENTA INTERNET","CATEGORIA":"TECNOLOGÍA Y COMUNICACIONES","PADRÓN N°":"A6-0304","INSPECTOR/A":"SOFIA- IRMA","ÚLTIMA VISITA":"2024-09-17","VENC. HABILITACIÓN":"10/05/2026","ESTADO":"VENCIDA","OBSERVACIONES":"HAB PROV 12-10-2024"}},{"type":"Feature","geometry":{"type":"Point","coordinates":[-58.014354,-35.577611,0]},"properties":{"name":"SERVICIO INTERNET","description":{"@type":"html","value":"descripción: Descripción: MAGDALENA VIRTUAL<br>SERVICIO INTERNET<br>LASTRA 427, Chascomús, Buenos Aires<br>Barrio: CENTRO<br>Padrón: A6-00304<br>Estado: VENCIDA<br>NOMBRE / COMERCIO: MAGDALENA VIRTUAL<br>CUIT: 30-70869912-4<br>CONTACTO: 1150209880<br>CATEGORÍA FISCAL: SA<br>DIRECCIÓN: LASTRA 427<br>BARRIO: CENTRO<br>RUBRO: SERVICIO INTERNET<br>RUBRO NORMALIZADO: SERVICIO INTERNET<br>CATEGORIA: TECNOLOGÍA Y COMUNICACIONES<br>PADRÓN N°: A6-00304<br>INSPECTOR/A: SOFIA- IRMA<br>ÚLTIMA VISITA: 2025-12-19<br>VENC. HABILITACIÓN: 10/05/2026<br>ESTADO: VENCIDA<br>OBSERVACIONES: SE OTORGA PLAZO PARA REGULARIZAR<br>styleUrl: #icon-1899-7CB342<br>icon-opacity: 1<br>icon-color: #7cb342<br>icon-scale: 1<br>icon-offset: [32,64]<br>icon-offset-units: [\"pixels\",\"insetPixels\"]<br>icon: https://www.gstatic.com/mapspro/images/stock/503-wht-blank_maps.png<br>Descripción: MAGDALENA VIRTUAL<br>SERVICIO INTERNET<br>LASTRA 427, Chascomús, Buenos Aires<br>Barrio: CENTRO<br>Padrón: A6-00304<br>Estado: VENCIDA<br>NOMBRE / COMERCIO: MAGDALENA VIRTUAL<br>CUIT: 30-70869912-4<br>CONTACTO: 1150209880<br>CATEGORÍA FISCAL: SA<br>DIRECCIÓN: LASTRA 427<br>BARRIO: CENTRO<br>RUBRO: SERVICIO INTERNET<br>RUBRO NORMALIZADO: SERVICIO INTERNET<br>CATEGORIA: TECNOLOGÍA Y COMUNICACIONES<br>PADRÓN N°: A6-00304<br>INSPECTOR/A: SOFIA- IRMA<br>ÚLTIMA VISITA: 2025-12-19<br>VENC. HABILITACIÓN: 10/05/2026<br>ESTADO: VENCIDA<br>OBSERVACIONES: SE OTORGA PLAZO PARA REGULARIZAR"},"styleUrl":"#icon-1899-7CB342","label-scale":0,"icon-opacity":"1","icon-color":"#7cb342","icon-scale":"1","icon-offset":"[32,64]","icon-offset-units":"[\"pixels\",\"insetPixels\"]","icon":"https://www.gstatic.com/mapspro/images/stock/503-wht-blank_maps.png","descripción":"Descripción: MAGDALENA VIRTUAL\nSERVICIO INTERNET\nLASTRA 427, Chascomús, Buenos Aires\nBarrio: CENTRO\nPadrón: A6-00304\nEstado: VENCIDA\nNOMBRE / COMERCIO: MAGDALENA VIRTUAL\nCUIT: 30-70869912-4\nCONTACTO: 1150209880\nCATEGORÍA FISCAL: SA\nDIRECCIÓN: LASTRA 427, Chascomús, Buenos Aires\nBARRIO: CENTRO\nRUBRO: SERVICIO INTERNET\nRUBRO NORMALIZADO: SERVICIO INTERNET\nCATEGORIA: TECNOLOGÍA Y COMUNICACIONES\nPADRÓN N°: A6-00304\nINSPECTOR/A: SOFIA- IRMA\nÚLTIMA VISITA: 2025-12-19\nVENC. HABILITACIÓN: 2024-10-12\nESTADO: VENCIDA\nOBSERVACIONES: SE OTORGA PLAZO PARA REGULARIZAR","Descripción":"MAGDALENA VIRTUAL\nSERVICIO INTERNET\nLASTRA 427, Chascomús, Buenos Aires\nBarrio: CENTRO\nPadrón: A6-00304\nEstado: VENCIDA","NOMBRE / COMERCIO":"MAGDALENA VIRTUAL","CUIT":"30-70869912-4","CONTACTO":"1150209880","CATEGORÍA FISCAL":"SA","DIRECCIÓN":"LASTRA 427","BARRIO":"CENTRO","RUBRO":"SERVICIO INTERNET","RUBRO NORMALIZADO":"SERVICIO INTERNET","CATEGORIA":"TECNOLOGÍA Y COMUNICACIONES","PADRÓN N°":"A6-00304","INSPECTOR/A":"SOFIA- IRMA","ÚLTIMA VISITA":"2025-12-19","VENC. HABILITACIÓN":"10/05/2026","ESTADO":"VENCIDA","OBSERVACIONES":"SE OTORGA PLAZO PARA REGULARIZAR"}},{"type":"Feature","geometry":{"type":"Point","coordinates":[-58.014514,-35.572751,0]},"properties":{"name":"VENTA CELULARES - BICICLETAS","description":{"@type":"html","value":"descripción: Descripción: MODA CEL SOC SIMPLE<br>VENTA CELULARES - BICICLETAS<br>LIBRES DEL SUR 79, Chascomús, Buenos Aires<br>Barrio: CENTRO<br>Padrón: A3-3598<br>Estado: VENCIDA<br>NOMBRE / COMERCIO: MODA CEL SOC SIMPLE<br>CUIT: 30-71541759-2<br>CONTACTO: 2241617233<br>CATEGORÍA FISCAL: OTRA<br>DIRECCIÓN: LIBRES DEL SUR 79<br>BARRIO: CENTRO<br>RUBRO: VENTA CELULARES - BICICLETAS<br>RUBRO NORMALIZADO: VENTA CELULARES<br>CATEGORIA: TECNOLOGÍA Y COMUNICACIONES<br>PADRÓN N°: A3-3598<br>INSPECTOR/A: SOFIA- IRMA<br>ÚLTIMA VISITA: 2025-09-05<br>VENC. HABILITACIÓN: 07/03/2025<br>ESTADO: VENCIDA<br>OBSERVACIONES: POSEE EQUIPO N° 96709 VTO 11/25 PH 11/27 QUE SE ENCUENTRAN EN TRAMITE. SE OTORGA PLAZO PARA CONTINUAR<br>styleUrl: #icon-1899-7CB342<br>icon-opacity: 1<br>icon-color: #7cb342<br>icon-scale: 1<br>icon-offset: [32,64]<br>icon-offset-units: [\"pixels\",\"insetPixels\"]<br>icon: https://www.gstatic.com/mapspro/images/stock/503-wht-blank_maps.png<br>Descripción: MODA CEL SOC SIMPLE<br>VENTA CELULARES - BICICLETAS<br>LIBRES DEL SUR 79, Chascomús, Buenos Aires<br>Barrio: CENTRO<br>Padrón: A3-3598<br>Estado: VENCIDA<br>NOMBRE / COMERCIO: MODA CEL SOC SIMPLE<br>CUIT: 30-71541759-2<br>CONTACTO: 2241617233<br>CATEGORÍA FISCAL: OTRA<br>DIRECCIÓN: LIBRES DEL SUR 79<br>BARRIO: CENTRO<br>RUBRO: VENTA CELULARES - BICICLETAS<br>RUBRO NORMALIZADO: VENTA CELULARES<br>CATEGORIA: TECNOLOGÍA Y COMUNICACIONES<br>PADRÓN N°: A3-3598<br>INSPECTOR/A: SOFIA- IRMA<br>ÚLTIMA VISITA: 2025-09-05<br>VENC. HABILITACIÓN: 07/03/2025<br>ESTADO: VENCIDA<br>OBSERVACIONES: POSEE EQUIPO N° 96709 VTO 11/25 PH 11/27 QUE SE ENCUENTRAN EN TRAMITE. SE OTORGA PLAZO PARA CONTINUAR"},"styleUrl":"#icon-1899-7CB342","label-scale":0,"icon-opacity":"1","icon-color":"#7cb342","icon-scale":"1","icon-offset":"[32,64]","icon-offset-units":"[\"pixels\",\"insetPixels\"]","icon":"https://www.gstatic.com/mapspro/images/stock/503-wht-blank_maps.png","descripción":"Descripción: MODA CEL SOC SIMPLE\nVENTA CELULARES - BICICLETAS\nLIBRES DEL SUR 79, Chascomús, Buenos Aires\nBarrio: CENTRO\nPadrón: A3-3598\nEstado: VENCIDA\nNOMBRE / COMERCIO: MODA CEL SOC SIMPLE\nCUIT: 30-71541759-2\nCONTACTO: 2241617233\nCATEGORÍA FISCAL: OTRA\nDIRECCIÓN: LIBRES DEL SUR 79, Chascomús, Buenos Aires\nBARRIO: CENTRO\nRUBRO: VENTA CELULARES - BICICLETAS\nRUBRO NORMALIZADO: VENTA CELULARES\nCATEGORIA: TECNOLOGÍA Y COMUNICACIONES\nPADRÓN N°: A3-3598\nINSPECTOR/A: SOFIA- IRMA\nÚLTIMA VISITA: 2025-09-05\nVENC. HABILITACIÓN: 2025-03-07\nESTADO: VENCIDA\nOBSERVACIONES: POSEE EQUIPO N° 96709 VTO 11/25 PH 11/27 QUE SE ENCUENTRAN EN TRAMITE. SE OTORGA PLAZO PARA CONTINUAR","Descripción":"MODA CEL SOC SIMPLE\nVENTA CELULARES - BICICLETAS\nLIBRES DEL SUR 79, Chascomús, Buenos Aires\nBarrio: CENTRO\nPadrón: A3-3598\nEstado: VENCIDA","NOMBRE / COMERCIO":"MODA CEL SOC SIMPLE","CUIT":"30-71541759-2","CONTACTO":"2241617233","CATEGORÍA FISCAL":"OTRA","DIRECCIÓN":"LIBRES DEL SUR 79","BARRIO":"CENTRO","RUBRO":"VENTA CELULARES - BICICLETAS","RUBRO NORMALIZADO":"VENTA CELULARES","CATEGORIA":"TECNOLOGÍA Y COMUNICACIONES","PADRÓN N°":"A3-3598","INSPECTOR/A":"SOFIA- IRMA","ÚLTIMA VISITA":"2025-09-05","VENC. HABILITACIÓN":"07/03/2025","ESTADO":"VENCIDA","OBSERVACIONES":"POSEE EQUIPO N° 96709 VTO 11/25 PH 11/27 QUE SE ENCUENTRAN EN TRAMITE. SE OTORGA PLAZO PARA CONTINUAR"}},{"type":"Feature","geometry":{"type":"Point","coordinates":[-58.016455,-35.56618,0]},"properties":{"name":"REPARAC CELULARES","description":{"@type":"html","value":"descripción: Descripción: PEROTTA JOSE LUIS<br>REPARAC CELULARES<br>BELGRANO 227, Chascomús, Buenos Aires<br>Barrio: CENTRO<br>Padrón: A3- 4226<br>Estado: VIGENTE<br>NOMBRE / COMERCIO: PEROTTA JOSE LUIS<br>CUIT: 20-22526271-4<br>CONTACTO: 2241467640<br>CATEGORÍA FISCAL: MONOTRIBUTISTA B<br>DIRECCIÓN: BELGRANO 227<br>BARRIO: CENTRO<br>RUBRO: REPARAC CELULARES<br>RUBRO NORMALIZADO: REPARAC CELULARES<br>CATEGORIA: TECNOLOGÍA Y COMUNICACIONES<br>PADRÓN N°: A3- 4226<br>INSPECTOR/A: SOFIA- IRMA<br>ÚLTIMA VISITA: 2025-11-07<br>VENC. HABILITACIÓN: 01/07/2028<br>ESTADO: VIGENTE<br>OBSERVACIONES: POSEE HABILITACION VIGENTE, EQUIPO 625182 VTO 9/26<br>styleUrl: #icon-1899-7CB342<br>icon-opacity: 1<br>icon-color: #7cb342<br>icon-scale: 1<br>icon-offset: [32,64]<br>icon-offset-units: [\"pixels\",\"insetPixels\"]<br>icon: https://www.gstatic.com/mapspro/images/stock/503-wht-blank_maps.png<br>Descripción: PEROTTA JOSE LUIS<br>REPARAC CELULARES<br>BELGRANO 227, Chascomús, Buenos Aires<br>Barrio: CENTRO<br>Padrón: A3- 4226<br>Estado: VIGENTE<br>NOMBRE / COMERCIO: PEROTTA JOSE LUIS<br>CUIT: 20-22526271-4<br>CONTACTO: 2241467640<br>CATEGORÍA FISCAL: MONOTRIBUTISTA B<br>DIRECCIÓN: BELGRANO 227<br>BARRIO: CENTRO<br>RUBRO: REPARAC CELULARES<br>RUBRO NORMALIZADO: REPARAC CELULARES<br>CATEGORIA: TECNOLOGÍA Y COMUNICACIONES<br>PADRÓN N°: A3- 4226<br>INSPECTOR/A: SOFIA- IRMA<br>ÚLTIMA VISITA: 2025-11-07<br>VENC. HABILITACIÓN: 01/07/2028<br>ESTADO: VIGENTE<br>OBSERVACIONES: POSEE HABILITACION VIGENTE, EQUIPO 625182 VTO 9/26"},"styleUrl":"#icon-1899-7CB342","descripción":"Descripción: PEROTTA JOSE LUIS\nREPARAC CELULARES\nBELGRANO 227, Chascomús, Buenos Aires\nBarrio: CENTRO\nPadrón: A3- 4226\nEstado: VIGENTE\nNOMBRE / COMERCIO: PEROTTA JOSE LUIS\nCUIT: 20-22526271-4\nCONTACTO: 2241467640\nCATEGORÍA FISCAL: MONOTRIBUTISTA B\nDIRECCIÓN: BELGRANO 227, Chascomús, Buenos Aires\nBARRIO: CENTRO\nRUBRO: REPARAC CELULARES\nRUBRO NORMALIZADO: REPARAC CELULARES\nCATEGORIA: TECNOLOGÍA Y COMUNICACIONES\nPADRÓN N°: A3- 4226\nINSPECTOR/A: SOFIA- IRMA\nÚLTIMA VISITA: 2025-11-07\nVENC. HABILITACIÓN: 2028-07-01\nESTADO: VIGENTE\nOBSERVACIONES: POSEE HABILITACION VIGENTE, EQUIPO 625182 VTO 9/26","icon-opacity":"1","icon-color":"#7cb342","icon-scale":"1","icon-offset":"[32,64]","icon-offset-units":"[\"pixels\",\"insetPixels\"]","icon":"https://www.gstatic.com/mapspro/images/stock/503-wht-blank_maps.png","Descripción":"PEROTTA JOSE LUIS\nREPARAC CELULARES\nBELGRANO 227, Chascomús, Buenos Aires\nBarrio: CENTRO\nPadrón: A3- 4226\nEstado: VIGENTE","NOMBRE / COMERCIO":"PEROTTA JOSE LUIS","CUIT":"20-22526271-4","CONTACTO":"2241467640","CATEGORÍA FISCAL":"MONOTRIBUTISTA B","DIRECCIÓN":"BELGRANO 227","BARRIO":"CENTRO","RUBRO":"REPARAC CELULARES","RUBRO NORMALIZADO":"REPARAC CELULARES","CATEGORIA":"TECNOLOGÍA Y COMUNICACIONES","PADRÓN N°":"A3- 4226","INSPECTOR/A":"SOFIA- IRMA","ÚLTIMA VISITA":"2025-11-07","VENC. HABILITACIÓN":"01/07/2028","ESTADO":"VIGENTE","OBSERVACIONES":"POSEE HABILITACION VIGENTE, EQUIPO 625182 VTO 9/26"}},{"type":"Feature","geometry":{"type":"Point","coordinates":[-58.019392,-35.57336,0]},"properties":{"name":"VENTA CONSOLAS","description":{"@type":"html","value":"descripción: Descripción: SIVES DIEGO EMILIO<br>VENTA CONSOLAS<br>BOLIVAR 214, Chascomús, Buenos Aires<br>Barrio: CENTRO<br>Padrón: A3-1964<br>Estado: VENCIDA<br>NOMBRE / COMERCIO: SIVES DIEGO EMILIO<br>CUIT: 20-27918471-9<br>CONTACTO: 2241497051<br>CATEGORÍA FISCAL: MONOTRIBUTISTA A<br>DIRECCIÓN: BOLIVAR 214<br>BARRIO: CENTRO<br>RUBRO: VENTA CONSOLAS<br>RUBRO NORMALIZADO: VENTA CONSOLAS<br>CATEGORIA: TECNOLOGÍA Y COMUNICACIONES<br>PADRÓN N°: A3-1964<br>INSPECTOR/A: ANIBAL<br>ÚLTIMA VISITA: 2026-06-09<br>VENC. HABILITACIÓN: 13/12/2024<br>ESTADO: VENCIDA<br>OBSERVACIONES: APTO<br>styleUrl: #icon-1899-7CB342<br>icon-opacity: 1<br>icon-color: #7cb342<br>icon-scale: 1<br>icon-offset: [32,64]<br>icon-offset-units: [\"pixels\",\"insetPixels\"]<br>icon: https://www.gstatic.com/mapspro/images/stock/503-wht-blank_maps.png<br>Descripción: SIVES DIEGO EMILIO<br>VENTA CONSOLAS<br>BOLIVAR 214, Chascomús, Buenos Aires<br>Barrio: CENTRO<br>Padrón: A3-1964<br>Estado: VENCIDA<br>NOMBRE / COMERCIO: SIVES DIEGO EMILIO<br>CUIT: 20-27918471-9<br>CONTACTO: 2241497051<br>CATEGORÍA FISCAL: MONOTRIBUTISTA A<br>DIRECCIÓN: BOLIVAR 214<br>BARRIO: CENTRO<br>RUBRO: VENTA CONSOLAS<br>RUBRO NORMALIZADO: VENTA CONSOLAS<br>CATEGORIA: TECNOLOGÍA Y COMUNICACIONES<br>PADRÓN N°: A3-1964<br>INSPECTOR/A: ANIBAL<br>ÚLTIMA VISITA: 2026-06-09<br>VENC. HABILITACIÓN: 13/12/2024<br>ESTADO: VENCIDA<br>OBSERVACIONES: POSEE HABILITACION COMERCIAL SEGUN ORDENANZA 3653/07 CON VTO. 13/12/24 (RENOVAR) PROVISORIA (OBRA NO CORRESPONDE A PLANO) SE DEJA PLAZO DE 15 DIAS"},"styleUrl":"#icon-1899-7CB342","label-scale":0,"icon-opacity":"1","icon-color":"#7cb342","icon-scale":"1","icon-offset":"[32,64]","icon-offset-units":"[\"pixels\",\"insetPixels\"]","icon":"https://www.gstatic.com/mapspro/images/stock/503-wht-blank_maps.png","descripción":"Descripción: SIVES DIEGO EMILIO\nVENTA CONSOLAS\nBOLIVAR 214, Chascomús, Buenos Aires\nBarrio: CENTRO\nPadrón: A3-1964\nEstado: VENCIDA\nNOMBRE / COMERCIO: SIVES DIEGO EMILIO\nCUIT: 20-27918471-9\nCONTACTO: 2241497051\nCATEGORÍA FISCAL: MONOTRIBUTISTA A\nDIRECCIÓN: BOLIVAR 214, Chascomús, Buenos Aires\nBARRIO: CENTRO\nRUBRO: VENTA CONSOLAS\nRUBRO NORMALIZADO: VENTA CONSOLAS\nCATEGORIA: TECNOLOGÍA Y COMUNICACIONES\nPADRÓN N°: A3-1964\nINSPECTOR/A: YANINA\nÚLTIMA VISITA: 2025-12-09\nVENC. HABILITACIÓN: 2024-12-13\nESTADO: VENCIDA\nOBSERVACIONES: POSEE HABILITACION COMERCIAL SEGUN ORDENANZA 3653/07 CON VTO. 13/12/24 (RENOVAR) PROVISORIA (OBRA NO CORRESPONDE A PLANO) SE DEJA PLAZO DE 15 DIAS","Descripción":"SIVES DIEGO EMILIO\nVENTA CONSOLAS\nBOLIVAR 214, Chascomús, Buenos Aires\nBarrio: CENTRO\nPadrón: A3-1964\nEstado: VENCIDA","NOMBRE / COMERCIO":"SIVES DIEGO EMILIO","CUIT":"20-27918471-9","CONTACTO":"2241497051","CATEGORÍA FISCAL":"MONOTRIBUTISTA A","DIRECCIÓN":"BOLIVAR 214","BARRIO":"CENTRO","RUBRO":"VENTA CONSOLAS","RUBRO NORMALIZADO":"VENTA CONSOLAS","CATEGORIA":"TECNOLOGÍA Y COMUNICACIONES","PADRÓN N°":"A3-1964","INSPECTOR/A":"ANIBAL","ÚLTIMA VISITA":"2026-06-09","VENC. HABILITACIÓN":"13/12/2024","ESTADO":"VENCIDA","OBSERVACIONES":"APTO"}},{"type":"Feature","geometry":{"type":"Point","coordinates":[-58.011102,-35.563515,0]},"properties":{"name":"SERV TV X CABLE","description":{"@type":"html","value":"descripción: Descripción: TELECOM ARGENTINA SA<br>SERV TV X CABLE<br>YRIGOYEN 74, Chascomús, Buenos Aires<br>Barrio: CENTRO<br>Padrón: A6-0333<br>Estado: VIGENTE<br>NOMBRE / COMERCIO: TELECOM ARGENTINA SA<br>CUIT: 30-63945373-8<br>CONTACTO: 1140689966<br>CATEGORÍA FISCAL: SA<br>DIRECCIÓN: YRIGOYEN 74<br>BARRIO: CENTRO<br>RUBRO: SERV TV X CABLE<br>RUBRO NORMALIZADO: SERV TV X CABLE<br>CATEGORIA: TECNOLOGÍA Y COMUNICACIONES<br>PADRÓN N°: A6-0333<br>INSPECTOR/A: YANINA<br>ÚLTIMA VISITA: 2025-08-13<br>VENC. HABILITACIÓN: 20/05/2027<br>ESTADO: VIGENTE<br>OBSERVACIONES: HABILITACION VIGENTE, SUJETO A PROXIMAS INSPECCIONES<br>styleUrl: #icon-1899-7CB342<br>icon-opacity: 1<br>icon-color: #7cb342<br>icon-scale: 1<br>icon-offset: [32,64]<br>icon-offset-units: [\"pixels\",\"insetPixels\"]<br>icon: https://www.gstatic.com/mapspro/images/stock/503-wht-blank_maps.png<br>Descripción: TELECOM ARGENTINA SA<br>SERV TV X CABLE<br>YRIGOYEN 74, Chascomús, Buenos Aires<br>Barrio: CENTRO<br>Padrón: A6-0333<br>Estado: VIGENTE<br>NOMBRE / COMERCIO: TELECOM ARGENTINA SA<br>CUIT: 30-63945373-8<br>CONTACTO: 1140689966<br>CATEGORÍA FISCAL: SA<br>DIRECCIÓN: YRIGOYEN 74<br>BARRIO: CENTRO<br>RUBRO: SERV TV X CABLE<br>RUBRO NORMALIZADO: SERV TV X CABLE<br>CATEGORIA: TECNOLOGÍA Y COMUNICACIONES<br>PADRÓN N°: A6-0333<br>INSPECTOR/A: YANINA<br>ÚLTIMA VISITA: 2025-08-13<br>VENC. HABILITACIÓN: 20/05/2027<br>ESTADO: VIGENTE<br>OBSERVACIONES: HABILITACION VIGENTE, SUJETO A PROXIMAS INSPECCIONES"},"styleUrl":"#icon-1899-7CB342","descripción":"Descripción: TELECOM ARGENTINA SA\nSERV TV X CABLE\nYRIGOYEN 74, Chascomús, Buenos Aires\nBarrio: CENTRO\nPadrón: A6-0333\nEstado: VIGENTE\nNOMBRE / COMERCIO: TELECOM ARGENTINA SA\nCUIT: 30-63945373-8\nCONTACTO: 1140689966\nCATEGORÍA FISCAL: SA\nDIRECCIÓN: YRIGOYEN 74, Chascomús, Buenos Aires\nBARRIO: CENTRO\nRUBRO: SERV TV X CABLE\nRUBRO NORMALIZADO: SERV TV X CABLE\nCATEGORIA: TECNOLOGÍA Y COMUNICACIONES\nPADRÓN N°: A6-0333\nINSPECTOR/A: YANINA\nÚLTIMA VISITA: 2025-08-13\nVENC. HABILITACIÓN: 2027-05-20\nESTADO: VIGENTE\nOBSERVACIONES: HABILITACION VIGENTE, SUJETO A PROXIMAS INSPECCIONES","icon-opacity":"1","icon-color":"#7cb342","icon-scale":"1","icon-offset":"[32,64]","icon-offset-units":"[\"pixels\",\"insetPixels\"]","icon":"https://www.gstatic.com/mapspro/images/stock/503-wht-blank_maps.png","Descripción":"TELECOM ARGENTINA SA\nSERV TV X CABLE\nYRIGOYEN 74, Chascomús, Buenos Aires\nBarrio: CENTRO\nPadrón: A6-0333\nEstado: VIGENTE","NOMBRE / COMERCIO":"TELECOM ARGENTINA SA","CUIT":"30-63945373-8","CONTACTO":"1140689966","CATEGORÍA FISCAL":"SA","DIRECCIÓN":"YRIGOYEN 74","BARRIO":"CENTRO","RUBRO":"SERV TV X CABLE","RUBRO NORMALIZADO":"SERV TV X CABLE","CATEGORIA":"TECNOLOGÍA Y COMUNICACIONES","PADRÓN N°":"A6-0333","INSPECTOR/A":"YANINA","ÚLTIMA VISITA":"2025-08-13","VENC. HABILITACIÓN":"20/05/2027","ESTADO":"VIGENTE","OBSERVACIONES":"HABILITACION VIGENTE, SUJETO A PROXIMAS INSPECCIONES"}},{"type":"Feature","geometry":{"type":"Point","coordinates":[-58.008814,-35.567962,0]},"properties":{"name":"REPARACION ELECTROOMESTICOS","description":{"@type":"html","value":"descripción: Descripción: CIUCI GUSTAVO JOSE<br>REPARACION ELECTRODOMESTICOS<br>MACHADO 587, Chascomús, Buenos Aires<br>Barrio: EL HUECO<br>Padrón: A1-0101<br>Estado: VENCIDA<br>NOMBRE / COMERCIO: CIUCI GUSTAVO JOSE<br>CUIT: 20-13934803-7<br>CONTACTO: 2241579227<br>CATEGORÍA FISCAL: MONOTRIBUTISTA A<br>DIRECCIÓN: MACHADO 587<br>BARRIO: EL HUECO<br>RUBRO: REPARACION ELECTROOMESTICOS<br>RUBRO NORMALIZADO: REPARACION ELECTRODOMESTICOS<br>CATEGORIA: TECNOLOGÍA Y COMUNICACIONES<br>PADRÓN N°: A1-0101<br>INSPECTOR/A: <br>ÚLTIMA VISITA: <br>VENC. HABILITACIÓN: 15/03/2026<br>ESTADO: VENCIDA<br>OBSERVACIONES: OBRA NO  CONFORME A PLANO<br>styleUrl: #icon-1899-C2185B<br>icon-opacity: 1<br>icon-color: #c2185b<br>icon-scale: 1<br>icon-offset: [32,64]<br>icon-offset-units: [\"pixels\",\"insetPixels\"]<br>icon: https://www.gstatic.com/mapspro/images/stock/503-wht-blank_maps.png<br>Descripción: CIUCI GUSTAVO JOSE<br>REPARACION ELECTRODOMESTICOS<br>MACHADO 587, Chascomús, Buenos Aires<br>Barrio: EL HUECO<br>Padrón: A1-0101<br>Estado: VENCIDA<br>NOMBRE / COMERCIO: CIUCI GUSTAVO JOSE<br>CUIT: 20-13934803-7<br>CONTACTO: 2241579227<br>CATEGORÍA FISCAL: MONOTRIBUTISTA A<br>DIRECCIÓN: MACHADO 587<br>BARRIO: EL HUECO<br>RUBRO: REPARACION ELECTROOMESTICOS<br>RUBRO NORMALIZADO: REPARACION ELECTRODOMESTICOS<br>CATEGORIA: TECNOLOGÍA Y COMUNICACIONES<br>PADRÓN N°: A1-0101<br>INSPECTOR/A: <br>ÚLTIMA VISITA: <br>VENC. HABILITACIÓN: 15/03/2026<br>ESTADO: VENCIDA<br>OBSERVACIONES: OBRA NO  CONFORME A PLANO"},"styleUrl":"#icon-1899-C2185B","label-scale":0,"icon-opacity":"1","icon-color":"#c2185b","icon-scale":"1","icon-offset":"[32,64]","icon-offset-units":"[\"pixels\",\"insetPixels\"]","icon":"https://www.gstatic.com/mapspro/images/stock/503-wht-blank_maps.png","descripción":"Descripción: CIUCI GUSTAVO JOSE\nREPARACION ELECTRODOMESTICOS\nMACHADO 587, Chascomús, Buenos Aires\nBarrio: EL HUECO\nPadrón: A1-0101\nEstado: VENCIDA\nNOMBRE / COMERCIO: CIUCI GUSTAVO JOSE\nCUIT: 20-13934803-7\nCONTACTO: 2241579227\nCATEGORÍA FISCAL: MONOTRIBUTISTA A\nDIRECCIÓN: MACHADO 587, Chascomús, Buenos Aires\nBARRIO: EL HUECO\nRUBRO: REPARACION ELECTRODOMESTICOS\nRUBRO NORMALIZADO: REPARACION ELECTRODOMESTICOS\nCATEGORIA: TECNOLOGÍA Y COMUNICACIONES\nPADRÓN N°: A1-0101\nINSPECTOR/A: \nÚLTIMA VISITA: NaT\nVENC. HABILITACIÓN: 2026-03-15\nESTADO: VENCIDA\nOBSERVACIONES: OBRA NO  CONFORME A PLANO","Descripción":"CIUCI GUSTAVO JOSE\nREPARACION ELECTRODOMESTICOS\nMACHADO 587, Chascomús, Buenos Aires\nBarrio: EL HUECO\nPadrón: A1-0101\nEstado: VENCIDA","NOMBRE / COMERCIO":"CIUCI GUSTAVO JOSE","CUIT":"20-13934803-7","CONTACTO":"2241579227","CATEGORÍA FISCAL":"MONOTRIBUTISTA A","DIRECCIÓN":"MACHADO 587","BARRIO":"EL HUECO","RUBRO":"REPARACION ELECTROOMESTICOS","RUBRO NORMALIZADO":"REPARACION ELECTRODOMESTICOS","CATEGORIA":"TECNOLOGÍA Y COMUNICACIONES","PADRÓN N°":"A1-0101","INSPECTOR/A":"","ÚLTIMA VISITA":"NaT","VENC. HABILITACIÓN":"15/03/2026","ESTADO":"VENCIDA","OBSERVACIONES":"OBRA NO  CONFORME A PLANO"}},{"type":"Feature","geometry":{"type":"Point","coordinates":[-57.987328,-35.570584,0]},"properties":{"name":"VENTA ART P CELULARE  Y REPARACION","description":{"@type":"html","value":"descripción: Descripción: DI BENEDETTO CARLOS<br>VENTA ART P CELULARE  Y REPARACION<br>GARAY 55, Chascomús, Buenos Aires<br>Barrio: EL HUECO<br>Padrón: A3-4524<br>Estado: VENCIDA<br>NOMBRE / COMERCIO: DI BENEDETTO CARLOS<br>CUIT: 23-30620803-9<br>CONTACTO: <br>CATEGORÍA FISCAL: RESPONSABLE INSCRIPTO<br>DIRECCIÓN: GARAY 55<br>BARRIO: EL HUECO<br>RUBRO: VENTA ART P CELULARE  Y REPARACION<br>RUBRO NORMALIZADO: VENTA ART P CELULARE  Y REPARACION<br>CATEGORIA: TECNOLOGÍA Y COMUNICACIONES<br>PADRÓN N°: A3-4524<br>INSPECTOR/A: SOFIA- IRMA<br>ÚLTIMA VISITA: 2025-09-12<br>VENC. HABILITACIÓN: 29/11/2027<br>ESTADO: VIGENTE<br>OBSERVACIONES: SE OTORGA PLAZO PARA REGULARIZAR SU HBAILITACION.<br>styleUrl: #icon-1899-C2185B<br>icon-opacity: 1<br>icon-color: #c2185b<br>icon-scale: 1<br>icon-offset: [32,64]<br>icon-offset-units: [\"pixels\",\"insetPixels\"]<br>icon: https://www.gstatic.com/mapspro/images/stock/503-wht-blank_maps.png<br>Descripción: DI BENEDETTO CARLOS<br>VENTA ART P CELULARE  Y REPARACION<br>GARAY 55, Chascomús, Buenos Aires<br>Barrio: EL HUECO<br>Padrón: A3-4524<br>Estado: VENCIDA<br>NOMBRE / COMERCIO: DI BENEDETTO CARLOS<br>CUIT: 23-30620803-9<br>CONTACTO: <br>CATEGORÍA FISCAL: RESPONSABLE INSCRIPTO<br>DIRECCIÓN: GARAY 55<br>BARRIO: EL HUECO<br>RUBRO: VENTA ART P CELULARE  Y REPARACION<br>RUBRO NORMALIZADO: VENTA ART P CELULARE  Y REPARACION<br>CATEGORIA: TECNOLOGÍA Y COMUNICACIONES<br>PADRÓN N°: A3-4524<br>INSPECTOR/A: SOFIA- IRMA<br>ÚLTIMA VISITA: 2025-09-12<br>VENC. HABILITACIÓN: 29/11/2027<br>ESTADO: VIGENTE<br>OBSERVACIONES: SE OTORGA PLAZO PARA REGULARIZAR SU HBAILITACION."},"styleUrl":"#icon-1899-C2185B","descripción":"Descripción: DI BENEDETTO CARLOS\nVENTA ART P CELULARE  Y REPARACION\nGARAY 55, Chascomús, Buenos Aires\nBarrio: EL HUECO\nPadrón: A3-4524\nEstado: VENCIDA\nNOMBRE / COMERCIO: DI BENEDETTO CARLOS\nCUIT: 23-30620803-9\nCONTACTO: 2241576258\nCATEGORÍA FISCAL: RESPONSABLE INSCRIPTO\nDIRECCIÓN: GARAY 55, Chascomús, Buenos Aires\nBARRIO: EL HUECO\nRUBRO: VENTA ART P CELULARE  Y REPARACION\nRUBRO NORMALIZADO: VENTA ART P CELULARE  Y REPARACION\nCATEGORIA: TECNOLOGÍA Y COMUNICACIONES\nPADRÓN N°: A3-4524\nINSPECTOR/A: SOFIA- IRMA\nÚLTIMA VISITA: 2025-09-12\nVENC. HABILITACIÓN: 2025-03-08\nESTADO: VENCIDA\nOBSERVACIONES: SE OTORGA PLAZO PARA REGULARIZAR SU HBAILITACION.","icon-opacity":"1","icon-color":"#c2185b","icon-scale":"1","icon-offset":"[32,64]","icon-offset-units":"[\"pixels\",\"insetPixels\"]","icon":"https://www.gstatic.com/mapspro/images/stock/503-wht-blank_maps.png","Descripción":"DI BENEDETTO CARLOS\nVENTA ART P CELULARE  Y REPARACION\nGARAY 55, Chascomús, Buenos Aires\nBarrio: EL HUECO\nPadrón: A3-4524\nEstado: VENCIDA","NOMBRE / COMERCIO":"DI BENEDETTO CARLOS","CUIT":"23-30620803-9","CONTACTO":"2241576258","CATEGORÍA FISCAL":"RESPONSABLE INSCRIPTO","DIRECCIÓN":"GARAY 55","BARRIO":"EL HUECO","RUBRO":"VENTA ART P CELULARE  Y REPARACION","RUBRO NORMALIZADO":"VENTA ART P CELULARE  Y REPARACION","CATEGORIA":"TECNOLOGÍA Y COMUNICACIONES","PADRÓN N°":"A3-4524","INSPECTOR/A":"SOFIA- IRMA","ÚLTIMA VISITA":"2025-09-12","VENC. HABILITACIÓN":"29/11/2027","ESTADO":"VIGENTE","OBSERVACIONES":"SE OTORGA PLAZO PARA REGULARIZAR SU HBAILITACION."}}]}