{"type": "FeatureCollection", "features": [{"type": "Feature", "geometry": {"type": "Point", "coordinates": [-58.014514, -35.572751, 0]}, "properties": {"name": "AGENCIA REMIS", "description": {"@type": "html", "value": "descripción: Descripción: BENEDETTI MYRIAM PAOLA<br>AGENCIA DE REMIS<br>LIBRES DEL SUR 230, Chascomús, Buenos Aires<br>Barrio: CENTRO<br>Padrón: A4-0491<br>Estado: SIN FECHA<br>NOMBRE / COMERCIO: BENEDETTI MYRIAM PAOLA<br>CUIT: 23263184734<br>CONTACTO: 2241441136<br>CATEGORÍA FISCAL: MONOTRIBUTISTA G<br>DIRECCIÓN: LIBRES  DEL SUR 230<br>BARRIO: CENTRO<br>RUBRO: AGENCIA REMIS<br>RUBRO NORMALIZADO: AGENCIA DE REMIS<br>CATEGORIA: TRANSPORTE<br>PADRÓN N°: A4-0491<br>INSPECTOR/A: YANINA<br>ÚLTIMA VISITA: 2026-05-06<br>VENC. HABILITACIÓN: 25/01/2023<br>ESTADO: VENCIDA<br>OBSERVACIONES: <br>styleUrl: #icon-1899-7CB342<br>NOMBRE / COMERCIO: BENEDETTI MYRIAM PAOLA<br>CUIT: 23263184734<br>CONTACTO: 2241441136<br>CATEGORÍA FISCAL: MONOTRIBUTISTA G<br>DIRECCIÓN: LIBRES  DEL SUR 230<br>BARRIO: CENTRO<br>RUBRO: AGENCIA REMIS<br>CATEGORIA: TRANSPORTE<br>PADRÓN N°: A4-0491<br>INSPECTOR/A: YANINA<br>ÚLTIMA VISITA: 2026-05-06<br>VENC. HABILITACIÓN: 25/01/2023<br>ESTADO: VENCIDA<br>OBSERVACIONES: <br>COORDENADAS: <br>icon-opacity: 1<br>icon-color: #7cb342<br>icon-scale: 1<br>icon-offset: [32,64]<br>icon-offset-units: [\"pixels\",\"insetPixels\"]<br>icon: https://www.gstatic.com/mapspro/images/stock/503-wht-blank_maps.png<br>Descripción: BENEDETTI MYRIAM PAOLA<br>AGENCIA DE REMIS<br>LIBRES DEL SUR 230, Chascomús, Buenos Aires<br>Barrio: CENTRO<br>Padrón: A4-0491<br>Estado: SIN FECHA<br>RUBRO NORMALIZADO: AGENCIA DE REMIS"}, "styleUrl": "#icon-1899-7CB342", "label-scale": 0, "icon-opacity": "1", "icon-color": "#7cb342", "icon-scale": "1", "icon-offset": "[32,64]", "icon-offset-units": "[\"pixels\",\"insetPixels\"]", "icon": "https://www.gstatic.com/mapspro/images/stock/503-wht-blank_maps.png", "descripción": "Descripción: BENEDETTI MYRIAM PAOLA\nAGENCIA DE REMIS\nLIBRES DEL SUR 230, Chascomús, Buenos Aires\nBarrio: CENTRO\nPadrón: A4-0491\nEstado: SIN FECHA\nNOMBRE / COMERCIO: BENEDETTI MYRIAM PAOLA\nCUIT: 23263184734\nCONTACTO: 2241441136\nCATEGORÍA FISCAL: MONOTRIBUTISTA G\nDIRECCIÓN: LIBRES DEL SUR 230, Chascomús, Buenos Aires\nBARRIO: CENTRO\nRUBRO: AGENCIA DE REMIS\nRUBRO NORMALIZADO: AGENCIA DE REMIS\nCATEGORIA: TRANSPORTE\nPADRÓN N°: A4-0491\nINSPECTOR/A: YANINA\nÚLTIMA VISITA: 2024-08-16\nVENC. HABILITACIÓN: NaT\nESTADO: SIN FECHA\nOBSERVACIONES: REGULARIZAR SITUACION", "NOMBRE / COMERCIO": "BENEDETTI MYRIAM PAOLA", "CUIT": "23263184734", "CONTACTO": "2241441136", "CATEGORÍA FISCAL": "MONOTRIBUTISTA G", "DIRECCIÓN": "LIBRES  DEL SUR 230", "BARRIO": "CENTRO", "RUBRO": "AGENCIA REMIS", "CATEGORIA": "TRANSPORTE", "PADRÓN N°": "A4-0491", "INSPECTOR/A": "YANINA", "ÚLTIMA VISITA": "2026-05-06", "VENC. HABILITACIÓN": "25/01/2023", "ESTADO": "VENCIDA", "OBSERVACIONES": "REGULARIZAR SITUACION", "COORDENADAS": "", "Descripción": "BENEDETTI MYRIAM PAOLA\nAGENCIA DE REMIS\nLIBRES DEL SUR 230, Chascomús, Buenos Aires\nBarrio: CENTRO\nPadrón: A4-0491\nEstado: SIN FECHA", "RUBRO NORMALIZADO": "AGENCIA DE REMIS"}}, {"type": "Feature", "geometry": {"type": "Point", "coordinates": [-58.016933, -35.5578, 0]}, "properties": {"name": "REMISERIA", "description": {"@type": "html", "value": "descripción: Descripción: BURGOS JORGE/JB REMIS<br>REMISERIA<br>LIBRES DEL SUR 485, Chascomús, Buenos Aires<br>Barrio: CENTRO<br>Padrón: A4-0764<br>Estado: VIGENTE<br>NOMBRE / COMERCIO: BURGOS JORGE/JB REMIS<br>CUIT: 20-32839177-6<br>CONTACTO: 1121833415<br>CATEGORÍA FISCAL: MONOTRIBUTISTA H<br>DIRECCIÓN: L DEL SUR 485<br>BARRIO: CENTRO<br>RUBRO: REMISERIA<br>RUBRO NORMALIZADO: REMISERIA<br>CATEGORIA: TRANSPORTE<br>PADRÓN N°: A4-0764<br>INSPECTOR/A: SOFIA- IRMA<br>ÚLTIMA VISITA: 2025-10-02<br>VENC. HABILITACIÓN: 17/07/2027<br>ESTADO: VIGENTE<br>OBSERVACIONES: HABILITACION VIGENTE<br>styleUrl: #icon-1899-7CB342<br>NOMBRE / COMERCIO: BURGOS JORGE/JB REMIS<br>CUIT: 20-32839177-6<br>CONTACTO: 1121833415<br>CATEGORÍA FISCAL: MONOTRIBUTISTA H<br>DIRECCIÓN: L DEL SUR 485<br>BARRIO: CENTRO<br>RUBRO: REMISERIA<br>CATEGORIA: TRANSPORTE<br>PADRÓN N°: A4-0764<br>INSPECTOR/A: SOFIA- IRMA<br>ÚLTIMA VISITA: 2025-10-02<br>VENC. HABILITACIÓN: 17/07/2027<br>ESTADO: VIGENTE<br>OBSERVACIONES: HABILITACION VIGENTE<br>COORDENADAS: <br>icon-opacity: 1<br>icon-color: #7cb342<br>icon-scale: 1<br>icon-offset: [32,64]<br>icon-offset-units: [\"pixels\",\"insetPixels\"]<br>icon: https://www.gstatic.com/mapspro/images/stock/503-wht-blank_maps.png<br>Descripción: BURGOS JORGE/JB REMIS<br>REMISERIA<br>LIBRES DEL SUR 485, Chascomús, Buenos Aires<br>Barrio: CENTRO<br>Padrón: A4-0764<br>Estado: VIGENTE<br>RUBRO NORMALIZADO: REMISERIA"}, "styleUrl": "#icon-1899-7CB342", "label-scale": 0, "icon-opacity": "1", "icon-color": "#7cb342", "icon-scale": "1", "icon-offset": "[32,64]", "icon-offset-units": "[\"pixels\",\"insetPixels\"]", "icon": "https://www.gstatic.com/mapspro/images/stock/503-wht-blank_maps.png", "descripción": "Descripción: BURGOS JORGE/JB REMIS\nREMISERIA\nLIBRES DEL SUR 485, Chascomús, Buenos Aires\nBarrio: CENTRO\nPadrón: A4-0764\nEstado: VIGENTE\nNOMBRE / COMERCIO: BURGOS JORGE/JB REMIS\nCUIT: 20-32839177-6\nCONTACTO: 1121833415\nCATEGORÍA FISCAL: MONOTRIBUTISTA H\nDIRECCIÓN: LIBRES DEL SUR 485, Chascomús, Buenos Aires\nBARRIO: CENTRO\nRUBRO: REMISERIA\nRUBRO NORMALIZADO: REMISERIA\nCATEGORIA: TRANSPORTE\nPADRÓN N°: A4-0764\nINSPECTOR/A: SOFIA- IRMA\nÚLTIMA VISITA: 2025-10-02\nVENC. HABILITACIÓN: 2027-07-17\nESTADO: VIGENTE\nOBSERVACIONES: HABILITACION VIGENTE", "NOMBRE / COMERCIO": "BURGOS JORGE/JB REMIS", "CUIT": "20-32839177-6", "CONTACTO": "1121833415", "CATEGORÍA FISCAL": "MONOTRIBUTISTA H", "DIRECCIÓN": "L DEL SUR 485", "BARRIO": "CENTRO", "RUBRO": "REMISERIA", "CATEGORIA": "TRANSPORTE", "PADRÓN N°": "A4-0764", "INSPECTOR/A": "SOFIA- IRMA", "ÚLTIMA VISITA": "2025-10-02", "VENC. HABILITACIÓN": "17/07/2027", "ESTADO": "VIGENTE", "OBSERVACIONES": "HABILITACION VIGENTE", "COORDENADAS": "", "Descripción": "BURGOS JORGE/JB REMIS\nREMISERIA\nLIBRES DEL SUR 485, Chascomús, Buenos Aires\nBarrio: CENTRO\nPadrón: A4-0764\nEstado: VIGENTE", "RUBRO NORMALIZADO": "REMISERIA"}}, {"type": "Feature", "geometry": {"type": "Point", "coordinates": [-58.013202, -35.574573, 0]}, "properties": {"name": "REMISERIA", "description": {"@type": "html", "value": "descripción: Descripción: ECKERDT ROCIO DEL CIELO<br>REMISERIA<br>REMEDIOS DE ESCALADA 166, Chascomús, Buenos Aires<br>Barrio: CENTRO<br>Padrón: A4-0765<br>Estado: VIGENTE<br>NOMBRE / COMERCIO: ECKERDT ROCIO DEL CIELO<br>CUIT: 27-39716468-9<br>CONTACTO: 2241687897<br>CATEGORÍA FISCAL: NO REGISTRA IMPUESTOS ACTIVOS<br>DIRECCIÓN: REMEDIOS DE ESCALADA 166<br>BARRIO: CENTRO<br>RUBRO: REMISERIA<br>RUBRO NORMALIZADO: REMISERIA<br>CATEGORIA: TRANSPORTE<br>PADRÓN N°: A4-0765<br>INSPECTOR/A: SOFIA- IRMA<br>ÚLTIMA VISITA: 2025-12-15<br>VENC. HABILITACIÓN: 26/07/2027<br>ESTADO: VIGENTE<br>OBSERVACIONES: POSEE HABILITACION  VIGENTE<br>styleUrl: #icon-1899-7CB342<br>NOMBRE / COMERCIO: ECKERDT ROCIO DEL CIELO<br>CUIT: 27-39716468-9<br>CONTACTO: 2241687897<br>CATEGORÍA FISCAL: NO REGISTRA IMPUESTOS ACTIVOS<br>DIRECCIÓN: REMEDIOS DE ESCALADA 166<br>BARRIO: CENTRO<br>RUBRO: REMISERIA<br>CATEGORIA: TRANSPORTE<br>PADRÓN N°: A4-0765<br>INSPECTOR/A: SOFIA- IRMA<br>ÚLTIMA VISITA: 2025-12-15<br>VENC. HABILITACIÓN: 26/07/2027<br>ESTADO: VIGENTE<br>OBSERVACIONES: POSEE HABILITACION  VIGENTE<br>COORDENADAS: <br>icon-opacity: 1<br>icon-color: #7cb342<br>icon-scale: 1<br>icon-offset: [32,64]<br>icon-offset-units: [\"pixels\",\"insetPixels\"]<br>icon: https://www.gstatic.com/mapspro/images/stock/503-wht-blank_maps.png<br>Descripción: ECKERDT ROCIO DEL CIELO<br>REMISERIA<br>REMEDIOS DE ESCALADA 166, Chascomús, Buenos Aires<br>Barrio: CENTRO<br>Padrón: A4-0765<br>Estado: VIGENTE<br>RUBRO NORMALIZADO: REMISERIA"}, "styleUrl": "#icon-1899-7CB342", "label-scale": 0, "icon-opacity": "1", "icon-color": "#7cb342", "icon-scale": "1", "icon-offset": "[32,64]", "icon-offset-units": "[\"pixels\",\"insetPixels\"]", "icon": "https://www.gstatic.com/mapspro/images/stock/503-wht-blank_maps.png", "descripción": "Descripción: ECKERDT ROCIO DEL CIELO\nREMISERIA\nREMEDIOS DE ESCALADA 166, Chascomús, Buenos Aires\nBarrio: CENTRO\nPadrón: A4-0765\nEstado: VIGENTE\nNOMBRE / COMERCIO: ECKERDT ROCIO DEL CIELO\nCUIT: 27-39716468-9\nCONTACTO: 2241687897\nCATEGORÍA FISCAL: NO REGISTRA IMPUESTOS ACTIVOS\nDIRECCIÓN: REMEDIOS DE ESCALADA 166, Chascomús, Buenos Aires\nBARRIO: CENTRO\nRUBRO: REMISERIA\nRUBRO NORMALIZADO: REMISERIA\nCATEGORIA: TRANSPORTE\nPADRÓN N°: A4-0765\nINSPECTOR/A: SOFIA- IRMA\nÚLTIMA VISITA: 2025-12-15\nVENC. HABILITACIÓN: 2027-07-26\nESTADO: VIGENTE\nOBSERVACIONES: POSEE HABILITACION  VIGENTE", "NOMBRE / COMERCIO": "ECKERDT ROCIO DEL CIELO", "CUIT": "27-39716468-9", "CONTACTO": "2241687897", "CATEGORÍA FISCAL": "NO REGISTRA IMPUESTOS ACTIVOS", "DIRECCIÓN": "REMEDIOS DE ESCALADA 166", "BARRIO": "CENTRO", "RUBRO": "REMISERIA", "CATEGORIA": "TRANSPORTE", "PADRÓN N°": "A4-0765", "INSPECTOR/A": "SOFIA- IRMA", "ÚLTIMA VISITA": "2025-12-15", "VENC. HABILITACIÓN": "26/07/2027", "ESTADO": "VIGENTE", "OBSERVACIONES": "POSEE HABILITACION  VIGENTE", "COORDENADAS": "", "Descripción": "ECKERDT ROCIO DEL CIELO\nREMISERIA\nREMEDIOS DE ESCALADA 166, Chascomús, Buenos Aires\nBarrio: CENTRO\nPadrón: A4-0765\nEstado: VIGENTE", "RUBRO NORMALIZADO": "REMISERIA"}}, {"type": "Feature", "geometry": {"type": "Point", "coordinates": [-58.014514, -35.572751, 0]}, "properties": {"name": "AGENCIA DE REMIS", "description": {"@type": "html", "value": "descripción: Descripción: ONDA VINTAGE S.A<br>AGENCIA DE REMIS<br>LIBRES DEL SUR 230, Chascomús, Buenos Aires<br>Barrio: CENTRO<br>Padrón: A4- 0772<br>Estado: SIN FECHA<br>NOMBRE / COMERCIO: ONDA VINTAGE S.A<br>CUIT: 30-71736813-0<br>CONTACTO: 2241566567<br>CATEGORÍA FISCAL: SA<br>DIRECCIÓN: L DEL SUR 230<br>BARRIO: CENTRO<br>RUBRO: AGENCIA DE REMIS<br>RUBRO NORMALIZADO: AGENCIA DE REMIS<br>CATEGORIA: TRANSPORTE<br>PADRÓN N°: A4- 0772<br>INSPECTOR/A: SOFIA- IRMA<br>ÚLTIMA VISITA: <br>VENC. HABILITACIÓN: 16/09/2027<br>ESTADO: VIGENTE<br>OBSERVACIONES: <br>styleUrl: #icon-1899-7CB342<br>NOMBRE / COMERCIO: ONDA VINTAGE S.A<br>CUIT: 30-71736813-0<br>CONTACTO: 2241566567<br>CATEGORÍA FISCAL: SA<br>DIRECCIÓN: L DEL SUR 230<br>BARRIO: CENTRO<br>RUBRO: AGENCIA DE REMIS<br>CATEGORIA: TRANSPORTE<br>PADRÓN N°: A4- 0772<br>INSPECTOR/A: SOFIA- IRMA<br>ÚLTIMA VISITA: <br>VENC. HABILITACIÓN: 16/09/2027<br>ESTADO: VIGENTE<br>OBSERVACIONES: <br>COORDENADAS: <br>icon-opacity: 1<br>icon-color: #7cb342<br>icon-scale: 1<br>icon-offset: [32,64]<br>icon-offset-units: [\"pixels\",\"insetPixels\"]<br>icon: https://www.gstatic.com/mapspro/images/stock/503-wht-blank_maps.png<br>Descripción: ONDA VINTAGE S.A<br>AGENCIA DE REMIS<br>LIBRES DEL SUR 230, Chascomús, Buenos Aires<br>Barrio: CENTRO<br>Padrón: A4- 0772<br>Estado: SIN FECHA<br>RUBRO NORMALIZADO: AGENCIA DE REMIS"}, "styleUrl": "#icon-1899-7CB342", "label-scale": 0, "icon-opacity": "1", "icon-color": "#7cb342", "icon-scale": "1", "icon-offset": "[32,64]", "icon-offset-units": "[\"pixels\",\"insetPixels\"]", "icon": "https://www.gstatic.com/mapspro/images/stock/503-wht-blank_maps.png", "descripción": "Descripción: ONDA VINTAGE S.A\nAGENCIA DE REMIS\nLIBRES DEL SUR 230, Chascomús, Buenos Aires\nBarrio: CENTRO\nPadrón: A4- 0772\nEstado: SIN FECHA\nNOMBRE / COMERCIO: ONDA VINTAGE S.A\nCUIT: 30-71736813-0\nCONTACTO: 2241566567\nCATEGORÍA FISCAL: SA\nDIRECCIÓN: LIBRES DEL SUR 230, Chascomús, Buenos Aires\nBARRIO: CENTRO\nRUBRO: AGENCIA DE REMIS\nRUBRO NORMALIZADO: AGENCIA DE REMIS\nCATEGORIA: TRANSPORTE\nPADRÓN N°: A4- 0772\nINSPECTOR/A: YANINA\nÚLTIMA VISITA: 2025-09-15\nVENC. HABILITACIÓN: NaT\nESTADO: SIN FECHA\nOBSERVACIONES: POSEE INSPECCION DE MEDIDAS DE SEG CON FECHA 11/9/24. DEBE COMUNICARSE CON LA OFICINA", "NOMBRE / COMERCIO": "ONDA VINTAGE S.A", "CUIT": "30-71736813-0", "CONTACTO": "2241566567", "CATEGORÍA FISCAL": "SA", "DIRECCIÓN": "L DEL SUR 230", "BARRIO": "CENTRO", "RUBRO": "AGENCIA DE REMIS", "CATEGORIA": "TRANSPORTE", "PADRÓN N°": "A4- 0772", "INSPECTOR/A": "SOFIA- IRMA", "ÚLTIMA VISITA": "2025-09-15", "VENC. HABILITACIÓN": "16/09/2027", "ESTADO": "VIGENTE", "OBSERVACIONES": "POSEE INSPECCION DE MEDIDAS DE SEG CON FECHA 11/9/24. DEBE COMUNICARSE CON LA OFICINA", "COORDENADAS": "", "Descripción": "ONDA VINTAGE S.A\nAGENCIA DE REMIS\nLIBRES DEL SUR 230, Chascomús, Buenos Aires\nBarrio: CENTRO\nPadrón: A4- 0772\nEstado: SIN FECHA", "RUBRO NORMALIZADO": "AGENCIA DE REMIS"}}, {"type": "Feature", "geometry": {"type": "Point", "coordinates": [-57.987328, -35.570584, 0]}, "properties": {"name": "REMISERIA", "description": {"@type": "html", "value": "descripción: Descripción: MIGUEZ AMILCAR ROBERTO<br>REMISERIA<br>GARAY 201, Chascomús, Buenos Aires<br>Barrio: EL HUECO<br>Padrón: A4-0626<br>Estado: SIN FECHA<br>NOMBRE / COMERCIO: MIGUEZ AMILCAR ROBERTO<br>CUIT: 20-16624015-9<br>CONTACTO: 2241556039<br>CATEGORÍA FISCAL: MONOTRIBUTISTA C<br>DIRECCIÓN: GARAY 201<br>BARRIO: EL HUECO<br>RUBRO: REMISERIA<br>RUBRO NORMALIZADO: REMISERIA<br>CATEGORIA: TRANSPORTE<br>PADRÓN N°: A4-0626<br>INSPECTOR/A: SOFIA- IRMA<br>ÚLTIMA VISITA: 2026-06-10<br>VENC. HABILITACIÓN: 15/03/2025<br>ESTADO: VENCIDA<br>OBSERVACIONES: <br>styleUrl: #icon-1899-C2185B<br>NOMBRE / COMERCIO: MIGUEZ AMILCAR ROBERTO<br>CUIT: 20-16624015-9<br>CONTACTO: 2241556039<br>CATEGORÍA FISCAL: MONOTRIBUTISTA C<br>DIRECCIÓN: GARAY 201<br>BARRIO: EL HUECO<br>RUBRO: REMISERIA<br>CATEGORIA: TRANSPORTE<br>PADRÓN N°: A4-0626<br>INSPECTOR/A: SOFIA- IRMA<br>ÚLTIMA VISITA: 2026-06-10<br>VENC. HABILITACIÓN: 15/03/2025<br>ESTADO: VENCIDA<br>OBSERVACIONES: <br>COORDENADAS: <br>icon-opacity: 1<br>icon-color: #c2185b<br>icon-scale: 1<br>icon-offset: [32,64]<br>icon-offset-units: [\"pixels\",\"insetPixels\"]<br>icon: https://www.gstatic.com/mapspro/images/stock/503-wht-blank_maps.png<br>Descripción: MIGUEZ AMILCAR ROBERTO<br>REMISERIA<br>GARAY 201, Chascomús, Buenos Aires<br>Barrio: EL HUECO<br>Padrón: A4-0626<br>Estado: SIN FECHA<br>RUBRO NORMALIZADO: REMISERIA"}, "styleUrl": "#icon-1899-C2185B", "label-scale": 0, "icon-opacity": "1", "icon-color": "#c2185b", "icon-scale": "1", "icon-offset": "[32,64]", "icon-offset-units": "[\"pixels\",\"insetPixels\"]", "icon": "https://www.gstatic.com/mapspro/images/stock/503-wht-blank_maps.png", "descripción": "Descripción: MIGUEZ AMILCAR ROBERTO\nREMISERIA\nGARAY 201, Chascomús, Buenos Aires\nBarrio: EL HUECO\nPadrón: A4-0626\nEstado: SIN FECHA\nNOMBRE / COMERCIO: MIGUEZ AMILCAR ROBERTO\nCUIT: 20-16624015-9\nCONTACTO: 2241556039\nCATEGORÍA FISCAL: MONOTRIBUTISTA C\nDIRECCIÓN: GARAY 201, Chascomús, Buenos Aires\nBARRIO: EL HUECO\nRUBRO: REMISERIA\nRUBRO NORMALIZADO: REMISERIA\nCATEGORIA: TRANSPORTE\nPADRÓN N°: A4-0626\nINSPECTOR/A: YANINA\nÚLTIMA VISITA: 2024-11-01\nVENC. HABILITACIÓN: NaT\nESTADO: SIN FECHA\nOBSERVACIONES: INICIO HOJA DE RUTA", "NOMBRE / COMERCIO": "MIGUEZ AMILCAR ROBERTO", "CUIT": "20-16624015-9", "CONTACTO": "2241556039", "CATEGORÍA FISCAL": "MONOTRIBUTISTA C", "DIRECCIÓN": "GARAY 201", "BARRIO": "EL HUECO", "RUBRO": "REMISERIA", "CATEGORIA": "TRANSPORTE", "PADRÓN N°": "A4-0626", "INSPECTOR/A": "SOFIA- IRMA", "ÚLTIMA VISITA": "2026-06-10", "VENC. HABILITACIÓN": "15/03/2025", "ESTADO": "VENCIDA", "OBSERVACIONES": "INICIO HOJA DE RUTA", "COORDENADAS": "", "Descripción": "MIGUEZ AMILCAR ROBERTO\nREMISERIA\nGARAY 201, Chascomús, Buenos Aires\nBarrio: EL HUECO\nPadrón: A4-0626\nEstado: SIN FECHA", "RUBRO NORMALIZADO": "REMISERIA"}}, {"type": "Feature", "geometry": {"type": "Point", "coordinates": [-58.011102, -35.563515, 0]}, "properties": {"name": "REMISERIA", "description": {"@type": "html", "value": "descripción: Descripción: NOVILE SILVIA LUJAN<br>REMISERIA<br>YRIGOYEN 594, Chascomús, Buenos Aires<br>Barrio: LA NORIA<br>Padrón: A6- 0174<br>Estado: VENCIDA<br>NOMBRE / COMERCIO: NOVILE SILVIA LUJAN<br>CUIT: 27125473925<br>CONTACTO: 2241464793<br>CATEGORÍA FISCAL: RESPONSABLE INSCRIPTO<br>DIRECCIÓN: HIPÓLITO YRIGOYEN 594<br>BARRIO: LA NORIA<br>RUBRO: REMISERIA<br>RUBRO NORMALIZADO: REMISERIA<br>CATEGORIA: TRANSPORTE<br>PADRÓN N°: A6- 0174<br>INSPECTOR/A: SOFIA- IRMA<br>ÚLTIMA VISITA: 2026-06-10<br>VENC. HABILITACIÓN: 31/01/2003<br>ESTADO: VENCIDA<br>OBSERVACIONES: <br>styleUrl: #icon-1899-F57C00<br>NOMBRE / COMERCIO: NOVILE SILVIA LUJAN<br>CUIT: 27125473925<br>CONTACTO: 2241464793<br>CATEGORÍA FISCAL: RESPONSABLE INSCRIPTO<br>DIRECCIÓN: HIPÓLITO YRIGOYEN 594<br>BARRIO: LA NORIA<br>RUBRO: REMISERIA<br>CATEGORIA: TRANSPORTE<br>PADRÓN N°: A6- 0174<br>INSPECTOR/A: SOFIA- IRMA<br>ÚLTIMA VISITA: 2026-06-10<br>VENC. HABILITACIÓN: 31/01/2003<br>ESTADO: VENCIDA<br>OBSERVACIONES: <br>COORDENADAS: <br>icon-opacity: 1<br>icon-color: #f57c00<br>icon-scale: 1<br>icon-offset: [32,64]<br>icon-offset-units: [\"pixels\",\"insetPixels\"]<br>icon: https://www.gstatic.com/mapspro/images/stock/503-wht-blank_maps.png<br>Descripción: NOVILE SILVIA LUJAN<br>REMISERIA<br>YRIGOYEN 594, Chascomús, Buenos Aires<br>Barrio: LA NORIA<br>Padrón: A6- 0174<br>Estado: VENCIDA<br>RUBRO NORMALIZADO: REMISERIA"}, "styleUrl": "#icon-1899-F57C00", "label-scale": 0, "icon-opacity": "1", "icon-color": "#f57c00", "icon-scale": "1", "icon-offset": "[32,64]", "icon-offset-units": "[\"pixels\",\"insetPixels\"]", "icon": "https://www.gstatic.com/mapspro/images/stock/503-wht-blank_maps.png", "descripción": "Descripción: NOVILE SILVIA LUJAN\nREMISERIA\nYRIGOYEN 594, Chascomús, Buenos Aires\nBarrio: LA NORIA\nPadrón: A6- 0174\nEstado: VENCIDA\nNOMBRE / COMERCIO: NOVILE SILVIA LUJAN\nCUIT: 27125473925\nCONTACTO: 2241464793\nCATEGORÍA FISCAL: RESPONSABLE INSCRIPTO\nDIRECCIÓN: YRIGOYEN 594, Chascomús, Buenos Aires\nBARRIO: LA NORIA\nRUBRO: REMISERIA\nRUBRO NORMALIZADO: REMISERIA\nCATEGORIA: TRANSPORTE\nPADRÓN N°: A6- 0174\nINSPECTOR/A: YANINA\nÚLTIMA VISITA: 2025-08-05\nVENC. HABILITACIÓN: 2003-01-31\nESTADO: VENCIDA\nOBSERVACIONES: CONTINUA IGULA QUE LA VISITA ANTERIOR, ULTIMO PLAZO.", "NOMBRE / COMERCIO": "NOVILE SILVIA LUJAN", "CUIT": "27125473925", "CONTACTO": "2241464793", "CATEGORÍA FISCAL": "RESPONSABLE INSCRIPTO", "DIRECCIÓN": "HIPÓLITO YRIGOYEN 594", "BARRIO": "LA NORIA", "RUBRO": "REMISERIA", "CATEGORIA": "TRANSPORTE", "PADRÓN N°": "A6- 0174", "INSPECTOR/A": "SOFIA- IRMA", "ÚLTIMA VISITA": "2026-06-10", "VENC. HABILITACIÓN": "31/01/2003", "ESTADO": "VENCIDA", "OBSERVACIONES": "CONTINUA IGULA QUE LA VISITA ANTERIOR, ULTIMO PLAZO.", "COORDENADAS": "", "Descripción": "NOVILE SILVIA LUJAN\nREMISERIA\nYRIGOYEN 594, Chascomús, Buenos Aires\nBarrio: LA NORIA\nPadrón: A6- 0174\nEstado: VENCIDA", "RUBRO NORMALIZADO": "REMISERIA"}}, {"type": "Feature", "geometry": {"type": "Point", "coordinates": [-58.013313, -35.572797, 0]}, "properties": {"name": "AGENCIA REMISES", "description": {"@type": "html", "value": "descripción: Descripción: LAGUNA SRL<br>AGENCIA DE REMIS<br>ALVEAR 530, Chascomús, Buenos Aires<br>Barrio: VILLA LUJAN<br>Padrón: A4-0540<br>Estado: VIGENTE<br>NOMBRE / COMERCIO: LAGUNA SRL<br>CUIT: 30-70725078-6<br>CONTACTO: 2241460410<br>CATEGORÍA FISCAL: SRL<br>DIRECCIÓN: ALVEAR 530<br>BARRIO: VILLA LUJAN<br>RUBRO: AGENCIA REMISES<br>RUBRO NORMALIZADO: AGENCIA DE REMIS<br>CATEGORIA: TRANSPORTE<br>PADRÓN N°: A4-0540<br>INSPECTOR/A: SOFIA- IRMA<br>ÚLTIMA VISITA: 2026-02-03<br>VENC. HABILITACIÓN: 10/04/2027<br>ESTADO: VIGENTE<br>OBSERVACIONES:<br>styleUrl: #icon-1899-1A237E<br>NOMBRE / COMERCIO: LAGUNA SRL<br>CUIT: 30-70725078-6<br>CONTACTO: 2241460410<br>CATEGORÍA FISCAL: SRL<br>DIRECCIÓN: ALVEAR 530<br>BARRIO: VILLA LUJAN<br>RUBRO: AGENCIA REMISES<br>CATEGORIA: TRANSPORTE<br>PADRÓN N°: A4-0540<br>INSPECTOR/A: SOFIA- IRMA<br>ÚLTIMA VISITA: 2026-02-03<br>VENC. HABILITACIÓN: 10/04/2027<br>ESTADO: VIGENTE<br>OBSERVACIONES: <br>COORDENADAS: <br>icon-opacity: 1<br>icon-color: #1a237e<br>icon-scale: 1<br>icon-offset: [32,64]<br>icon-offset-units: [\"pixels\",\"insetPixels\"]<br>icon: https://www.gstatic.com/mapspro/images/stock/503-wht-blank_maps.png<br>Descripción: LAGUNA SRL<br>AGENCIA DE REMIS<br>ALVEAR 530, Chascomús, Buenos Aires<br>Barrio: VILLA LUJAN<br>Padrón: A4-0540<br>Estado: VIGENTE<br>RUBRO NORMALIZADO: AGENCIA DE REMIS"}, "styleUrl": "#icon-1899-1A237E", "label-scale": 0, "icon-opacity": "1", "icon-color": "#1a237e", "icon-scale": "1", "icon-offset": "[32,64]", "icon-offset-units": "[\"pixels\",\"insetPixels\"]", "icon": "https://www.gstatic.com/mapspro/images/stock/503-wht-blank_maps.png", "descripción": "Descripción: LAGUNA SRL\nAGENCIA DE REMIS\nALVEAR 530, Chascomús, Buenos Aires\nBarrio: VILLA LUJAN\nPadrón: A4-0540\nEstado: VIGENTE\nNOMBRE / COMERCIO: LAGUNA SRL\nCUIT: 30-70725078-6\nCONTACTO: 2241460410\nCATEGORÍA FISCAL: SRL\nDIRECCIÓN: ALVEAR 530, Chascomús, Buenos Aires\nBARRIO: VILLA LUJAN\nRUBRO: AGENCIA DE REMIS\nRUBRO NORMALIZADO: AGENCIA DE REMIS\nCATEGORIA: TRANSPORTE\nPADRÓN N°: A4-0540\nINSPECTOR/A: SOFIA- IRMA\nÚLTIMA VISITA: 2026-02-03\nVENC. HABILITACIÓN: 2027-04-10\nESTADO: VIGENTE\nOBSERVACIONES:", "NOMBRE / COMERCIO": "LAGUNA SRL", "CUIT": "30-70725078-6", "CONTACTO": "2241460410", "CATEGORÍA FISCAL": "SRL", "DIRECCIÓN": "ALVEAR 530", "BARRIO": "VILLA LUJAN", "RUBRO": "AGENCIA REMISES", "CATEGORIA": "TRANSPORTE", "PADRÓN N°": "A4-0540", "INSPECTOR/A": "SOFIA- IRMA", "ÚLTIMA VISITA": "2026-02-03", "VENC. HABILITACIÓN": "10/04/2027", "ESTADO": "VIGENTE", "OBSERVACIONES": "", "COORDENADAS": "", "Descripción": "LAGUNA SRL\nAGENCIA DE REMIS\nALVEAR 530, Chascomús, Buenos Aires\nBarrio: VILLA LUJAN\nPadrón: A4-0540\nEstado: VIGENTE", "RUBRO NORMALIZADO": "AGENCIA DE REMIS"}}]}