{"type":"FeatureCollection","features":[{"type":"Feature","geometry":{"type":"Point","coordinates":[-58.028245,-35.565874,0]},"properties":{"name":"HOTEL-RESTAURANTE","description":{"@type":"html","value":"descripción: <br>styleUrl: #icon-1899-BDBDBD<br>NOMBRE / COMERCIO: CLAPS ANA MARIA<br>CUIT: 27-06272937-1<br>CONTACTO: <br>CATEGORÍA FISCAL: RESPONSABLE INSCRIPTO<br>DIRECCIÓN: SANTIAGO ROCA<br>BARRIO: LA CONCORDIA<br>RUBRO: HOTEL-RESTAURANTE<br>CATEGORIA: TURISMO Y ALOJAMIENTO<br>PADRÓN N°: A5-0531<br>INSPECTOR/A: SOFIA- IRMA<br>ÚLTIMA VISITA: 2025-08-05<br>VENC. HABILITACIÓN: 19/12/2028<br>ESTADO: VIGENTE<br>OBSERVACIONES: HABILITACION EN VIGENCIA-REBA 24-02-2026<br>COORDENADAS: -35.5658739, -58.0282452<br>icon-opacity: <br>icon-color: <br>icon-scale: <br>icon-offset: <br>icon-offset-units: <br>icon: <br>Descripción: <br>RUBRO NORMALIZADO: "},"styleUrl":"#icon-1899-BDBDBD","label-scale":0,"icon-opacity":"","icon-color":"","icon-scale":"","icon-offset":"","icon-offset-units":"","icon":"","descripción":"","NOMBRE / COMERCIO":"CLAPS ANA MARIA","CUIT":"27-06272937-1","CONTACTO":"2241581452","CATEGORÍA FISCAL":"RESPONSABLE INSCRIPTO","DIRECCIÓN":"SANTIAGO ROCA","BARRIO":"LA CONCORDIA","RUBRO":"HOTEL-RESTAURANTE","CATEGORIA":"TURISMO Y ALOJAMIENTO","PADRÓN N°":"A5-0531","INSPECTOR/A":"SOFIA- IRMA","ÚLTIMA VISITA":"2025-08-05","VENC. HABILITACIÓN":"19/12/2028","ESTADO":"VIGENTE","OBSERVACIONES":"HABILITACION EN VIGENCIA-REBA 24-02-2026","COORDENADAS":"-35.5658739, -58.0282452","Descripción":"","RUBRO NORMALIZADO":""}},{"type":"Feature","geometry":{"type":"Point","coordinates":[-58.022472,-35.558016,0]},"properties":{"name":"ALQUILER TEMPORARIO","description":{"@type":"html","value":"descripción: <br>styleUrl: #icon-1899-C2185B<br>NOMBRE / COMERCIO: SANCHEZ ACOSTA LEONARDO JAVIER<br>CUIT: 20-32530304-3<br>CONTACTO: 2213645866<br>CATEGORÍA FISCAL: MONOTRIBUTISTA A<br>DIRECCIÓN: LAS ACACIAS 396<br>BARRIO: ACCESO NORTE<br>RUBRO: ALQUILER TEMPORARIO<br>CATEGORIA: TURISMO Y ALOJAMIENTO<br>PADRÓN N°: A2-0081<br>INSPECTOR/A: <br>ÚLTIMA VISITA: <br>VENC. HABILITACIÓN: 22/11/2026<br>ESTADO: VIGENTE<br>OBSERVACIONES: HABILITACION VIGENTE<br>COORDENADAS: -35.5580159, -58.02247209999999<br>icon-opacity: <br>icon-color: <br>icon-scale: <br>icon-offset: <br>icon-offset-units: <br>icon: <br>Descripción: <br>RUBRO NORMALIZADO: "},"styleUrl":"#icon-1899-C2185B","label-scale":0,"icon-opacity":"","icon-color":"","icon-scale":"","icon-offset":"","icon-offset-units":"","icon":"","descripción":"","NOMBRE / COMERCIO":"SANCHEZ ACOSTA LEONARDO JAVIER","CUIT":"20-32530304-3","CONTACTO":"2213645866","CATEGORÍA FISCAL":"MONOTRIBUTISTA A","DIRECCIÓN":"LAS ACACIAS 396","BARRIO":"ACCESO NORTE","RUBRO":"ALQUILER TEMPORARIO","CATEGORIA":"TURISMO Y ALOJAMIENTO","PADRÓN N°":"A2-0081","INSPECTOR/A":"","ÚLTIMA VISITA":"","VENC. HABILITACIÓN":"22/11/2026","ESTADO":"VIGENTE","OBSERVACIONES":"HABILITACION VIGENTE","COORDENADAS":"-35.5580159, -58.02247209999999","Descripción":"","RUBRO NORMALIZADO":""}},{"type":"Feature","geometry":{"type":"Point","coordinates":[-58.014692,-35.575151,0]},"properties":{"name":"HOTEL-BAR -ESPEC","description":{"@type":"html","value":"descripción: <br>styleUrl: #icon-1899-BDBDBD<br>NOMBRE / COMERCIO: SCHWERTER PERALTA GERA<br>CUIT: 20-92359497-4<br>CONTACTO: 1154521357<br>CATEGORÍA FISCAL: RESPONSABLE INSCRIPTO<br>DIRECCIÓN: BELGRANO 134<br>BARRIO: CENTRO<br>RUBRO: HOTEL-BAR -ESPEC<br>CATEGORIA: TURISMO Y ALOJAMIENTO<br>PADRÓN N°: A5-0734<br>INSPECTOR/A: SOFIA- IRMA<br>ÚLTIMA VISITA: 2024-06-27<br>VENC. HABILITACIÓN: 16/07/2026<br>ESTADO: VIGENTE<br>OBSERVACIONES: HAB 09-11-2024/CERT FUMIG/CARNET MANIP<br>COORDENADAS: -35.5751514, -58.0146923<br>icon-opacity: <br>icon-color: <br>icon-scale: <br>icon-offset: <br>icon-offset-units: <br>icon: <br>Descripción: <br>RUBRO NORMALIZADO: "},"styleUrl":"#icon-1899-BDBDBD","label-scale":0,"icon-opacity":"","icon-color":"","icon-scale":"","icon-offset":"","icon-offset-units":"","icon":"","descripción":"","NOMBRE / COMERCIO":"SCHWERTER PERALTA GERA","CUIT":"20-92359497-4","CONTACTO":"1154521357","CATEGORÍA FISCAL":"RESPONSABLE INSCRIPTO","DIRECCIÓN":"BELGRANO 134","BARRIO":"CENTRO","RUBRO":"HOTEL-BAR -ESPEC","CATEGORIA":"TURISMO Y ALOJAMIENTO","PADRÓN N°":"A5-0734","INSPECTOR/A":"SOFIA- IRMA","ÚLTIMA VISITA":"2024-06-27","VENC. HABILITACIÓN":"16/07/2026","ESTADO":"VIGENTE","OBSERVACIONES":"HAB 09-11-2024/CERT FUMIG/CARNET MANIP","COORDENADAS":"-35.5751514, -58.0146923","Descripción":"","RUBRO NORMALIZADO":""}},{"type":"Feature","geometry":{"type":"Point","coordinates":[-57.992947,-35.553662,0]},"properties":{"name":"CABAÑAS-RESTAURANTE","description":{"@type":"html","value":"descripción: <br>styleUrl: #icon-1899-BDBDBD<br>NOMBRE / COMERCIO: ESTABLECIMIENTO LA GRULLA SA<br>CUIT: 30-71079051-1<br>CONTACTO: 2241422639<br>CATEGORÍA FISCAL: SA<br>DIRECCIÓN: PELLEGRINI 1246<br>BARRIO: LA ESMERALDA<br>RUBRO: CABAÑAS-RESTAURANTE<br>CATEGORIA: TURISMO Y ALOJAMIENTO<br>PADRÓN N°: A6-0344<br>INSPECTOR/A: SERGIO<br>ÚLTIMA VISITA: 2025-07-01<br>VENC. HABILITACIÓN: 11/07/2028<br>ESTADO: VIGENTE<br>OBSERVACIONES: SE OBSERVA QUE CUMPLE CON LA ORDENANZA DE MEDIDAS DE SEGURIDAD PARA SU HABILITACION COMERCIAL<br>COORDENADAS: -35.5536615, -57.99294709999999<br>icon-opacity: <br>icon-color: <br>icon-scale: <br>icon-offset: <br>icon-offset-units: <br>icon: <br>Descripción: <br>RUBRO NORMALIZADO: "},"styleUrl":"#icon-1899-BDBDBD","label-scale":0,"icon-opacity":"","icon-color":"","icon-scale":"","icon-offset":"","icon-offset-units":"","icon":"","descripción":"","NOMBRE / COMERCIO":"ESTABLECIMIENTO LA GRULLA SA","CUIT":"30-71079051-1","CONTACTO":"2241422639","CATEGORÍA FISCAL":"SA","DIRECCIÓN":"PELLEGRINI 1246","BARRIO":"LA ESMERALDA","RUBRO":"CABAÑAS-RESTAURANTE","CATEGORIA":"TURISMO Y ALOJAMIENTO","PADRÓN N°":"A6-0344","INSPECTOR/A":"SERGIO","ÚLTIMA VISITA":"2025-07-01","VENC. HABILITACIÓN":"11/07/2028","ESTADO":"VIGENTE","OBSERVACIONES":"SE OBSERVA QUE CUMPLE CON LA ORDENANZA DE MEDIDAS DE SEGURIDAD PARA SU HABILITACION COMERCIAL","COORDENADAS":"-35.5536615, -57.99294709999999","Descripción":"","RUBRO NORMALIZADO":""}},{"type":"Feature","geometry":{"type":"Point","coordinates":[-58.013646,-35.577672,0]},"properties":{"name":"CAMPING","description":{"@type":"html","value":"descripción: <br>styleUrl: #icon-1899-BDBDBD<br>NOMBRE / COMERCIO: CEJAS GERARDO MARCELO<br>CUIT: 20-24006783-9<br>CONTACTO: 1158670765<br>CATEGORÍA FISCAL: MONOTRIBUTISTA A<br>DIRECCIÓN: CIRCUNVALACION KM 24<br>BARRIO: <br>RUBRO: CAMPING<br>CATEGORIA: TURISMO Y ALOJAMIENTO<br>PADRÓN N°: A6-0418<br>INSPECTOR/A: <br>ÚLTIMA VISITA: <br>VENC. HABILITACIÓN: 15/08/2025<br>ESTADO: VENCIDA<br>OBSERVACIONES: EDIFICIO SIN PLANOS<br>COORDENADAS: -35.5776723, -58.0136464<br>icon-opacity: <br>icon-color: <br>icon-scale: <br>icon-offset: <br>icon-offset-units: <br>icon: <br>Descripción: <br>RUBRO NORMALIZADO: "},"styleUrl":"#icon-1899-BDBDBD","label-scale":0,"icon-opacity":"","icon-color":"","icon-scale":"","icon-offset":"","icon-offset-units":"","icon":"","descripción":"","NOMBRE / COMERCIO":"CEJAS GERARDO MARCELO","CUIT":"20-24006783-9","CONTACTO":"1158670765","CATEGORÍA FISCAL":"MONOTRIBUTISTA A","DIRECCIÓN":"CIRCUNVALACION KM 24","BARRIO":"BARRIO JARDIN","RUBRO":"CAMPING","CATEGORIA":"TURISMO Y ALOJAMIENTO","PADRÓN N°":"A6-0418","INSPECTOR/A":"","ÚLTIMA VISITA":"","VENC. HABILITACIÓN":"15/08/2025","ESTADO":"VENCIDA","OBSERVACIONES":"EDIFICIO SIN PLANOS","COORDENADAS":"-35.5776723, -58.0136464","Descripción":"","RUBRO NORMALIZADO":""}},{"type":"Feature","geometry":{"type":"Point","coordinates":[-58.010868,-35.568812,0]},"properties":{"name":"AGENCIA DE VIAJESS","description":{"@type":"html","value":"descripción: <br>styleUrl: #icon-1899-BDBDBD<br>NOMBRE / COMERCIO: ALBARRACIN KARINA ELIZ<br>CUIT: 27205745705<br>CONTACTO: 2241557500<br>CATEGORÍA FISCAL: RESPONSABLE INSCRIPTO<br>DIRECCIÓN: CASEROS 25, Chascomús, Buenos Aires<br>BARRIO: CENTRO<br>RUBRO: AGENCIA DE VIAJESS<br>CATEGORIA: TURISMO Y ALOJAMIENTO<br>PADRÓN N°: A3-2979<br>INSPECTOR/A: SOFIA- IRMA<br>ÚLTIMA VISITA: 2024-05-17<br>VENC. HABILITACIÓN: 2026-02-15<br>ESTADO: VENCIDA<br>OBSERVACIONES: HABILITACION EN VIGENCIA<br>COORDENADAS: -35.5688121, -58.0108685<br>icon-opacity: <br>icon-color: <br>icon-scale: <br>icon-offset: <br>icon-offset-units: <br>icon: <br>Descripción: <br>RUBRO NORMALIZADO: "},"styleUrl":"#icon-1899-BDBDBD","label-scale":0,"icon-opacity":"","icon-color":"","icon-scale":"","icon-offset":"","icon-offset-units":"","icon":"","descripción":"","NOMBRE / COMERCIO":"ALBARRACIN KARINA ELIZ","CUIT":"27205745705","CONTACTO":"2241557500","CATEGORÍA FISCAL":"RESPONSABLE INSCRIPTO","DIRECCIÓN":"CASEROS 25, Chascomús, Buenos Aires","BARRIO":"CENTRO","RUBRO":"AGENCIA DE VIAJESS","CATEGORIA":"TURISMO Y ALOJAMIENTO","PADRÓN N°":"A3-2979","INSPECTOR/A":"SOFIA- IRMA","ÚLTIMA VISITA":"2024-05-17","VENC. HABILITACIÓN":"2026-02-15","ESTADO":"VENCIDA","OBSERVACIONES":"HABILITACION EN VIGENCIA","COORDENADAS":"-35.5688121, -58.0108685","Descripción":"","RUBRO NORMALIZADO":""}},{"type":"Feature","geometry":{"type":"Point","coordinates":[-58.013266,-35.574194,0]},"properties":{"name":"AGENCIA DE VIAJE","description":{"@type":"html","value":"descripción: <br>styleUrl: #icon-1899-BDBDBD<br>NOMBRE / COMERCIO: ALBARRACIN KARINA ELIZABETH<br>CUIT: 27-20574570-5<br>CONTACTO: 2241531820<br>CATEGORÍA FISCAL: RESPONSABLE INSCRIPTO<br>DIRECCIÓN: ALVEAR 161<br>BARRIO: CENTRO<br>RUBRO: AGENCIA DE VIAJE<br>CATEGORIA: TURISMO Y ALOJAMIENTO<br>PADRÓN N°: A3-2974<br>INSPECTOR/A: SOFIA- IRMA<br>ÚLTIMA VISITA: 2025-09-02<br>VENC. HABILITACIÓN: 15/10/2026<br>ESTADO: VIGENTE<br>OBSERVACIONES: POSEE PROVISORA VIGENTE<br>COORDENADAS: -35.5741939, -58.0132662<br>icon-opacity: <br>icon-color: <br>icon-scale: <br>icon-offset: <br>icon-offset-units: <br>icon: <br>Descripción: <br>RUBRO NORMALIZADO: "},"styleUrl":"#icon-1899-BDBDBD","label-scale":0,"icon-opacity":"","icon-color":"","icon-scale":"","icon-offset":"","icon-offset-units":"","icon":"","descripción":"","NOMBRE / COMERCIO":"ALBARRACIN KARINA ELIZABETH","CUIT":"27-20574570-5","CONTACTO":"2241531820","CATEGORÍA FISCAL":"RESPONSABLE INSCRIPTO","DIRECCIÓN":"ALVEAR 161","BARRIO":"CENTRO","RUBRO":"AGENCIA DE VIAJE","CATEGORIA":"TURISMO Y ALOJAMIENTO","PADRÓN N°":"A3-2974","INSPECTOR/A":"SOFIA- IRMA","ÚLTIMA VISITA":"2025-09-02","VENC. HABILITACIÓN":"15/10/2026","ESTADO":"VIGENTE","OBSERVACIONES":"POSEE PROVISORA VIGENTE","COORDENADAS":"-35.5741939, -58.0132662","Descripción":"","RUBRO NORMALIZADO":""}},{"type":"Feature","geometry":{"type":"Point","coordinates":[-58.014979,-35.572066,0]},"properties":{"name":"HOSTEL","description":{"@type":"html","value":"descripción: <br>styleUrl: #icon-1899-BDBDBD<br>NOMBRE / COMERCIO: CESAR HORACIO PIÑERO<br>CUIT: 20-12547248-7<br>CONTACTO: 2241569698<br>CATEGORÍA FISCAL: MONOTRIBUTISTA A<br>DIRECCIÓN: MAZZINI 225<br>BARRIO: CENTRO<br>RUBRO: HOSTEL<br>CATEGORIA: TURISMO Y ALOJAMIENTO<br>PADRÓN N°: A3-3735<br>INSPECTOR/A: SOFIA- IRMA<br>ÚLTIMA VISITA: 2025-11-06<br>VENC. HABILITACIÓN: 10/11/2028<br>ESTADO: VIGENTE<br>OBSERVACIONES: CUMPLIO CON LO SOLICITADO EN EL ACTA ANTERIOR, SE FIRMA APTO EN MEDIDAS DE SEGURIDAD.<br>COORDENADAS: -35.5720659, -58.014979<br>icon-opacity: <br>icon-color: <br>icon-scale: <br>icon-offset: <br>icon-offset-units: <br>icon: <br>Descripción: <br>RUBRO NORMALIZADO: "},"styleUrl":"#icon-1899-BDBDBD","label-scale":0,"icon-opacity":"","icon-color":"","icon-scale":"","icon-offset":"","icon-offset-units":"","icon":"","descripción":"","NOMBRE / COMERCIO":"CESAR HORACIO PIÑERO","CUIT":"20-12547248-7","CONTACTO":"2241569698","CATEGORÍA FISCAL":"MONOTRIBUTISTA A","DIRECCIÓN":"MAZZINI 225","BARRIO":"CENTRO","RUBRO":"HOSTEL","CATEGORIA":"TURISMO Y ALOJAMIENTO","PADRÓN N°":"A3-3735","INSPECTOR/A":"SOFIA- IRMA","ÚLTIMA VISITA":"2025-11-06","VENC. HABILITACIÓN":"10/11/2028","ESTADO":"VIGENTE","OBSERVACIONES":"CUMPLIO CON LO SOLICITADO EN EL ACTA ANTERIOR, SE FIRMA APTO EN MEDIDAS DE SEGURIDAD.","COORDENADAS":"-35.5720659, -58.014979","Descripción":"","RUBRO NORMALIZADO":""}},{"type":"Feature","geometry":{"type":"Point","coordinates":[-58.013646,-35.577672,0]},"properties":{"name":"CAMPING Y PROVEEDURIA","description":{"@type":"html","value":"descripción: <br>styleUrl: <br>NOMBRE / COMERCIO: G Y C CONSTRUCCIONES<br>CUIT: 30-66503716-5<br>CONTACTO: 15446095<br>CATEGORÍA FISCAL: SA<br>DIRECCIÓN: PARCELA RIBEREÑA 18<br>BARRIO: <br>RUBRO: CAMPING Y PROVEEDURIA<br>CATEGORIA: TURISMO Y ALOJAMIENTO<br>PADRÓN N°: A6-0419<br>INSPECTOR/A: MARTINA<br>ÚLTIMA VISITA: 2026-02-12<br>VENC. HABILITACIÓN: 03/07/2028<br>ESTADO: VIGENTE<br>OBSERVACIONES: <br>COORDENADAS: -35.5776723, -58.0136464<br>icon-opacity: <br>icon-color: <br>icon-scale: <br>icon-offset: <br>icon-offset-units: <br>icon: <br>Descripción: <br>RUBRO NORMALIZADO: "},"styleUrl":"","label-scale":0,"icon-opacity":"","icon-color":"","icon-scale":"","icon-offset":"","icon-offset-units":"","icon":"","descripción":"","NOMBRE / COMERCIO":"G Y C CONSTRUCCIONES","CUIT":"30-66503716-5","CONTACTO":"15446095","CATEGORÍA FISCAL":"SA","DIRECCIÓN":"PARCELA RIBEREÑA 18","BARRIO":"CENTRO","RUBRO":"CAMPING Y PROVEEDURIA","CATEGORIA":"TURISMO Y ALOJAMIENTO","PADRÓN N°":"A6-0419","INSPECTOR/A":"MARTINA","ÚLTIMA VISITA":"2026-02-12","VENC. HABILITACIÓN":"03/07/2028","ESTADO":"VIGENTE","OBSERVACIONES":"","COORDENADAS":"-35.5776723, -58.0136464","Descripción":"","RUBRO NORMALIZADO":""}},{"type":"Feature","geometry":{"type":"Point","coordinates":[-58.013646,-35.577672,0]},"properties":{"name":"CAMPING","description":{"@type":"html","value":"descripción: <br>styleUrl: #icon-1899-BDBDBD<br>NOMBRE / COMERCIO: LAGUNA CAMP S.R.L<br>CUIT: 30-71760660-0<br>CONTACTO: <br>CATEGORÍA FISCAL: SRL<br>DIRECCIÓN: CIRCUNVALACION MARINO<br>BARRIO: <br>RUBRO: CAMPING<br>CATEGORIA: TURISMO Y ALOJAMIENTO<br>PADRÓN N°: A6-0409<br>INSPECTOR/A: <br>ÚLTIMA VISITA: <br>VENC. HABILITACIÓN: 22/08/2026<br>ESTADO: VIGENTE<br>OBSERVACIONES: OBRA NO CONFORME A PLANO<br>COORDENADAS: -35.5776723, -58.0136464<br>icon-opacity: <br>icon-color: <br>icon-scale: <br>icon-offset: <br>icon-offset-units: <br>icon: <br>Descripción: <br>RUBRO NORMALIZADO: "},"styleUrl":"#icon-1899-BDBDBD","label-scale":0,"icon-opacity":"","icon-color":"","icon-scale":"","icon-offset":"","icon-offset-units":"","icon":"","descripción":"","NOMBRE / COMERCIO":"LAGUNA CAMP S.R.L","CUIT":"30-71760660-0","CONTACTO":"2241576001","CATEGORÍA FISCAL":"SRL","DIRECCIÓN":"CIRCUNVALACION MARINO","BARRIO":"CENTRO","RUBRO":"CAMPING","CATEGORIA":"TURISMO Y ALOJAMIENTO","PADRÓN N°":"A6-0409","INSPECTOR/A":"","ÚLTIMA VISITA":"","VENC. HABILITACIÓN":"22/08/2026","ESTADO":"VIGENTE","OBSERVACIONES":"OBRA NO CONFORME A PLANO","COORDENADAS":"-35.5776723, -58.0136464","Descripción":"","RUBRO NORMALIZADO":""}},{"type":"Feature","geometry":{"type":"Point","coordinates":[-58.014956,-35.569505,0]},"properties":{"name":"HOTEL LAGUNA","description":{"@type":"html","value":"descripción: <br>styleUrl: #icon-1899-BDBDBD<br>NOMBRE / COMERCIO: LOZA TRISTAN MA DEL CARMEN<br>CUIT: 30665042142<br>CONTACTO: 2241500640<br>CATEGORÍA FISCAL: OTRA<br>DIRECCIÓN: L DEL SUR 422<br>BARRIO: CENTRO<br>RUBRO: HOTEL LAGUNA<br>CATEGORIA: TURISMO Y ALOJAMIENTO<br>PADRÓN N°: A4-0370<br>INSPECTOR/A: YANINA<br>ÚLTIMA VISITA: 2025-10-08<br>VENC. HABILITACIÓN: 11/07/2027<br>ESTADO: VIGENTE<br>OBSERVACIONES: HABILITACION VIGENTE. QUEDA SUJETO A PROXIMAS INSPECCIONES<br>COORDENADAS: -35.5695053, -58.01495610000001<br>icon-opacity: <br>icon-color: <br>icon-scale: <br>icon-offset: <br>icon-offset-units: <br>icon: <br>Descripción: <br>RUBRO NORMALIZADO: "},"styleUrl":"#icon-1899-BDBDBD","label-scale":0,"icon-opacity":"","icon-color":"","icon-scale":"","icon-offset":"","icon-offset-units":"","icon":"","descripción":"","NOMBRE / COMERCIO":"LOZA TRISTAN MA DEL CARMEN","CUIT":"30665042142","CONTACTO":"2241500640","CATEGORÍA FISCAL":"OTRA","DIRECCIÓN":"L DEL SUR 422","BARRIO":"CENTRO","RUBRO":"HOTEL LAGUNA","CATEGORIA":"TURISMO Y ALOJAMIENTO","PADRÓN N°":"A4-0370","INSPECTOR/A":"YANINA","ÚLTIMA VISITA":"2025-10-08","VENC. HABILITACIÓN":"11/07/2027","ESTADO":"VIGENTE","OBSERVACIONES":"HABILITACION VIGENTE. QUEDA SUJETO A PROXIMAS INSPECCIONES","COORDENADAS":"-35.5695053, -58.01495610000001","Descripción":"","RUBRO NORMALIZADO":""}},{"type":"Feature","geometry":{"type":"Point","coordinates":[-58.011791,-35.575803,0]},"properties":{"name":"AGENCIA TURISMO","description":{"@type":"html","value":"descripción: <br>styleUrl: #icon-1899-BDBDBD<br>NOMBRE / COMERCIO: MELANI MARIA EMILIA<br>CUIT: 23-28532747-4<br>CONTACTO: 2241501300<br>CATEGORÍA FISCAL: RESPONSABLE INSCRIPTO<br>DIRECCIÓN: QUINTANA 81<br>BARRIO: CENTRO<br>RUBRO: AGENCIA TURISMO<br>CATEGORIA: TURISMO Y ALOJAMIENTO<br>PADRÓN N°: A3-3860<br>INSPECTOR/A: ANIBAL<br>ÚLTIMA VISITA: 2026-06-01<br>VENC. HABILITACIÓN: 25/01/2025<br>ESTADO: VENCIDA<br>OBSERVACIONES: <br>COORDENADAS: -35.5758034, -58.011791<br>icon-opacity: <br>icon-color: <br>icon-scale: <br>icon-offset: <br>icon-offset-units: <br>icon: <br>Descripción: <br>RUBRO NORMALIZADO: "},"styleUrl":"#icon-1899-BDBDBD","label-scale":0,"icon-opacity":"","icon-color":"","icon-scale":"","icon-offset":"","icon-offset-units":"","icon":"","descripción":"","NOMBRE / COMERCIO":"MELANI MARIA EMILIA","CUIT":"23-28532747-4","CONTACTO":"2241501300","CATEGORÍA FISCAL":"RESPONSABLE INSCRIPTO","DIRECCIÓN":"QUINTANA 81","BARRIO":"CENTRO","RUBRO":"AGENCIA TURISMO","CATEGORIA":"TURISMO Y ALOJAMIENTO","PADRÓN N°":"A3-3860","INSPECTOR/A":"ANIBAL","ÚLTIMA VISITA":"2026-06-01","VENC. HABILITACIÓN":"25/01/2025","ESTADO":"VENCIDA","OBSERVACIONES":"QUE DEBE PRESENTAR EN LA OFICINA PARA RENOVAR LA MISMA. LA SRA MANIFIESTA QUE SE COMUNICO CON LA OFICINA Y ESPERA LA RENOVACION,","COORDENADAS":"-35.5758034, -58.011791","Descripción":"","RUBRO NORMALIZADO":""}},{"type":"Feature","geometry":{"type":"Point","coordinates":[-58.010759,-35.576904,0]},"properties":{"name":"HOTEL","description":{"@type":"html","value":"descripción: <br>styleUrl: #icon-1899-BDBDBD<br>NOMBRE / COMERCIO: MONTES MARIA LUJAN /HOTEL CHASCOMUS<br>CUIT: 27-00541956-0<br>CONTACTO: 422968<br>CATEGORÍA FISCAL: NO REGISTRA IMPUESTOS ACTIVOS<br>DIRECCIÓN: LASTRA 367<br>BARRIO: CENTRO<br>RUBRO: HOTEL<br>CATEGORIA: TURISMO Y ALOJAMIENTO<br>PADRÓN N°: A6-0114<br>INSPECTOR/A: SOFIA- IRMA<br>ÚLTIMA VISITA: 2025-08-29<br>VENC. HABILITACIÓN: 28/10/2027<br>ESTADO: VIGENTE<br>OBSERVACIONES: SE LLEGA AL LUGAR POR DENUNCIA, EQUIPO N° 8360 VTO 4/25 PH 4/25.  EQUIPO N° 931437 VTO 4/25 PH 4/29 HABILITACION VIGEBTE 28/10/27. SE OTORGA PLAZO PARA RECARGAR MATAFUEGOS<br>COORDENADAS: -35.5769043, -58.0107594<br>icon-opacity: <br>icon-color: <br>icon-scale: <br>icon-offset: <br>icon-offset-units: <br>icon: <br>Descripción: <br>RUBRO NORMALIZADO: "},"styleUrl":"#icon-1899-BDBDBD","label-scale":0,"icon-opacity":"","icon-color":"","icon-scale":"","icon-offset":"","icon-offset-units":"","icon":"","descripción":"","NOMBRE / COMERCIO":"MONTES MARIA LUJAN /HOTEL CHASCOMUS","CUIT":"27-00541956-0","CONTACTO":"422968","CATEGORÍA FISCAL":"NO REGISTRA IMPUESTOS ACTIVOS","DIRECCIÓN":"LASTRA 367","BARRIO":"CENTRO","RUBRO":"HOTEL","CATEGORIA":"TURISMO Y ALOJAMIENTO","PADRÓN N°":"A6-0114","INSPECTOR/A":"SOFIA- IRMA","ÚLTIMA VISITA":"2025-08-29","VENC. HABILITACIÓN":"28/10/2027","ESTADO":"VIGENTE","OBSERVACIONES":"SE LLEGA AL LUGAR POR DENUNCIA, EQUIPO N° 8360 VTO 4/25 PH 4/25.  EQUIPO N° 931437 VTO 4/25 PH 4/29 HABILITACION VIGEBTE 28/10/27. SE OTORGA PLAZO PARA RECARGAR MATAFUEGOS","COORDENADAS":"-35.5769043, -58.0107594","Descripción":"","RUBRO NORMALIZADO":""}},{"type":"Feature","geometry":{"type":"Point","coordinates":[-58.013792,-35.576099,0]},"properties":{"name":"HOTEL","description":{"@type":"html","value":"descripción: <br>styleUrl: #icon-1899-BDBDBD<br>NOMBRE / COMERCIO: MORAN JOSE LUIS<br>CUIT: 23-10096377-9<br>CONTACTO: 2241422977<br>CATEGORÍA FISCAL: RESPONSABLE INSCRIPTO<br>DIRECCIÓN: LIBRES DEL SUR 70<br>BARRIO: CENTRO<br>RUBRO: HOTEL<br>CATEGORIA: TURISMO Y ALOJAMIENTO<br>PADRÓN N°: A5-0532<br>INSPECTOR/A: YANINA<br>ÚLTIMA VISITA: 2025-09-04<br>VENC. HABILITACIÓN: 11/07/2028<br>ESTADO: VIGENTE<br>OBSERVACIONES: QUEDA SUJETO A PROXIMAS INSPECCIONES, HABILITACIOS VIGENTE<br>COORDENADAS: -35.5760986, -58.0137915<br>icon-opacity: <br>icon-color: <br>icon-scale: <br>icon-offset: <br>icon-offset-units: <br>icon: <br>Descripción: <br>RUBRO NORMALIZADO: "},"styleUrl":"#icon-1899-BDBDBD","label-scale":0,"icon-opacity":"","icon-color":"","icon-scale":"","icon-offset":"","icon-offset-units":"","icon":"","descripción":"","NOMBRE / COMERCIO":"MORAN JOSE LUIS","CUIT":"23-10096377-9","CONTACTO":"2241422977","CATEGORÍA FISCAL":"RESPONSABLE INSCRIPTO","DIRECCIÓN":"LIBRES DEL SUR 70","BARRIO":"CENTRO","RUBRO":"HOTEL","CATEGORIA":"TURISMO Y ALOJAMIENTO","PADRÓN N°":"A5-0532","INSPECTOR/A":"YANINA","ÚLTIMA VISITA":"2025-09-04","VENC. HABILITACIÓN":"11/07/2028","ESTADO":"VIGENTE","OBSERVACIONES":"QUEDA SUJETO A PROXIMAS INSPECCIONES, HABILITACIOS VIGENTE","COORDENADAS":"-35.5760986, -58.0137915","Descripción":"","RUBRO NORMALIZADO":""}},{"type":"Feature","geometry":{"type":"Point","coordinates":[-58.015057,-35.58194,0]},"properties":{"name":"HOTEL","description":{"@type":"html","value":"descripción: <br>styleUrl: #icon-1899-BDBDBD<br>NOMBRE / COMERCIO: UTEDYC<br>CUIT: 30-53160227-3<br>CONTACTO: 1138721597<br>CATEGORÍA FISCAL: OTRA<br>DIRECCIÓN: LA RIOJA 375<br>BARRIO: CENTRO<br>RUBRO: HOTEL<br>CATEGORIA: TURISMO Y ALOJAMIENTO<br>PADRÓN N°: A6-0422<br>INSPECTOR/A: SOFIA- IRMA<br>ÚLTIMA VISITA: 2026-04-22<br>VENC. HABILITACIÓN: 15/03/2026<br>ESTADO: VENCIDA<br>OBSERVACIONES: <br>COORDENADAS: -35.5819398, -58.015057<br>icon-opacity: <br>icon-color: <br>icon-scale: <br>icon-offset: <br>icon-offset-units: <br>icon: <br>Descripción: <br>RUBRO NORMALIZADO: "},"styleUrl":"#icon-1899-BDBDBD","label-scale":0,"icon-opacity":"","icon-color":"","icon-scale":"","icon-offset":"","icon-offset-units":"","icon":"","descripción":"","NOMBRE / COMERCIO":"UTEDYC","CUIT":"30-53160227-3","CONTACTO":"1138721597","CATEGORÍA FISCAL":"OTRA","DIRECCIÓN":"LA RIOJA 375","BARRIO":"CENTRO","RUBRO":"HOTEL","CATEGORIA":"TURISMO Y ALOJAMIENTO","PADRÓN N°":"A6-0422","INSPECTOR/A":"SOFIA- IRMA","ÚLTIMA VISITA":"2026-04-22","VENC. HABILITACIÓN":"15/03/2026","ESTADO":"VENCIDA","OBSERVACIONES":"CUMPLE CON LA NORMATIVA VIGENTE PARA LA OBTENCION DE SU HABILITACION","COORDENADAS":"-35.5819398, -58.015057","Descripción":"","RUBRO NORMALIZADO":""}},{"type":"Feature","geometry":{"type":"Point","coordinates":[-57.988227,-35.60684,0]},"properties":{"name":"CAMPING PROVEEDURIA","description":{"@type":"html","value":"descripción: <br>styleUrl: #icon-1899-BDBDBD<br>NOMBRE / COMERCIO: SINDICATO DE EMPLEADOS DE LA CAJA DE SUBSIDIOS<br>CUIT: 30-62331003-1<br>CONTACTO: <br>CATEGORÍA FISCAL: ASOCIACION<br>DIRECCIÓN: CAMINO CIRCUNVALACION KM 16,8<br>BARRIO: <br>RUBRO: CAMPING PROVEEDURIA<br>CATEGORIA: TURISMO Y ALOJAMIENTO<br>PADRÓN N°: A6-0393<br>INSPECTOR/A: ANIBAL<br>ÚLTIMA VISITA: 2026-01-08<br>VENC. HABILITACIÓN: 10/11/2026<br>ESTADO: VIGENTE<br>OBSERVACIONES: CUMPLE CON LA NORMATIVA<br>COORDENADAS: -35.6068405, -57.9882274<br>icon-opacity: <br>icon-color: <br>icon-scale: <br>icon-offset: <br>icon-offset-units: <br>icon: <br>Descripción: <br>RUBRO NORMALIZADO: "},"styleUrl":"#icon-1899-BDBDBD","label-scale":0,"icon-opacity":"","icon-color":"","icon-scale":"","icon-offset":"","icon-offset-units":"","icon":"","descripción":"","NOMBRE / COMERCIO":"SINDICATO DE EMPLEADOS DE LA CAJA DE SUBSIDIOS","CUIT":"30-62331003-1","CONTACTO":"2241538962","CATEGORÍA FISCAL":"ASOCIACION","DIRECCIÓN":"CAMINO CIRCUNVALACION KM 16,8","BARRIO":"COMI PINI","RUBRO":"CAMPING PROVEEDURIA","CATEGORIA":"TURISMO Y ALOJAMIENTO","PADRÓN N°":"A6-0393","INSPECTOR/A":"ANIBAL","ÚLTIMA VISITA":"2026-01-08","VENC. HABILITACIÓN":"10/11/2026","ESTADO":"VIGENTE","OBSERVACIONES":"CUMPLE CON LA NORMATIVA","COORDENADAS":"-35.6068405, -57.9882274","Descripción":"","RUBRO NORMALIZADO":""}},{"type":"Feature","geometry":{"type":"Point","coordinates":[-57.991296,-35.58215,0]},"properties":{"name":"EXPLOTACION TURISTICA DE CABAÑAS","description":{"@type":"html","value":"descripción: <br>styleUrl: #icon-1899-BDBDBD<br>NOMBRE / COMERCIO: ABARCA PAMELA<br>CUIT: 27-31953942-0<br>CONTACTO: 2241577113<br>CATEGORÍA FISCAL: RESPONSABLE INSCRIPTO<br>DIRECCIÓN: GONZALEZ CHAVEZ 645<br>BARRIO: <br>RUBRO: EXPLOTACION TURISTICA DE CABAÑAS<br>CATEGORIA: TURISMO Y ALOJAMIENTO<br>PADRÓN N°: A4-0558<br>INSPECTOR/A: MARTINA<br>ÚLTIMA VISITA: 2026-03-30<br>VENC. HABILITACIÓN: 16/04/2029<br>ESTADO: VIGENTE<br>OBSERVACIONES: <br>COORDENADAS: -35.58215, -57.9912955<br>icon-opacity: <br>icon-color: <br>icon-scale: <br>icon-offset: <br>icon-offset-units: <br>icon: <br>Descripción: <br>RUBRO NORMALIZADO: "},"styleUrl":"#icon-1899-BDBDBD","label-scale":0,"icon-opacity":"","icon-color":"","icon-scale":"","icon-offset":"","icon-offset-units":"","icon":"","descripción":"","NOMBRE / COMERCIO":"ABARCA PAMELA","CUIT":"27-31953942-0","CONTACTO":"2241577113","CATEGORÍA FISCAL":"RESPONSABLE INSCRIPTO","DIRECCIÓN":"GONZALEZ CHAVEZ 645","BARRIO":"COSTANERA","RUBRO":"EXPLOTACION TURISTICA DE CABAÑAS","CATEGORIA":"TURISMO Y ALOJAMIENTO","PADRÓN N°":"A4-0558","INSPECTOR/A":"MARTINA","ÚLTIMA VISITA":"2026-03-30","VENC. HABILITACIÓN":"16/04/2029","ESTADO":"VIGENTE","OBSERVACIONES":"","COORDENADAS":"-35.58215, -57.9912955","Descripción":"","RUBRO NORMALIZADO":""}},{"type":"Feature","geometry":{"type":"Point","coordinates":[-57.989892,-35.588093,0]},"properties":{"name":"COMPLEJO DE CABAÑAS","description":{"@type":"html","value":"descripción: <br>styleUrl: #icon-1899-BDBDBD<br>NOMBRE / COMERCIO: SEBASTIA ALEJANDRA<br>CUIT: 27266248178<br>CONTACTO: 2241410658<br>CATEGORÍA FISCAL: MONOTRIBUTISTA D<br>DIRECCIÓN: BRAGADO 652<br>BARRIO: <br>RUBRO: COMPLEJO DE CABAÑAS<br>CATEGORIA: TURISMO Y ALOJAMIENTO<br>PADRÓN N°: A5-0486<br>INSPECTOR/A: MARTINA<br>ÚLTIMA VISITA: 2026-03-02<br>VENC. HABILITACIÓN: 10/01/2027<br>ESTADO: VIGENTE<br>OBSERVACIONES: APTO<br>COORDENADAS: -35.5880931, -57.98989239999999<br>icon-opacity: <br>icon-color: <br>icon-scale: <br>icon-offset: <br>icon-offset-units: <br>icon: <br>Descripción: <br>RUBRO NORMALIZADO: "},"styleUrl":"#icon-1899-BDBDBD","label-scale":0,"icon-opacity":"","icon-color":"","icon-scale":"","icon-offset":"","icon-offset-units":"","icon":"","descripción":"","NOMBRE / COMERCIO":"SEBASTIA ALEJANDRA","CUIT":"27266248178","CONTACTO":"2241410658","CATEGORÍA FISCAL":"MONOTRIBUTISTA D","DIRECCIÓN":"BRAGADO 652","BARRIO":"COSTANERA","RUBRO":"COMPLEJO DE CABAÑAS","CATEGORIA":"TURISMO Y ALOJAMIENTO","PADRÓN N°":"A5-0486","INSPECTOR/A":"MARTINA","ÚLTIMA VISITA":"2026-03-02","VENC. HABILITACIÓN":"10/01/2027","ESTADO":"VIGENTE","OBSERVACIONES":"APTO","COORDENADAS":"-35.5880931, -57.98989239999999","Descripción":"","RUBRO NORMALIZADO":""}},{"type":"Feature","geometry":{"type":"Point","coordinates":[-58.00244,-35.573368,0]},"properties":{"name":"ALQUILER TEMPORARIO","description":{"@type":"html","value":"descripción: <br>styleUrl: #icon-1899-C2185B<br>NOMBRE / COMERCIO: ABELENDA VIRGINIA<br>CUIT: 27-23005523-3<br>CONTACTO: 111556578614<br>CATEGORÍA FISCAL: MONOTRIBUTISTA A<br>DIRECCIÓN: SOLIS 254<br>BARRIO: EL HUECO<br>RUBRO: ALQUILER TEMPORARIO<br>CATEGORIA: TURISMO Y ALOJAMIENTO<br>PADRÓN N°: A2-0077<br>INSPECTOR/A: <br>ÚLTIMA VISITA: <br>VENC. HABILITACIÓN: 15/02/2025<br>ESTADO: VENCIDA<br>OBSERVACIONES: <br>COORDENADAS: -35.5733678, -58.0024405<br>icon-opacity: <br>icon-color: <br>icon-scale: <br>icon-offset: <br>icon-offset-units: <br>icon: <br>Descripción: <br>RUBRO NORMALIZADO: "},"styleUrl":"#icon-1899-C2185B","label-scale":0,"icon-opacity":"","icon-color":"","icon-scale":"","icon-offset":"","icon-offset-units":"","icon":"","descripción":"","NOMBRE / COMERCIO":"ABELENDA VIRGINIA","CUIT":"27-23005523-3","CONTACTO":"111556578614","CATEGORÍA FISCAL":"MONOTRIBUTISTA A","DIRECCIÓN":"SOLIS 254","BARRIO":"EL HUECO","RUBRO":"ALQUILER TEMPORARIO","CATEGORIA":"TURISMO Y ALOJAMIENTO","PADRÓN N°":"A2-0077","INSPECTOR/A":"","ÚLTIMA VISITA":"","VENC. HABILITACIÓN":"15/02/2025","ESTADO":"VENCIDA","OBSERVACIONES":"","COORDENADAS":"-35.5733678, -58.0024405","Descripción":"","RUBRO NORMALIZADO":""}},{"type":"Feature","geometry":{"type":"Point","coordinates":[-58.016431,-35.567513,0]},"properties":{"name":"HOTEL","description":{"@type":"html","value":"descripción: <br>styleUrl: #icon-1899-BDBDBD<br>NOMBRE / COMERCIO: APAOLAZA SANTIAGO MARTIN<br>CUIT: 20-24269695-7<br>CONTACTO: 241422273<br>CATEGORÍA FISCAL: RESPONSABLE INSCRIPTO<br>DIRECCIÓN: BELGRANO 485<br>BARRIO: EL OBISPADO<br>RUBRO: HOTEL<br>CATEGORIA: TURISMO Y ALOJAMIENTO<br>PADRÓN N°: A4-0503<br>INSPECTOR/A: YANINA<br>ÚLTIMA VISITA: 2026-06-16<br>VENC. HABILITACIÓN: 15/05/2026<br>ESTADO: VENCIDA<br>OBSERVACIONES: <br>COORDENADAS: -35.5675134, -58.0164311<br>icon-opacity: <br>icon-color: <br>icon-scale: <br>icon-offset: <br>icon-offset-units: <br>icon: <br>Descripción: <br>RUBRO NORMALIZADO: "},"styleUrl":"#icon-1899-BDBDBD","label-scale":0,"icon-opacity":"","icon-color":"","icon-scale":"","icon-offset":"","icon-offset-units":"","icon":"","descripción":"","NOMBRE / COMERCIO":"APAOLAZA SANTIAGO MARTIN","CUIT":"20-24269695-7","CONTACTO":"241422273","CATEGORÍA FISCAL":"RESPONSABLE INSCRIPTO","DIRECCIÓN":"BELGRANO 485","BARRIO":"EL OBISPADO","RUBRO":"HOTEL","CATEGORIA":"TURISMO Y ALOJAMIENTO","PADRÓN N°":"A4-0503","INSPECTOR/A":"YANINA","ÚLTIMA VISITA":"2026-06-16","VENC. HABILITACIÓN":"15/05/2026","ESTADO":"VENCIDA","OBSERVACIONES":"HABILITACION 15-03-2024","COORDENADAS":"-35.5675134, -58.0164311","Descripción":"","RUBRO NORMALIZADO":""}},{"type":"Feature","geometry":{"type":"Point","coordinates":[-57.959058,-35.571179,0]},"properties":{"name":"CAMPAMENTO CON SERVICIO DE ALOJAMIENTO","description":{"@type":"html","value":"descripción: <br>styleUrl: #icon-1899-BDBDBD<br>NOMBRE / COMERCIO: KAPAWA - ESPAÑOL HERNAN<br>CUIT: 30711764727<br>CONTACTO: 1165178717<br>CATEGORÍA FISCAL: NO REGISTRA IMPUESTOS ACTIVOS<br>DIRECCIÓN: RUTA 58 N° 2575<br>BARRIO: EL PORTEÑO<br>RUBRO: CAMPAMENTO CON SERVICIO DE ALOJAMIENTO<br>CATEGORIA: TURISMO Y ALOJAMIENTO<br>PADRÓN N°: A6-337<br>INSPECTOR/A: MARTINA<br>ÚLTIMA VISITA: 2026-03-18<br>VENC. HABILITACIÓN: 20/11/2026<br>ESTADO: VIGENTE<br>OBSERVACIONES: <br>COORDENADAS: -35.5776723, -58.0136464<br>icon-opacity: <br>icon-color: <br>icon-scale: <br>icon-offset: <br>icon-offset-units: <br>icon: <br>Descripción: <br>RUBRO NORMALIZADO: "},"styleUrl":"#icon-1899-BDBDBD","label-scale":0,"icon-opacity":"","icon-color":"","icon-scale":"","icon-offset":"","icon-offset-units":"","icon":"","descripción":"","NOMBRE / COMERCIO":"KAPAWA - ESPAÑOL HERNAN","CUIT":"30711764727","CONTACTO":"1165178717","CATEGORÍA FISCAL":"NO REGISTRA IMPUESTOS ACTIVOS","DIRECCIÓN":"RUTA 58 N° 2575","BARRIO":"EL PORTEÑO","RUBRO":"CAMPAMENTO CON SERVICIO DE ALOJAMIENTO","CATEGORIA":"TURISMO Y ALOJAMIENTO","PADRÓN N°":"A6-337","INSPECTOR/A":"MARTINA","ÚLTIMA VISITA":"2026-03-18","VENC. HABILITACIÓN":"20/11/2026","ESTADO":"VIGENTE","OBSERVACIONES":"","COORDENADAS":"-35.5776723, -58.0136464","Descripción":"","RUBRO NORMALIZADO":""}},{"type":"Feature","geometry":{"type":"Point","coordinates":[-58.02385,-35.566945,0]},"properties":{"name":"ALQUILER DE CABAÑAS","description":{"@type":"html","value":"descripción: <br>styleUrl: #icon-1899-C2185B<br>NOMBRE / COMERCIO: CABAÑA HOTEL CASA BLANCA<br>CUIT: 27-05570141-0<br>CONTACTO: 2241698482<br>CATEGORÍA FISCAL: MONOTRIBUTISTA A<br>DIRECCIÓN: ORZALI 640<br>BARRIO: ESCRIBANO<br>RUBRO: ALQUILER DE CABAÑAS<br>CATEGORIA: TURISMO Y ALOJAMIENTO<br>PADRÓN N°: A4-0518<br>INSPECTOR/A: SOFIA- IRMA<br>ÚLTIMA VISITA: 2025-07-07<br>VENC. HABILITACIÓN: 05/06/2028<br>ESTADO: VIGENTE<br>OBSERVACIONES: PASARON SOFI E IRMA ESTABA CERRADO, SE DEJA COPIA<br>COORDENADAS: -35.5669447, -58.0238495<br>icon-opacity: <br>icon-color: <br>icon-scale: <br>icon-offset: <br>icon-offset-units: <br>icon: <br>Descripción: <br>RUBRO NORMALIZADO: "},"styleUrl":"#icon-1899-C2185B","label-scale":0,"icon-opacity":"","icon-color":"","icon-scale":"","icon-offset":"","icon-offset-units":"","icon":"","descripción":"","NOMBRE / COMERCIO":"CABAÑA HOTEL CASA BLANCA","CUIT":"27-05570141-0","CONTACTO":"2241698482","CATEGORÍA FISCAL":"MONOTRIBUTISTA A","DIRECCIÓN":"ORZALI 640","BARRIO":"ESCRIBANO","RUBRO":"ALQUILER DE CABAÑAS","CATEGORIA":"TURISMO Y ALOJAMIENTO","PADRÓN N°":"A4-0518","INSPECTOR/A":"SOFIA- IRMA","ÚLTIMA VISITA":"2025-07-07","VENC. HABILITACIÓN":"05/06/2028","ESTADO":"VIGENTE","OBSERVACIONES":"PASARON SOFI E IRMA ESTABA CERRADO, SE DEJA COPIA","COORDENADAS":"-35.5669447, -58.0238495","Descripción":"","RUBRO NORMALIZADO":""}},{"type":"Feature","geometry":{"type":"Point","coordinates":[-58.013646,-35.577672,0]},"properties":{"name":"ALQUILER TEMPORAL","description":{"@type":"html","value":"descripción: <br>styleUrl: #icon-1899-C2185B<br>NOMBRE / COMERCIO: MONTEROS MARIA ROSA<br>CUIT: 27-23920592-0<br>CONTACTO: 2241468222<br>CATEGORÍA FISCAL: NO REGISTRA IMPUESTOS ACTIVOS<br>DIRECCIÓN: 11 DE September 0660<br>BARRIO: ESCRIBANO<br>RUBRO: ALQUILER TEMPORAL<br>CATEGORIA: TURISMO Y ALOJAMIENTO<br>PADRÓN N°: A2-0085<br>INSPECTOR/A: <br>ÚLTIMA VISITA: <br>VENC. HABILITACIÓN: 09/04/2027<br>ESTADO: VIGENTE<br>OBSERVACIONES: <br>COORDENADAS: -35.5776723, -58.0136464<br>icon-opacity: <br>icon-color: <br>icon-scale: <br>icon-offset: <br>icon-offset-units: <br>icon: <br>Descripción: <br>RUBRO NORMALIZADO: "},"styleUrl":"#icon-1899-C2185B","label-scale":0,"icon-opacity":"","icon-color":"","icon-scale":"","icon-offset":"","icon-offset-units":"","icon":"","descripción":"","NOMBRE / COMERCIO":"MONTEROS MARIA ROSA","CUIT":"27-23920592-0","CONTACTO":"2241468222","CATEGORÍA FISCAL":"NO REGISTRA IMPUESTOS ACTIVOS","DIRECCIÓN":"11 DE September 0660","BARRIO":"ESCRIBANO","RUBRO":"ALQUILER TEMPORAL","CATEGORIA":"TURISMO Y ALOJAMIENTO","PADRÓN N°":"A2-0085","INSPECTOR/A":"","ÚLTIMA VISITA":"","VENC. HABILITACIÓN":"09/04/2027","ESTADO":"VIGENTE","OBSERVACIONES":"","COORDENADAS":"-35.5776723, -58.0136464","Descripción":"","RUBRO NORMALIZADO":""}},{"type":"Feature","geometry":{"type":"Point","coordinates":[-57.987789,-35.587714,0]},"properties":{"name":"ALQUILER CABAÑAS","description":{"@type":"html","value":"descripción: <br>styleUrl: #icon-1899-C2185B<br>NOMBRE / COMERCIO: OBRA SOCIAL DE COMISARIOS NAVALES<br>CUIT: 30-67787023-7<br>CONTACTO: 1144459109<br>CATEGORÍA FISCAL: ASOCIACION<br>DIRECCIÓN: BRAGADO 743<br>BARRIO: ESTEBAN ECHEVERRIA<br>RUBRO: ALQUILER CABAÑAS<br>CATEGORIA: TURISMO Y ALOJAMIENTO<br>PADRÓN N°: A4-0474<br>INSPECTOR/A: ANIBAL<br>ÚLTIMA VISITA: 2025-07-03<br>VENC. HABILITACIÓN: 08/07/2028<br>ESTADO: VIGENTE<br>OBSERVACIONES: CUMPLE CON LA NORMATIVA VIGENTE PARA LA OBTENCION DE SU HABILITACION<br>COORDENADAS: -35.5877142, -57.9877886<br>icon-opacity: <br>icon-color: <br>icon-scale: <br>icon-offset: <br>icon-offset-units: <br>icon: <br>Descripción: <br>RUBRO NORMALIZADO: "},"styleUrl":"#icon-1899-C2185B","label-scale":0,"icon-opacity":"","icon-color":"","icon-scale":"","icon-offset":"","icon-offset-units":"","icon":"","descripción":"","NOMBRE / COMERCIO":"OBRA SOCIAL DE COMISARIOS NAVALES","CUIT":"30-67787023-7","CONTACTO":"1144459109","CATEGORÍA FISCAL":"ASOCIACION","DIRECCIÓN":"BRAGADO 743","BARRIO":"ESTEBAN ECHEVERRIA","RUBRO":"ALQUILER CABAÑAS","CATEGORIA":"TURISMO Y ALOJAMIENTO","PADRÓN N°":"A4-0474","INSPECTOR/A":"ANIBAL","ÚLTIMA VISITA":"2025-07-03","VENC. HABILITACIÓN":"08/07/2028","ESTADO":"VIGENTE","OBSERVACIONES":"CUMPLE CON LA NORMATIVA VIGENTE PARA LA OBTENCION DE SU HABILITACION","COORDENADAS":"-35.5877142, -57.9877886","Descripción":"","RUBRO NORMALIZADO":""}},{"type":"Feature","geometry":{"type":"Point","coordinates":[-58.005065,-35.580306,0]},"properties":{"name":"ALQUILER TEMPORARIO","description":{"@type":"html","value":"descripción: <br>styleUrl: #icon-1899-C2185B<br>NOMBRE / COMERCIO: FERRANTE MARIA CONSTANZA<br>CUIT: 27-25383880-4<br>CONTACTO: 224115496865<br>CATEGORÍA FISCAL: MONOTRIBUTISTA C<br>DIRECCIÓN: ARTIGAS 183<br>BARRIO: FATIMA<br>RUBRO: ALQUILER TEMPORARIO<br>CATEGORIA: TURISMO Y ALOJAMIENTO<br>PADRÓN N°: A2-0080<br>INSPECTOR/A: MARTINA<br>ÚLTIMA VISITA: 2026-03-14<br>VENC. HABILITACIÓN: 22/11/2026<br>ESTADO: VIGENTE<br>OBSERVACIONES: <br>COORDENADAS: -35.5803064, -58.00506489999999<br>icon-opacity: <br>icon-color: <br>icon-scale: <br>icon-offset: <br>icon-offset-units: <br>icon: <br>Descripción: <br>RUBRO NORMALIZADO: "},"styleUrl":"#icon-1899-C2185B","label-scale":0,"icon-opacity":"","icon-color":"","icon-scale":"","icon-offset":"","icon-offset-units":"","icon":"","descripción":"","NOMBRE / COMERCIO":"FERRANTE MARIA CONSTANZA","CUIT":"27-25383880-4","CONTACTO":"224115496865","CATEGORÍA FISCAL":"MONOTRIBUTISTA C","DIRECCIÓN":"ARTIGAS 183","BARRIO":"FATIMA","RUBRO":"ALQUILER TEMPORARIO","CATEGORIA":"TURISMO Y ALOJAMIENTO","PADRÓN N°":"A2-0080","INSPECTOR/A":"MARTINA","ÚLTIMA VISITA":"2026-03-14","VENC. HABILITACIÓN":"22/11/2026","ESTADO":"VIGENTE","OBSERVACIONES":"","COORDENADAS":"-35.5803064, -58.00506489999999","Descripción":"","RUBRO NORMALIZADO":""}},{"type":"Feature","geometry":{"type":"Point","coordinates":[-57.999544,-35.58303,0]},"properties":{"name":"ALQUILER DE CABAÑAS","description":{"@type":"html","value":"descripción: <br>styleUrl: #icon-1899-C2185B<br>NOMBRE / COMERCIO: GONZALEZ MARIA SUSANA<br>CUIT: 27-24546454-7<br>CONTACTO: 2241496679<br>CATEGORÍA FISCAL: RESPONSABLE INSCRIPTO<br>DIRECCIÓN: AV COSTANERA MARIO LOPEZ OSORNIO<br>BARRIO: FATIMA<br>RUBRO: ALQUILER DE CABAÑAS<br>CATEGORIA: TURISMO Y ALOJAMIENTO<br>PADRÓN N°: A5-0762<br>INSPECTOR/A: YANINA<br>ÚLTIMA VISITA: 2026-01-26<br>VENC. HABILITACIÓN: 30/11/2026<br>ESTADO: VIGENTE<br>OBSERVACIONES: <br>COORDENADAS: -35.58303, -57.9995436<br>icon-opacity: <br>icon-color: <br>icon-scale: <br>icon-offset: <br>icon-offset-units: <br>icon: <br>Descripción: <br>RUBRO NORMALIZADO: "},"styleUrl":"#icon-1899-C2185B","label-scale":0,"icon-opacity":"","icon-color":"","icon-scale":"","icon-offset":"","icon-offset-units":"","icon":"","descripción":"","NOMBRE / COMERCIO":"GONZALEZ MARIA SUSANA","CUIT":"27-24546454-7","CONTACTO":"2241496679","CATEGORÍA FISCAL":"RESPONSABLE INSCRIPTO","DIRECCIÓN":"AV COSTANERA MARIO LOPEZ OSORNIO","BARRIO":"FATIMA","RUBRO":"ALQUILER DE CABAÑAS","CATEGORIA":"TURISMO Y ALOJAMIENTO","PADRÓN N°":"A5-0762","INSPECTOR/A":"YANINA","ÚLTIMA VISITA":"2026-01-26","VENC. HABILITACIÓN":"30/11/2026","ESTADO":"VIGENTE","OBSERVACIONES":"","COORDENADAS":"-35.58303, -57.9995436","Descripción":"","RUBRO NORMALIZADO":""}},{"type":"Feature","geometry":{"type":"Point","coordinates":[-58.004816,-35.583029,0]},"properties":{"name":"ALQUILER DE CABAÑAS","description":{"@type":"html","value":"descripción: <br>styleUrl: #icon-1899-C2185B<br>NOMBRE / COMERCIO: MAFFEO PATRICIA NELLY<br>CUIT: 23-14121297-4<br>CONTACTO: 2241676645<br>CATEGORÍA FISCAL: MONOTRIBUTISTA A<br>DIRECCIÓN: ARTIGAS  345<br>BARRIO: FATIMA<br>RUBRO: ALQUILER DE CABAÑAS<br>CATEGORIA: TURISMO Y ALOJAMIENTO<br>PADRÓN N°: A5-0579<br>INSPECTOR/A: YANINA<br>ÚLTIMA VISITA: 2025-10-31<br>VENC. HABILITACIÓN: 20/05/2026<br>ESTADO: VENCIDA<br>OBSERVACIONES: POSEE MATAFUEGO N°028711 VTO PH 2/26 CARGA 2/26. N° 029584 VTO PH 2/26 CARGA 2/26. N°1H0030027 VTO CARGA 3/26. N° 029584 VTO PH 2/26 VTO CARGA 2/26, SE FIRMA APTO EN MEDIDAS DE SEGURIDAD.<br>COORDENADAS: -35.5830291, -58.0048155<br>icon-opacity: <br>icon-color: <br>icon-scale: <br>icon-offset: <br>icon-offset-units: <br>icon: <br>Descripción: <br>RUBRO NORMALIZADO: "},"styleUrl":"#icon-1899-C2185B","label-scale":0,"icon-opacity":"","icon-color":"","icon-scale":"","icon-offset":"","icon-offset-units":"","icon":"","descripción":"","NOMBRE / COMERCIO":"MAFFEO PATRICIA NELLY","CUIT":"23-14121297-4","CONTACTO":"2241676645","CATEGORÍA FISCAL":"MONOTRIBUTISTA A","DIRECCIÓN":"ARTIGAS  345","BARRIO":"FATIMA","RUBRO":"ALQUILER DE CABAÑAS","CATEGORIA":"TURISMO Y ALOJAMIENTO","PADRÓN N°":"A5-0579","INSPECTOR/A":"YANINA","ÚLTIMA VISITA":"2025-10-31","VENC. HABILITACIÓN":"20/05/2026","ESTADO":"VENCIDA","OBSERVACIONES":"POSEE MATAFUEGO N°028711 VTO PH 2/26 CARGA 2/26. N° 029584 VTO PH 2/26 CARGA 2/26. N°1H0030027 VTO CARGA 3/26. N° 029584 VTO PH 2/26 VTO CARGA 2/26, SE FIRMA APTO EN MEDIDAS DE SEGURIDAD.","COORDENADAS":"-35.5830291, -58.0048155","Descripción":"","RUBRO NORMALIZADO":""}},{"type":"Feature","geometry":{"type":"Point","coordinates":[-58.013646,-35.577672,0]},"properties":{"name":"ALQUILER DE CABAÑAS","description":{"@type":"html","value":"descripción: <br>styleUrl: #icon-1899-C2185B<br>NOMBRE / COMERCIO: Jumaluan - Scorians Federico<br>CUIT: 20-26251817-6<br>CONTACTO: 2215582080<br>CATEGORÍA FISCAL: MONOTRIBUTISTA B<br>DIRECCIÓN: AZURDUY 925<br>BARRIO: <br>RUBRO: ALQUILER DE CABAÑAS<br>CATEGORIA: TURISMO Y ALOJAMIENTO<br>PADRÓN N°: A5-0711<br>INSPECTOR/A: ANIBAL<br>ÚLTIMA VISITA: 2025-12-18<br>VENC. HABILITACIÓN: 06/01/2029<br>ESTADO: VIGENTE<br>OBSERVACIONES: CUMPLE CON LA NORMATIVA VIGENTE PARA SU HABILITACION<br>COORDENADAS: -35.5776723, -58.0136464<br>icon-opacity: <br>icon-color: <br>icon-scale: <br>icon-offset: <br>icon-offset-units: <br>icon: <br>Descripción: <br>RUBRO NORMALIZADO: "},"styleUrl":"#icon-1899-C2185B","label-scale":0,"icon-opacity":"","icon-color":"","icon-scale":"","icon-offset":"","icon-offset-units":"","icon":"","descripción":"","NOMBRE / COMERCIO":"Jumaluan - Scorians Federico","CUIT":"20-26251817-6","CONTACTO":"2215582080","CATEGORÍA FISCAL":"MONOTRIBUTISTA B","DIRECCIÓN":"AZURDUY 925","BARRIO":"GANDARA","RUBRO":"ALQUILER DE CABAÑAS","CATEGORIA":"TURISMO Y ALOJAMIENTO","PADRÓN N°":"A5-0711","INSPECTOR/A":"ANIBAL","ÚLTIMA VISITA":"2025-12-18","VENC. HABILITACIÓN":"06/01/2029","ESTADO":"VIGENTE","OBSERVACIONES":"CUMPLE CON LA NORMATIVA VIGENTE PARA SU HABILITACION","COORDENADAS":"-35.5776723, -58.0136464","Descripción":"","RUBRO NORMALIZADO":""}},{"type":"Feature","geometry":{"type":"Point","coordinates":[-58.013646,-35.577672,0]},"properties":{"name":"ALQUILER CABAÑAS","description":{"@type":"html","value":"descripción: <br>styleUrl: #icon-1899-C2185B<br>NOMBRE / COMERCIO: CASERO HERIBERTO<br>CUIT: 20-07375364-4<br>CONTACTO: 474377<br>CATEGORÍA FISCAL: RESPONSABLE INSCRIPTO<br>DIRECCIÓN: AV. PEDRO URRUTI 608<br>BARRIO: LA CONCORDIA<br>RUBRO: ALQUILER CABAÑAS<br>CATEGORIA: TURISMO Y ALOJAMIENTO<br>PADRÓN N°: A6-0065<br>INSPECTOR/A: YANINA<br>ÚLTIMA VISITA: 2026-01-21<br>VENC. HABILITACIÓN: 10/05/2026<br>ESTADO: VENCIDA<br>OBSERVACIONES: <br>COORDENADAS: -35.5776723, -58.0136464<br>icon-opacity: <br>icon-color: <br>icon-scale: <br>icon-offset: <br>icon-offset-units: <br>icon: <br>Descripción: <br>RUBRO NORMALIZADO: "},"styleUrl":"#icon-1899-C2185B","label-scale":0,"icon-opacity":"","icon-color":"","icon-scale":"","icon-offset":"","icon-offset-units":"","icon":"","descripción":"","NOMBRE / COMERCIO":"CASERO HERIBERTO","CUIT":"20-07375364-4","CONTACTO":"474377","CATEGORÍA FISCAL":"RESPONSABLE INSCRIPTO","DIRECCIÓN":"AV. PEDRO URRUTI 608","BARRIO":"LA CONCORDIA","RUBRO":"ALQUILER CABAÑAS","CATEGORIA":"TURISMO Y ALOJAMIENTO","PADRÓN N°":"A6-0065","INSPECTOR/A":"YANINA","ÚLTIMA VISITA":"2026-01-21","VENC. HABILITACIÓN":"10/05/2026","ESTADO":"VENCIDA","OBSERVACIONES":"","COORDENADAS":"-35.5776723, -58.0136464","Descripción":"","RUBRO NORMALIZADO":""}},{"type":"Feature","geometry":{"type":"Point","coordinates":[-58.016603,-35.568384,0]},"properties":{"name":"ALQUILER DE CABAÑAS","description":{"@type":"html","value":"descripción: <br>styleUrl: #icon-1899-C2185B<br>NOMBRE / COMERCIO: DEMICHELI PABLO MARTIN<br>CUIT: 31722283<br>CONTACTO: 1160035225<br>CATEGORÍA FISCAL: MONOTRIBUTISTA H<br>DIRECCIÓN: ESCRIBANO 654<br>BARRIO: LA CONCORDIA<br>RUBRO: ALQUILER DE CABAÑAS<br>CATEGORIA: TURISMO Y ALOJAMIENTO<br>PADRÓN N°: A6 0371<br>INSPECTOR/A: ANIBAL<br>ÚLTIMA VISITA: 2024-03-31<br>VENC. HABILITACIÓN: 16/04/2029<br>ESTADO: VIGENTE<br>OBSERVACIONES: <br>COORDENADAS: -35.5683835, -58.0166031<br>icon-opacity: <br>icon-color: <br>icon-scale: <br>icon-offset: <br>icon-offset-units: <br>icon: <br>Descripción: <br>RUBRO NORMALIZADO: "},"styleUrl":"#icon-1899-C2185B","label-scale":0,"icon-opacity":"","icon-color":"","icon-scale":"","icon-offset":"","icon-offset-units":"","icon":"","descripción":"","NOMBRE / COMERCIO":"DEMICHELI PABLO MARTIN","CUIT":"31722283","CONTACTO":"1160035225","CATEGORÍA FISCAL":"MONOTRIBUTISTA H","DIRECCIÓN":"ESCRIBANO 654","BARRIO":"LA CONCORDIA","RUBRO":"ALQUILER DE CABAÑAS","CATEGORIA":"TURISMO Y ALOJAMIENTO","PADRÓN N°":"A6 0371","INSPECTOR/A":"ANIBAL","ÚLTIMA VISITA":"2024-03-31","VENC. HABILITACIÓN":"16/04/2029","ESTADO":"VIGENTE","OBSERVACIONES":"","COORDENADAS":"-35.5683835, -58.0166031","Descripción":"","RUBRO NORMALIZADO":""}},{"type":"Feature","geometry":{"type":"Point","coordinates":[-58.027119,-35.566717,0]},"properties":{"name":"ALQUILER DE CABAÑAS","description":{"@type":"html","value":"descripción: <br>styleUrl: #icon-1899-C2185B<br>NOMBRE / COMERCIO: LA MENDOLA DANIEL HERNAN<br>CUIT: 20-28364201-2<br>CONTACTO: 1560922493<br>CATEGORÍA FISCAL: RESPONSABLE INSCRIPTO<br>DIRECCIÓN: SANTIAGO ROCA 708<br>BARRIO: CONCORDIA<br>RUBRO: ALQUILER DE CABAÑAS<br>CATEGORIA: TURISMO Y ALOJAMIENTO<br>PADRÓN N°: A5-0449<br>INSPECTOR/A: YANINA<br>ÚLTIMA VISITA: 2026-01-22<br>VENC. HABILITACIÓN: 19/03/2028<br>ESTADO: VIGENTE<br>OBSERVACIONES: <br>COORDENADAS: -35.5667169, -58.0271189<br>icon-opacity: <br>icon-color: <br>icon-scale: <br>icon-offset: <br>icon-offset-units: <br>icon: <br>Descripción: <br>RUBRO NORMALIZADO: "},"styleUrl":"#icon-1899-C2185B","label-scale":0,"icon-opacity":"","icon-color":"","icon-scale":"","icon-offset":"","icon-offset-units":"","icon":"","descripción":"","NOMBRE / COMERCIO":"LA MENDOLA DANIEL HERNAN","CUIT":"20-28364201-2","CONTACTO":"1560922493","CATEGORÍA FISCAL":"RESPONSABLE INSCRIPTO","DIRECCIÓN":"SANTIAGO ROCA 708","BARRIO":"CONCORDIA","RUBRO":"ALQUILER DE CABAÑAS","CATEGORIA":"TURISMO Y ALOJAMIENTO","PADRÓN N°":"A5-0449","INSPECTOR/A":"YANINA","ÚLTIMA VISITA":"2026-01-22","VENC. HABILITACIÓN":"19/03/2028","ESTADO":"VIGENTE","OBSERVACIONES":"","COORDENADAS":"-35.5667169, -58.0271189","Descripción":"","RUBRO NORMALIZADO":""}},{"type":"Feature","geometry":{"type":"Point","coordinates":[-58.025551,-35.568483,0]},"properties":{"name":"CAMPING-PROV-LA PUERTA","description":{"@type":"html","value":"descripción: <br>styleUrl: #icon-1899-BDBDBD<br>NOMBRE / COMERCIO: LAMPONI ANDREA FABIANA<br>CUIT: 27-20655618-3<br>CONTACTO: 2241577665<br>CATEGORÍA FISCAL: RESPONSABLE INSCRIPTO<br>DIRECCIÓN: PEDRO URRUTY 448<br>BARRIO: LA CONCORDIA<br>RUBRO: CAMPING-PROV-LA PUERTA<br>CATEGORIA: TURISMO Y ALOJAMIENTO<br>PADRÓN N°: A6-0369<br>INSPECTOR/A: YANINA<br>ÚLTIMA VISITA: 2026-01-20<br>VENC. HABILITACIÓN: 20/12/2026<br>ESTADO: VIGENTE<br>OBSERVACIONES: <br>COORDENADAS: -35.5684834, -58.0255509<br>icon-opacity: <br>icon-color: <br>icon-scale: <br>icon-offset: <br>icon-offset-units: <br>icon: <br>Descripción: <br>RUBRO NORMALIZADO: "},"styleUrl":"#icon-1899-BDBDBD","label-scale":0,"icon-opacity":"","icon-color":"","icon-scale":"","icon-offset":"","icon-offset-units":"","icon":"","descripción":"","NOMBRE / COMERCIO":"LAMPONI ANDREA FABIANA","CUIT":"27-20655618-3","CONTACTO":"2241577665","CATEGORÍA FISCAL":"RESPONSABLE INSCRIPTO","DIRECCIÓN":"PEDRO URRUTY 448","BARRIO":"LA CONCORDIA","RUBRO":"CAMPING-PROV-LA PUERTA","CATEGORIA":"TURISMO Y ALOJAMIENTO","PADRÓN N°":"A6-0369","INSPECTOR/A":"YANINA","ÚLTIMA VISITA":"2026-01-20","VENC. HABILITACIÓN":"20/12/2026","ESTADO":"VIGENTE","OBSERVACIONES":"","COORDENADAS":"-35.5684834, -58.0255509","Descripción":"","RUBRO NORMALIZADO":""}},{"type":"Feature","geometry":{"type":"Point","coordinates":[-58.026113,-35.567095,0]},"properties":{"name":"ALQUILER DE CABAÑAS","description":{"@type":"html","value":"descripción: <br>styleUrl: #icon-1899-C2185B<br>NOMBRE / COMERCIO: SALAS ADRIAN ALBERTO<br>CUIT: 20-27855949-2<br>CONTACTO: 2241619734<br>CATEGORÍA FISCAL: MONOTRIBUTISTA C<br>DIRECCIÓN: TUCUMAN 780<br>BARRIO: LA CONCORDIA<br>RUBRO: ALQUILER DE CABAÑAS<br>CATEGORIA: TURISMO Y ALOJAMIENTO<br>PADRÓN N°: A6-0178<br>INSPECTOR/A: YANINA<br>ÚLTIMA VISITA: 2026-03-09<br>VENC. HABILITACIÓN: 15/11/2022<br>ESTADO: VENCIDA<br>OBSERVACIONES: <br>COORDENADAS: -35.5670946, -58.0261133<br>icon-opacity: <br>icon-color: <br>icon-scale: <br>icon-offset: <br>icon-offset-units: <br>icon: <br>Descripción: <br>RUBRO NORMALIZADO: "},"styleUrl":"#icon-1899-C2185B","label-scale":0,"icon-opacity":"","icon-color":"","icon-scale":"","icon-offset":"","icon-offset-units":"","icon":"","descripción":"","NOMBRE / COMERCIO":"SALAS ADRIAN ALBERTO","CUIT":"20-27855949-2","CONTACTO":"2241619734","CATEGORÍA FISCAL":"MONOTRIBUTISTA C","DIRECCIÓN":"TUCUMAN 780","BARRIO":"LA CONCORDIA","RUBRO":"ALQUILER DE CABAÑAS","CATEGORIA":"TURISMO Y ALOJAMIENTO","PADRÓN N°":"A6-0178","INSPECTOR/A":"YANINA","ÚLTIMA VISITA":"2026-03-09","VENC. HABILITACIÓN":"15/11/2022","ESTADO":"VENCIDA","OBSERVACIONES":"","COORDENADAS":"-35.5670946, -58.0261133","Descripción":"","RUBRO NORMALIZADO":""}},{"type":"Feature","geometry":{"type":"Point","coordinates":[-58.016603,-35.568384,0]},"properties":{"name":"ALQUILER CABAÑAS","description":{"@type":"html","value":"descripción: <br>styleUrl: #icon-1899-C2185B<br>NOMBRE / COMERCIO: URRIOLABEYTIA EDUARDO RAUL<br>CUIT: 20-10854096-7<br>CONTACTO: 2241682306<br>CATEGORÍA FISCAL: MONOTRIBUTISTA H<br>DIRECCIÓN: ESCRIBANO 684<br>BARRIO: LA CONCORDIA<br>RUBRO: ALQUILER CABAÑAS<br>CATEGORIA: TURISMO Y ALOJAMIENTO<br>PADRÓN N°: A5-0537<br>INSPECTOR/A: YANINA<br>ÚLTIMA VISITA: 2026-03-09<br>VENC. HABILITACIÓN: 23/04/2024<br>ESTADO: VENCIDA<br>OBSERVACIONES: <br>COORDENADAS: -35.5683835, -58.0166031<br>icon-opacity: <br>icon-color: <br>icon-scale: <br>icon-offset: <br>icon-offset-units: <br>icon: <br>Descripción: <br>RUBRO NORMALIZADO: "},"styleUrl":"#icon-1899-C2185B","label-scale":0,"icon-opacity":"","icon-color":"","icon-scale":"","icon-offset":"","icon-offset-units":"","icon":"","descripción":"","NOMBRE / COMERCIO":"URRIOLABEYTIA EDUARDO RAUL","CUIT":"20-10854096-7","CONTACTO":"2241682306","CATEGORÍA FISCAL":"MONOTRIBUTISTA H","DIRECCIÓN":"ESCRIBANO 684","BARRIO":"LA CONCORDIA","RUBRO":"ALQUILER CABAÑAS","CATEGORIA":"TURISMO Y ALOJAMIENTO","PADRÓN N°":"A5-0537","INSPECTOR/A":"YANINA","ÚLTIMA VISITA":"2026-03-09","VENC. HABILITACIÓN":"23/04/2024","ESTADO":"VENCIDA","OBSERVACIONES":"","COORDENADAS":"-35.5683835, -58.0166031","Descripción":"","RUBRO NORMALIZADO":""}},{"type":"Feature","geometry":{"type":"Point","coordinates":[-57.970939,-35.605905,0]},"properties":{"name":"ALQUILER CABAÑAS","description":{"@type":"html","value":"descripción: <br>styleUrl: #icon-1899-C2185B<br>NOMBRE / COMERCIO: ALBISETTI SEBASTIAN<br>CUIT: 23335162439<br>CONTACTO: <br>CATEGORÍA FISCAL: MONOTRIBUTISTA D<br>DIRECCIÓN: DE LOS CISNES 14<br>BARRIO: LA LIBERATA<br>RUBRO: ALQUILER CABAÑAS<br>CATEGORIA: TURISMO Y ALOJAMIENTO<br>PADRÓN N°: A5-0609<br>INSPECTOR/A: SOFIA- IRMA<br>ÚLTIMA VISITA: 2025-10-16<br>VENC. HABILITACIÓN: 10/02/2026<br>ESTADO: VENCIDA<br>OBSERVACIONES: POSEE EQUIPO N° 989451 VTO 10/25 PH 10/25. N°989897 PH 10/25 VTO 10/25, N°385898 VTO 10/25 PH 10/25, POSEE DISYUNTOR, BOTIQUIN DE PRIMEROS AUXILIOS, LUZ DE EMERGENCIA. APTO EN MEDIDAS DE SEGURIDAD<br>COORDENADAS: -35.605905, -57.9709386<br>icon-opacity: <br>icon-color: <br>icon-scale: <br>icon-offset: <br>icon-offset-units: <br>icon: <br>Descripción: <br>RUBRO NORMALIZADO: "},"styleUrl":"#icon-1899-C2185B","label-scale":0,"icon-opacity":"","icon-color":"","icon-scale":"","icon-offset":"","icon-offset-units":"","icon":"","descripción":"","NOMBRE / COMERCIO":"ALBISETTI SEBASTIAN","CUIT":"23335162439","CONTACTO":"2241671285","CATEGORÍA FISCAL":"MONOTRIBUTISTA D","DIRECCIÓN":"DE LOS CISNES 14","BARRIO":"LA LIBERATA","RUBRO":"ALQUILER CABAÑAS","CATEGORIA":"TURISMO Y ALOJAMIENTO","PADRÓN N°":"A5-0609","INSPECTOR/A":"SOFIA- IRMA","ÚLTIMA VISITA":"2025-10-16","VENC. HABILITACIÓN":"10/02/2026","ESTADO":"VENCIDA","OBSERVACIONES":"POSEE EQUIPO N° 989451 VTO 10/25 PH 10/25. N°989897 PH 10/25 VTO 10/25, N°385898 VTO 10/25 PH 10/25, POSEE DISYUNTOR, BOTIQUIN DE PRIMEROS AUXILIOS, LUZ DE EMERGENCIA. APTO EN MEDIDAS DE SEGURIDAD","COORDENADAS":"-35.605905, -57.9709386","Descripción":"","RUBRO NORMALIZADO":""}},{"type":"Feature","geometry":{"type":"Point","coordinates":[-57.973518,-35.603188,0]},"properties":{"name":"ALQUILER DE CABAÑAS","description":{"@type":"html","value":"descripción: <br>styleUrl: #icon-1899-C2185B<br>NOMBRE / COMERCIO: ESTRANY MARCELA BEATRIZ<br>CUIT: 27172550784<br>CONTACTO: 1159775301<br>CATEGORÍA FISCAL: RESPONSABLE INSCRIPTO<br>DIRECCIÓN: LOS PATOS 25<br>BARRIO: LIBERATA<br>RUBRO: ALQUILER DE CABAÑAS<br>CATEGORIA: TURISMO Y ALOJAMIENTO<br>PADRÓN N°: A5-0624<br>INSPECTOR/A: ANIBAL<br>ÚLTIMA VISITA: 2026-01-20<br>VENC. HABILITACIÓN: 04/02/2029<br>ESTADO: VIGENTE<br>OBSERVACIONES: MEDIDAS OK<br>COORDENADAS: -35.6031883, -57.9735184<br>icon-opacity: <br>icon-color: <br>icon-scale: <br>icon-offset: <br>icon-offset-units: <br>icon: <br>Descripción: <br>RUBRO NORMALIZADO: "},"styleUrl":"#icon-1899-C2185B","label-scale":0,"icon-opacity":"","icon-color":"","icon-scale":"","icon-offset":"","icon-offset-units":"","icon":"","descripción":"","NOMBRE / COMERCIO":"ESTRANY MARCELA BEATRIZ","CUIT":"27172550784","CONTACTO":"1159775301","CATEGORÍA FISCAL":"RESPONSABLE INSCRIPTO","DIRECCIÓN":"LOS PATOS 25","BARRIO":"LIBERATA","RUBRO":"ALQUILER DE CABAÑAS","CATEGORIA":"TURISMO Y ALOJAMIENTO","PADRÓN N°":"A5-0624","INSPECTOR/A":"ANIBAL","ÚLTIMA VISITA":"2026-01-20","VENC. HABILITACIÓN":"04/02/2029","ESTADO":"VIGENTE","OBSERVACIONES":"MEDIDAS OK","COORDENADAS":"-35.6031883, -57.9735184","Descripción":"","RUBRO NORMALIZADO":""}},{"type":"Feature","geometry":{"type":"Point","coordinates":[-57.973445,-35.601869,0]},"properties":{"name":"ALQUILER DE CABAÑAS","description":{"@type":"html","value":"descripción: <br>styleUrl: #icon-1899-C2185B<br>NOMBRE / COMERCIO: GIAMMARRUSCO ANDREA SILVINA<br>CUIT: 27-25316777-2<br>CONTACTO: 11559079073<br>CATEGORÍA FISCAL: MONOTRIBUTISTA A<br>DIRECCIÓN: DE LAS MARTINETAS 21<br>BARRIO: LA LIBERATA<br>RUBRO: ALQUILER DE CABAÑAS<br>CATEGORIA: TURISMO Y ALOJAMIENTO<br>PADRÓN N°: A6-0357<br>INSPECTOR/A: <br>ÚLTIMA VISITA: <br>VENC. HABILITACIÓN: 11/06/2026<br>ESTADO: VENCIDA<br>OBSERVACIONES: <br>COORDENADAS: -35.6018693, -57.9734452<br>icon-opacity: <br>icon-color: <br>icon-scale: <br>icon-offset: <br>icon-offset-units: <br>icon: <br>Descripción: <br>RUBRO NORMALIZADO: "},"styleUrl":"#icon-1899-C2185B","label-scale":0,"icon-opacity":"","icon-color":"","icon-scale":"","icon-offset":"","icon-offset-units":"","icon":"","descripción":"","NOMBRE / COMERCIO":"GIAMMARRUSCO ANDREA SILVINA","CUIT":"27-25316777-2","CONTACTO":"11559079073","CATEGORÍA FISCAL":"MONOTRIBUTISTA A","DIRECCIÓN":"DE LAS MARTINETAS 21","BARRIO":"LA LIBERATA","RUBRO":"ALQUILER DE CABAÑAS","CATEGORIA":"TURISMO Y ALOJAMIENTO","PADRÓN N°":"A6-0357","INSPECTOR/A":"","ÚLTIMA VISITA":"","VENC. HABILITACIÓN":"11/06/2026","ESTADO":"VENCIDA","OBSERVACIONES":"","COORDENADAS":"-35.6018693, -57.9734452","Descripción":"","RUBRO NORMALIZADO":""}},{"type":"Feature","geometry":{"type":"Point","coordinates":[-57.974302,-35.602227,0]},"properties":{"name":"ALQUILER CABAÑAS","description":{"@type":"html","value":"descripción: <br>styleUrl: #icon-1899-C2185B<br>NOMBRE / COMERCIO: IRIBARNE JOSE MARIA<br>CUIT: 20253930501<br>CONTACTO: <br>CATEGORÍA FISCAL: MONOTRIBUTISTA H<br>DIRECCIÓN: LAS MARTINETAS 33<br>BARRIO: LA LIBERTA<br>RUBRO: ALQUILER CABAÑAS<br>CATEGORIA: TURISMO Y ALOJAMIENTO<br>PADRÓN N°: A5-0722<br>INSPECTOR/A: <br>ÚLTIMA VISITA: <br>VENC. HABILITACIÓN: 23/12/2027<br>ESTADO: VIGENTE<br>OBSERVACIONES: HABILITACION VIGENTE<br>COORDENADAS: -35.6022267, -57.9743015<br>icon-opacity: <br>icon-color: <br>icon-scale: <br>icon-offset: <br>icon-offset-units: <br>icon: <br>Descripción: <br>RUBRO NORMALIZADO: "},"styleUrl":"#icon-1899-C2185B","label-scale":0,"icon-opacity":"","icon-color":"","icon-scale":"","icon-offset":"","icon-offset-units":"","icon":"","descripción":"","NOMBRE / COMERCIO":"IRIBARNE JOSE MARIA","CUIT":"20253930501","CONTACTO":"2241671285","CATEGORÍA FISCAL":"MONOTRIBUTISTA H","DIRECCIÓN":"LAS MARTINETAS 33","BARRIO":"LA LIBERTA","RUBRO":"ALQUILER CABAÑAS","CATEGORIA":"TURISMO Y ALOJAMIENTO","PADRÓN N°":"A5-0722","INSPECTOR/A":"","ÚLTIMA VISITA":"","VENC. HABILITACIÓN":"23/12/2027","ESTADO":"VIGENTE","OBSERVACIONES":"HABILITACION VIGENTE","COORDENADAS":"-35.6022267, -57.9743015","Descripción":"","RUBRO NORMALIZADO":""}},{"type":"Feature","geometry":{"type":"Point","coordinates":[-57.969015,-35.608549,0]},"properties":{"name":"HOTEL ALOJAMIENTO","description":{"@type":"html","value":"descripción: <br>styleUrl: #icon-1899-BDBDBD<br>NOMBRE / COMERCIO: PINEDO LOPEZ LILIANA (LA LIBERATA)<br>CUIT: 27-92884873-1<br>CONTACTO: 2241472825<br>CATEGORÍA FISCAL: NO REGISTRA IMPUESTOS ACTIVOS<br>DIRECCIÓN: RUTA 2 KM 126<br>BARRIO: LA LIBERTA<br>RUBRO: HOTEL ALOJAMIENTO<br>CATEGORIA: TURISMO Y ALOJAMIENTO<br>PADRÓN N°: A6-0392<br>INSPECTOR/A: <br>ÚLTIMA VISITA: <br>VENC. HABILITACIÓN: 10/09/2026<br>ESTADO: VIGENTE<br>OBSERVACIONES: CANC DE DEUDA SEG E HIGIENE- OBRA NO CONFORME A PLANO<br>COORDENADAS: -35.5792002, -57.9784778<br>icon-opacity: <br>icon-color: <br>icon-scale: <br>icon-offset: <br>icon-offset-units: <br>icon: <br>Descripción: <br>RUBRO NORMALIZADO: "},"styleUrl":"#icon-1899-BDBDBD","label-scale":0,"icon-opacity":"","icon-color":"","icon-scale":"","icon-offset":"","icon-offset-units":"","icon":"","descripción":"","NOMBRE / COMERCIO":"PINEDO LOPEZ LILIANA (LA LIBERATA)","CUIT":"27-92884873-1","CONTACTO":"2241472825","CATEGORÍA FISCAL":"NO REGISTRA IMPUESTOS ACTIVOS","DIRECCIÓN":"RUTA 2 KM 126","BARRIO":"LA LIBERTA","RUBRO":"HOTEL ALOJAMIENTO","CATEGORIA":"TURISMO Y ALOJAMIENTO","PADRÓN N°":"A6-0392","INSPECTOR/A":"","ÚLTIMA VISITA":"","VENC. HABILITACIÓN":"10/09/2026","ESTADO":"VIGENTE","OBSERVACIONES":"CANC DE DEUDA SEG E HIGIENE- OBRA NO CONFORME A PLANO","COORDENADAS":"-35.5792002, -57.9784778","Descripción":"","RUBRO NORMALIZADO":""}},{"type":"Feature","geometry":{"type":"Point","coordinates":[-57.985496,-35.588714,0]},"properties":{"name":"ALQUILER DE CABAÑAS","description":{"@type":"html","value":"descripción: <br>styleUrl: #icon-1899-C2185B<br>NOMBRE / COMERCIO: Cabañas los duendes de Chascomus - Ocampo Angel Enrique<br>CUIT: 20-13736940-1<br>CONTACTO: 1136519513<br>CATEGORÍA FISCAL: RESPONSABLE INSCRIPTO<br>DIRECCIÓN: Avellaneda Nro 842<br>BARRIO: <br>RUBRO: ALQUILER DE CABAÑAS<br>CATEGORIA: TURISMO Y ALOJAMIENTO<br>PADRÓN N°: A6-0346<br>INSPECTOR/A: YANINA<br>ÚLTIMA VISITA: 2026-05-15<br>VENC. HABILITACIÓN: 23/07/2023<br>ESTADO: VENCIDA<br>OBSERVACIONES: APTO<br>COORDENADAS: -35.5887144, -57.985496<br>icon-opacity: <br>icon-color: <br>icon-scale: <br>icon-offset: <br>icon-offset-units: <br>icon: <br>Descripción: <br>RUBRO NORMALIZADO: "},"styleUrl":"#icon-1899-C2185B","label-scale":0,"icon-opacity":"","icon-color":"","icon-scale":"","icon-offset":"","icon-offset-units":"","icon":"","descripción":"","NOMBRE / COMERCIO":"Cabañas los duendes de Chascomus - Ocampo Angel Enrique","CUIT":"20-13736940-1","CONTACTO":"1136519513","CATEGORÍA FISCAL":"RESPONSABLE INSCRIPTO","DIRECCIÓN":"Avellaneda Nro 842","BARRIO":"LA NORIA","RUBRO":"ALQUILER DE CABAÑAS","CATEGORIA":"TURISMO Y ALOJAMIENTO","PADRÓN N°":"A6-0346","INSPECTOR/A":"YANINA","ÚLTIMA VISITA":"2026-05-15","VENC. HABILITACIÓN":"23/07/2023","ESTADO":"VENCIDA","OBSERVACIONES":"APTO","COORDENADAS":"-35.5887144, -57.985496","Descripción":"","RUBRO NORMALIZADO":""}},{"type":"Feature","geometry":{"type":"Point","coordinates":[-57.995262,-35.582608,0]},"properties":{"name":"ALQUILER AL TURISMO","description":{"@type":"html","value":"descripción: <br>styleUrl: #icon-1899-BDBDBD<br>NOMBRE / COMERCIO: MASTROGIACOMO ROXANA PAOLA<br>CUIT: 27-18564247-5<br>CONTACTO: 1550093397<br>CATEGORÍA FISCAL: MONOTRIBUTISTA A<br>DIRECCIÓN: GONZALEZ CHAVEZ 485, Chascomús, Buenos Aires<br>BARRIO: LAS VIOLETAS<br>RUBRO: ALQUILER AL TURISMO<br>CATEGORIA: TURISMO Y ALOJAMIENTO<br>PADRÓN N°: A2-0064<br>INSPECTOR/A: ANIBAL<br>ÚLTIMA VISITA: 2025-09-11<br>VENC. HABILITACIÓN: 2026-02-23<br>ESTADO: VENCIDA<br>OBSERVACIONES: CESE<br>COORDENADAS: -35.5826083, -57.9952619<br>icon-opacity: <br>icon-color: <br>icon-scale: <br>icon-offset: <br>icon-offset-units: <br>icon: <br>Descripción: <br>RUBRO NORMALIZADO: "},"styleUrl":"#icon-1899-BDBDBD","label-scale":0,"icon-opacity":"","icon-color":"","icon-scale":"","icon-offset":"","icon-offset-units":"","icon":"","descripción":"","NOMBRE / COMERCIO":"MASTROGIACOMO ROXANA PAOLA","CUIT":"27-18564247-5","CONTACTO":"1550093397","CATEGORÍA FISCAL":"MONOTRIBUTISTA A","DIRECCIÓN":"GONZALEZ CHAVEZ 485, Chascomús, Buenos Aires","BARRIO":"LAS VIOLETAS","RUBRO":"ALQUILER AL TURISMO","CATEGORIA":"TURISMO Y ALOJAMIENTO","PADRÓN N°":"A2-0064","INSPECTOR/A":"ANIBAL","ÚLTIMA VISITA":"2025-09-11","VENC. HABILITACIÓN":"2026-02-23","ESTADO":"VENCIDA","OBSERVACIONES":"CESE","COORDENADAS":"-35.5826083, -57.9952619","Descripción":"","RUBRO NORMALIZADO":""}},{"type":"Feature","geometry":{"type":"Point","coordinates":[-58.017397,-35.626908,0]},"properties":{"name":"SERVICIOS DE HOSPEDAJE TEMPORAL","description":{"@type":"html","value":"descripción: <br>styleUrl: #icon-1899-BDBDBD<br>NOMBRE / COMERCIO: ANDERSON MARIANA MARISOL<br>CUIT: 27-38549923-5<br>CONTACTO: 2241571437<br>CATEGORÍA FISCAL: NO REGISTRA IMPUESTOS ACTIVOS<br>DIRECCIÓN: LA GUEYA 125<br>BARRIO: BARRIO PARQUE GIRADO<br>RUBRO: SERVICIOS DE HOSPEDAJE TEMPORAL<br>CATEGORIA: TURISMO Y ALOJAMIENTO<br>PADRÓN N°: A5-0764<br>INSPECTOR/A: YANINA<br>ÚLTIMA VISITA: 2026-02-13<br>VENC. HABILITACIÓN: 20/05/2026<br>ESTADO: VENCIDA<br>OBSERVACIONES: CUMPLIO CON LO SOLICITADO<br>COORDENADAS: -35.6269081, -58.0173973<br>icon-opacity: <br>icon-color: <br>icon-scale: <br>icon-offset: <br>icon-offset-units: <br>icon: <br>Descripción: <br>RUBRO NORMALIZADO: "},"styleUrl":"#icon-1899-BDBDBD","label-scale":0,"icon-opacity":"","icon-color":"","icon-scale":"","icon-offset":"","icon-offset-units":"","icon":"","descripción":"","NOMBRE / COMERCIO":"ANDERSON MARIANA MARISOL","CUIT":"27-38549923-5","CONTACTO":"2241571437","CATEGORÍA FISCAL":"NO REGISTRA IMPUESTOS ACTIVOS","DIRECCIÓN":"LA GUEYA 125","BARRIO":"BARRIO PARQUE GIRADO","RUBRO":"SERVICIOS DE HOSPEDAJE TEMPORAL","CATEGORIA":"TURISMO Y ALOJAMIENTO","PADRÓN N°":"A5-0764","INSPECTOR/A":"YANINA","ÚLTIMA VISITA":"2026-02-13","VENC. HABILITACIÓN":"20/05/2026","ESTADO":"VENCIDA","OBSERVACIONES":"CUMPLIO CON LO SOLICITADO","COORDENADAS":"-35.6269081, -58.0173973","Descripción":"","RUBRO NORMALIZADO":""}},{"type":"Feature","geometry":{"type":"Point","coordinates":[-58.06707,-35.587159,0]},"properties":{"name":"ALQUILER CABAÑAS","description":{"@type":"html","value":"descripción: <br>styleUrl: #icon-1899-C2185B<br>NOMBRE / COMERCIO: CALDAS MARCELO EDGARDO<br>CUIT: 20-26465097-7<br>CONTACTO: 1541712763<br>CATEGORÍA FISCAL: MONOTRIBUTISTA A<br>DIRECCIÓN: LAGUNA DEL BURRO 35<br>BARRIO: <br>RUBRO: ALQUILER CABAÑAS<br>CATEGORIA: TURISMO Y ALOJAMIENTO<br>PADRÓN N°: A2-0058<br>INSPECTOR/A: <br>ÚLTIMA VISITA: <br>VENC. HABILITACIÓN: 15/02/2026<br>ESTADO: VENCIDA<br>OBSERVACIONES: OBRA NO CONFORME A PLANO<br>COORDENADAS: -35.5871589, -58.0670702<br>icon-opacity: <br>icon-color: <br>icon-scale: <br>icon-offset: <br>icon-offset-units: <br>icon: <br>Descripción: <br>RUBRO NORMALIZADO: "},"styleUrl":"#icon-1899-C2185B","label-scale":0,"icon-opacity":"","icon-color":"","icon-scale":"","icon-offset":"","icon-offset-units":"","icon":"","descripción":"","NOMBRE / COMERCIO":"CALDAS MARCELO EDGARDO","CUIT":"20-26465097-7","CONTACTO":"1541712763","CATEGORÍA FISCAL":"MONOTRIBUTISTA A","DIRECCIÓN":"LAGUNA DEL BURRO 35","BARRIO":"LOMAS ALTAS","RUBRO":"ALQUILER CABAÑAS","CATEGORIA":"TURISMO Y ALOJAMIENTO","PADRÓN N°":"A2-0058","INSPECTOR/A":"","ÚLTIMA VISITA":"","VENC. HABILITACIÓN":"15/02/2026","ESTADO":"VENCIDA","OBSERVACIONES":"OBRA NO CONFORME A PLANO","COORDENADAS":"-35.5871589, -58.0670702","Descripción":"","RUBRO NORMALIZADO":""}},{"type":"Feature","geometry":{"type":"Point","coordinates":[-58.068375,-35.582675,0]},"properties":{"name":"CABAÑAS","description":{"@type":"html","value":"descripción: <br>styleUrl: #icon-1899-BDBDBD<br>NOMBRE / COMERCIO: FOCHT ANDRES SEBASTIAN<br>CUIT: 20278312268<br>CONTACTO: 2241671285<br>CATEGORÍA FISCAL: NO REGISTRA IMPUESTOS ACTIVOS<br>DIRECCIÓN: DE LOS AROMOS<br>BARRIO: LOMAS ALTAS<br>RUBRO: CABAÑAS<br>CATEGORIA: TURISMO Y ALOJAMIENTO<br>PADRÓN N°: A5-0536<br>INSPECTOR/A: <br>ÚLTIMA VISITA: <br>VENC. HABILITACIÓN: 15/12/2026<br>ESTADO: VIGENTE<br>OBSERVACIONES: CANC DE DEUDA SEG E HIGIENE-PRESENTACION DINAL DE OBRA<br>COORDENADAS: -35.582675, -58.0683748<br>icon-opacity: <br>icon-color: <br>icon-scale: <br>icon-offset: <br>icon-offset-units: <br>icon: <br>Descripción: <br>RUBRO NORMALIZADO: "},"styleUrl":"#icon-1899-BDBDBD","label-scale":0,"icon-opacity":"","icon-color":"","icon-scale":"","icon-offset":"","icon-offset-units":"","icon":"","descripción":"","NOMBRE / COMERCIO":"FOCHT ANDRES SEBASTIAN","CUIT":"20278312268","CONTACTO":"2241671285","CATEGORÍA FISCAL":"NO REGISTRA IMPUESTOS ACTIVOS","DIRECCIÓN":"DE LOS AROMOS","BARRIO":"LOMAS ALTAS","RUBRO":"CABAÑAS","CATEGORIA":"TURISMO Y ALOJAMIENTO","PADRÓN N°":"A5-0536","INSPECTOR/A":"","ÚLTIMA VISITA":"","VENC. HABILITACIÓN":"15/12/2026","ESTADO":"VIGENTE","OBSERVACIONES":"CANC DE DEUDA SEG E HIGIENE-PRESENTACION DINAL DE OBRA","COORDENADAS":"-35.582675, -58.0683748","Descripción":"","RUBRO NORMALIZADO":""}},{"type":"Feature","geometry":{"type":"Point","coordinates":[-58.067066,-35.58711,0]},"properties":{"name":"ALQUILER DE CABAÑAS","description":{"@type":"html","value":"descripción: <br>styleUrl: #icon-1899-C2185B<br>NOMBRE / COMERCIO: GIL AUGUSTO JAVIER<br>CUIT: 20-22365290-6<br>CONTACTO: 1144281069<br>CATEGORÍA FISCAL: RESPONSABLE INSCRIPTO<br>DIRECCIÓN: LAGUNA DEL BURRO 34<br>BARRIO: <br>RUBRO: ALQUILER DE CABAÑAS<br>CATEGORIA: TURISMO Y ALOJAMIENTO<br>PADRÓN N°: A5-0783<br>INSPECTOR/A: <br>ÚLTIMA VISITA: <br>VENC. HABILITACIÓN: 27/05/2028<br>ESTADO: VIGENTE<br>OBSERVACIONES: HABILITACION VIGENTE<br>COORDENADAS: -35.5871097, -58.0670656<br>icon-opacity: <br>icon-color: <br>icon-scale: <br>icon-offset: <br>icon-offset-units: <br>icon: <br>Descripción: <br>RUBRO NORMALIZADO: "},"styleUrl":"#icon-1899-C2185B","label-scale":0,"icon-opacity":"","icon-color":"","icon-scale":"","icon-offset":"","icon-offset-units":"","icon":"","descripción":"","NOMBRE / COMERCIO":"GIL AUGUSTO JAVIER","CUIT":"20-22365290-6","CONTACTO":"1144281069","CATEGORÍA FISCAL":"RESPONSABLE INSCRIPTO","DIRECCIÓN":"LAGUNA DEL BURRO 34","BARRIO":"LOMAS ALTAS","RUBRO":"ALQUILER DE CABAÑAS","CATEGORIA":"TURISMO Y ALOJAMIENTO","PADRÓN N°":"A5-0783","INSPECTOR/A":"","ÚLTIMA VISITA":"","VENC. HABILITACIÓN":"27/05/2028","ESTADO":"VIGENTE","OBSERVACIONES":"HABILITACION VIGENTE","COORDENADAS":"-35.5871097, -58.0670656","Descripción":"","RUBRO NORMALIZADO":""}},{"type":"Feature","geometry":{"type":"Point","coordinates":[-58.068285,-35.577469,0]},"properties":{"name":"ALQUILER DE CABAÑAS","description":{"@type":"html","value":"descripción: <br>styleUrl: #icon-1899-C2185B<br>NOMBRE / COMERCIO: GOMEZ JUAN CARLOS<br>CUIT: 23-10181378-9<br>CONTACTO: 1161652564<br>CATEGORÍA FISCAL: MONOTRIBUTISTA A<br>DIRECCIÓN: LAS PALMERAS 510<br>BARRIO: LOMAS ALTAS<br>RUBRO: ALQUILER DE CABAÑAS<br>CATEGORIA: TURISMO Y ALOJAMIENTO<br>PADRÓN N°: A5-0780<br>INSPECTOR/A: <br>ÚLTIMA VISITA: <br>VENC. HABILITACIÓN: 23/07/2026<br>ESTADO: VIGENTE<br>OBSERVACIONES: SUJETA A CANC DEUDA INM- FINAL DE OBRA<br>COORDENADAS: -35.5774693, -58.068285<br>icon-opacity: <br>icon-color: <br>icon-scale: <br>icon-offset: <br>icon-offset-units: <br>icon: <br>Descripción: <br>RUBRO NORMALIZADO: "},"styleUrl":"#icon-1899-C2185B","label-scale":0,"icon-opacity":"","icon-color":"","icon-scale":"","icon-offset":"","icon-offset-units":"","icon":"","descripción":"","NOMBRE / COMERCIO":"GOMEZ JUAN CARLOS","CUIT":"23-10181378-9","CONTACTO":"1161652564","CATEGORÍA FISCAL":"MONOTRIBUTISTA A","DIRECCIÓN":"LAS PALMERAS 510","BARRIO":"LOMAS ALTAS","RUBRO":"ALQUILER DE CABAÑAS","CATEGORIA":"TURISMO Y ALOJAMIENTO","PADRÓN N°":"A5-0780","INSPECTOR/A":"","ÚLTIMA VISITA":"","VENC. HABILITACIÓN":"23/07/2026","ESTADO":"VIGENTE","OBSERVACIONES":"SUJETA A CANC DEUDA INM- FINAL DE OBRA","COORDENADAS":"-35.5774693, -58.068285","Descripción":"","RUBRO NORMALIZADO":""}},{"type":"Feature","geometry":{"type":"Point","coordinates":[-58.019662,-35.624448,0]},"properties":{"name":"ALQUILER CABAÑAS","description":{"@type":"html","value":"descripción: <br>styleUrl: #icon-1899-C2185B<br>NOMBRE / COMERCIO: IANDORIO ERCILIA BEATRIZ<br>CUIT: 27-11234307-0<br>CONTACTO: 1150049518<br>CATEGORÍA FISCAL: RESPONSABLE INSCRIPTO<br>DIRECCIÓN: PINAR 245<br>BARRIO: LOMAS ALTAS<br>RUBRO: ALQUILER CABAÑAS<br>CATEGORIA: TURISMO Y ALOJAMIENTO<br>PADRÓN N°: A5-0632<br>INSPECTOR/A: <br>ÚLTIMA VISITA: <br>VENC. HABILITACIÓN: 15/11/2025<br>ESTADO: VENCIDA<br>OBSERVACIONES: HABILITACION VIGENTE<br>COORDENADAS: -35.6244485, -58.0196617<br>icon-opacity: <br>icon-color: <br>icon-scale: <br>icon-offset: <br>icon-offset-units: <br>icon: <br>Descripción: <br>RUBRO NORMALIZADO: "},"styleUrl":"#icon-1899-C2185B","label-scale":0,"icon-opacity":"","icon-color":"","icon-scale":"","icon-offset":"","icon-offset-units":"","icon":"","descripción":"","NOMBRE / COMERCIO":"IANDORIO ERCILIA BEATRIZ","CUIT":"27-11234307-0","CONTACTO":"1150049518","CATEGORÍA FISCAL":"RESPONSABLE INSCRIPTO","DIRECCIÓN":"PINAR 245","BARRIO":"LOMAS ALTAS","RUBRO":"ALQUILER CABAÑAS","CATEGORIA":"TURISMO Y ALOJAMIENTO","PADRÓN N°":"A5-0632","INSPECTOR/A":"","ÚLTIMA VISITA":"","VENC. HABILITACIÓN":"15/11/2025","ESTADO":"VENCIDA","OBSERVACIONES":"HABILITACION VIGENTE","COORDENADAS":"-35.6244485, -58.0196617","Descripción":"","RUBRO NORMALIZADO":""}},{"type":"Feature","geometry":{"type":"Point","coordinates":[-58.070014,-35.582308,0]},"properties":{"name":"ALQUILER CABAÑAS","description":{"@type":"html","value":"descripción: <br>styleUrl: #icon-1899-C2185B<br>NOMBRE / COMERCIO: IRAZOQUI STELLA MARIS<br>CUIT: 27-22108551-0<br>CONTACTO: 1135846986<br>CATEGORÍA FISCAL: MONOTRIBUTISTA B<br>DIRECCIÓN: DE LOS NISPEROS 234<br>BARRIO: LOMAS ALTAS<br>RUBRO: ALQUILER CABAÑAS<br>CATEGORIA: TURISMO Y ALOJAMIENTO<br>PADRÓN N°: A5-0681<br>INSPECTOR/A: <br>ÚLTIMA VISITA: <br>VENC. HABILITACIÓN: 27/05/2028<br>ESTADO: VIGENTE<br>OBSERVACIONES: HABILITACION VIGENTE<br>COORDENADAS: -35.58230750000001, -58.0700138<br>icon-opacity: <br>icon-color: <br>icon-scale: <br>icon-offset: <br>icon-offset-units: <br>icon: <br>Descripción: <br>RUBRO NORMALIZADO: "},"styleUrl":"#icon-1899-C2185B","label-scale":0,"icon-opacity":"","icon-color":"","icon-scale":"","icon-offset":"","icon-offset-units":"","icon":"","descripción":"","NOMBRE / COMERCIO":"IRAZOQUI STELLA MARIS","CUIT":"27-22108551-0","CONTACTO":"1135846986","CATEGORÍA FISCAL":"MONOTRIBUTISTA B","DIRECCIÓN":"DE LOS NISPEROS 234","BARRIO":"LOMAS ALTAS","RUBRO":"ALQUILER CABAÑAS","CATEGORIA":"TURISMO Y ALOJAMIENTO","PADRÓN N°":"A5-0681","INSPECTOR/A":"","ÚLTIMA VISITA":"","VENC. HABILITACIÓN":"27/05/2028","ESTADO":"VIGENTE","OBSERVACIONES":"HABILITACION VIGENTE","COORDENADAS":"-35.58230750000001, -58.0700138","Descripción":"","RUBRO NORMALIZADO":""}},{"type":"Feature","geometry":{"type":"Point","coordinates":[-58.067767,-35.58316,0]},"properties":{"name":"ALQUILER CABAÑAS","description":{"@type":"html","value":"descripción: <br>styleUrl: #icon-1899-C2185B<br>NOMBRE / COMERCIO: MINERVINI MIRIAM GLADYS<br>CUIT: 27-13685638-9<br>CONTACTO: 1160055155<br>CATEGORÍA FISCAL: MONOTRIBUTISTA C<br>DIRECCIÓN: DE LOS ARRAYANES  123<br>BARRIO: LOMAS ALTAS<br>RUBRO: ALQUILER CABAÑAS<br>CATEGORIA: TURISMO Y ALOJAMIENTO<br>PADRÓN N°: A4-0577<br>INSPECTOR/A: ANIBAL<br>ÚLTIMA VISITA: 2025-07-03<br>VENC. HABILITACIÓN: 08/07/2028<br>ESTADO: VIGENTE<br>OBSERVACIONES: CUMPLE CON LA NORMATIVA VIGENTE PARA LA OBTENCION DE SU HABILITACION<br>COORDENADAS: -35.5831597, -58.0677672<br>icon-opacity: <br>icon-color: <br>icon-scale: <br>icon-offset: <br>icon-offset-units: <br>icon: <br>Descripción: <br>RUBRO NORMALIZADO: "},"styleUrl":"#icon-1899-C2185B","label-scale":0,"icon-opacity":"","icon-color":"","icon-scale":"","icon-offset":"","icon-offset-units":"","icon":"","descripción":"","NOMBRE / COMERCIO":"MINERVINI MIRIAM GLADYS","CUIT":"27-13685638-9","CONTACTO":"1160055155","CATEGORÍA FISCAL":"MONOTRIBUTISTA C","DIRECCIÓN":"DE LOS ARRAYANES  123","BARRIO":"LOMAS ALTAS","RUBRO":"ALQUILER CABAÑAS","CATEGORIA":"TURISMO Y ALOJAMIENTO","PADRÓN N°":"A4-0577","INSPECTOR/A":"ANIBAL","ÚLTIMA VISITA":"2025-07-03","VENC. HABILITACIÓN":"08/07/2028","ESTADO":"VIGENTE","OBSERVACIONES":"CUMPLE CON LA NORMATIVA VIGENTE PARA LA OBTENCION DE SU HABILITACION","COORDENADAS":"-35.5831597, -58.0677672","Descripción":"","RUBRO NORMALIZADO":""}},{"type":"Feature","geometry":{"type":"Point","coordinates":[-58.067178,-35.584292,0]},"properties":{"name":"ALQUILER TEMPORARIO","description":{"@type":"html","value":"descripción: <br>styleUrl: #icon-1899-C2185B<br>NOMBRE / COMERCIO: RUGGIERO SILVANA TERESA<br>CUIT: 27-27934894-5<br>CONTACTO: 1157019672<br>CATEGORÍA FISCAL: MONOTRIBUTISTA C<br>DIRECCIÓN: DE LAS CASUARINAS 142<br>BARRIO: LOMAS ALTAS<br>RUBRO: ALQUILER TEMPORARIO<br>CATEGORIA: TURISMO Y ALOJAMIENTO<br>PADRÓN N°: A2-0062<br>INSPECTOR/A: <br>ÚLTIMA VISITA: <br>VENC. HABILITACIÓN: 10/10/2026<br>ESTADO: VIGENTE<br>OBSERVACIONES: <br>COORDENADAS: -35.5842923, -58.06717759999999<br>icon-opacity: <br>icon-color: <br>icon-scale: <br>icon-offset: <br>icon-offset-units: <br>icon: <br>Descripción: <br>RUBRO NORMALIZADO: "},"styleUrl":"#icon-1899-C2185B","label-scale":0,"icon-opacity":"","icon-color":"","icon-scale":"","icon-offset":"","icon-offset-units":"","icon":"","descripción":"","NOMBRE / COMERCIO":"RUGGIERO SILVANA TERESA","CUIT":"27-27934894-5","CONTACTO":"1157019672","CATEGORÍA FISCAL":"MONOTRIBUTISTA C","DIRECCIÓN":"DE LAS CASUARINAS 142","BARRIO":"LOMAS ALTAS","RUBRO":"ALQUILER TEMPORARIO","CATEGORIA":"TURISMO Y ALOJAMIENTO","PADRÓN N°":"A2-0062","INSPECTOR/A":"","ÚLTIMA VISITA":"","VENC. HABILITACIÓN":"10/10/2026","ESTADO":"VIGENTE","OBSERVACIONES":"","COORDENADAS":"-35.5842923, -58.06717759999999","Descripción":"","RUBRO NORMALIZADO":""}},{"type":"Feature","geometry":{"type":"Point","coordinates":[-58.019966,-35.62496,0]},"properties":{"name":"CAMPING","description":{"@type":"html","value":"descripción: <br>styleUrl: #icon-1899-BDBDBD<br>NOMBRE / COMERCIO: AUTOMOVIL CLUB ARGENTINO<br>CUIT: 30-50014329-7<br>CONTACTO: 2234910607<br>CATEGORÍA FISCAL: ASOCIACION<br>DIRECCIÓN: CAMINO DE CIRCUNV T DEL LUCERO, Chascomús, Buenos Aires<br>BARRIO: PARQUE GIRADO<br>RUBRO: CAMPING-PROVEEDURIA<br>CATEGORIA: TURISMO Y ALOJAMIENTO<br>PADRÓN N°: 46-0362<br>INSPECTOR/A: <br>ÚLTIMA VISITA: <br>VENC. HABILITACIÓN: 2025-06-16<br>ESTADO: VENCIDA<br>OBSERVACIONES: <br>COORDENADAS: -35.6249598, -58.0199656<br>icon-opacity: <br>icon-color: <br>icon-scale: <br>icon-offset: <br>icon-offset-units: <br>icon: <br>Descripción: <br>RUBRO NORMALIZADO: "},"styleUrl":"#icon-1899-BDBDBD","label-scale":0,"icon-opacity":"","icon-color":"","icon-scale":"","icon-offset":"","icon-offset-units":"","icon":"","descripción":"","NOMBRE / COMERCIO":"AUTOMOVIL CLUB ARGENTINO","CUIT":"30-50014329-7","CONTACTO":"2234910607","CATEGORÍA FISCAL":"ASOCIACION","DIRECCIÓN":"CAMINO DE CIRCUNV T DEL LUCERO, Chascomús, Buenos Aires","BARRIO":"PARQUE GIRADO","RUBRO":"CAMPING-PROVEEDURIA","CATEGORIA":"TURISMO Y ALOJAMIENTO","PADRÓN N°":"46-0362","INSPECTOR/A":"","ÚLTIMA VISITA":"","VENC. HABILITACIÓN":"2025-06-16","ESTADO":"VENCIDA","OBSERVACIONES":"","COORDENADAS":"-35.6249598, -58.0199656","Descripción":"","RUBRO NORMALIZADO":""}},{"type":"Feature","geometry":{"type":"Point","coordinates":[-58.042149,-35.535754,0]},"properties":{"name":"PESQUERO DEPORTIVO \nY PROVEDURIA","description":{"@type":"html","value":"descripción: <br>styleUrl: #icon-1899-BDBDBD<br>NOMBRE / COMERCIO: LAGUNA VITEL CLUB DE \nCAMPO ASOCIACION CIVIL\nCAMPANELLA MARIO DANIEL<br>CAMPO ASOCIACION CIVIL<br>CAMPANELLA MARIO DANIEL<br>CUIT: 20-12589687-2<br>CONTACTO: 1151820933<br>CATEGORÍA FISCAL: RESPONSABLE INSCRIPTO<br>DIRECCIÓN: RUTA PROVINCIAL 20 KM.87.5 Nro 87<br>BARRIO: RUTA<br>RUBRO: PESQUERO DEPORTIVO \nY PROVEDURIA<br>Y PROVEDURIA<br>CATEGORIA: TURISMO Y ALOJAMIENTO<br>PADRÓN N°: A6-0359<br>INSPECTOR/A: ANIBAL<br>ÚLTIMA VISITA: 2025-12-17<br>VENC. HABILITACIÓN: 28/02/2026<br>ESTADO: VENCIDA<br>OBSERVACIONES: FALTA CUMPLIR CON LO SOLICITADO EN ACTA ANTERIOR PARA SU HABILITACION COMERCIAL<br>COORDENADAS: -35.5357541, -58.0421492<br>icon-opacity: <br>icon-color: <br>icon-scale: <br>icon-offset: <br>icon-offset-units: <br>icon: <br>Descripción: <br>RUBRO NORMALIZADO: "},"styleUrl":"#icon-1899-BDBDBD","label-scale":0,"icon-opacity":"","icon-color":"","icon-scale":"","icon-offset":"","icon-offset-units":"","icon":"","descripción":"","NOMBRE / COMERCIO":"LAGUNA VITEL CLUB DE \nCAMPO ASOCIACION CIVIL\nCAMPANELLA MARIO DANIEL","CUIT":"20-12589687-2","CONTACTO":"1151820933","CATEGORÍA FISCAL":"RESPONSABLE INSCRIPTO","DIRECCIÓN":"RUTA PROVINCIAL 20 KM.87.5 Nro 87","BARRIO":"RUTA","RUBRO":"PESQUERO DEPORTIVO \nY PROVEDURIA","CATEGORIA":"TURISMO Y ALOJAMIENTO","PADRÓN N°":"A6-0359","INSPECTOR/A":"ANIBAL","ÚLTIMA VISITA":"2025-12-17","VENC. HABILITACIÓN":"28/02/2026","ESTADO":"VENCIDA","OBSERVACIONES":"FALTA CUMPLIR CON LO SOLICITADO EN ACTA ANTERIOR PARA SU HABILITACION COMERCIAL","COORDENADAS":"-35.5357541, -58.0421492","Descripción":"","RUBRO NORMALIZADO":""}},{"type":"Feature","geometry":{"type":"Point","coordinates":[-58.021429,-35.573832,0]},"properties":{"name":"HOSPEDAJE","description":{"@type":"html","value":"descripción: <br>styleUrl: #icon-1899-BDBDBD<br>NOMBRE / COMERCIO: MATEYKA MIRTA GLADYS<br>CUIT: 27-13613662-9<br>CONTACTO: <br>CATEGORÍA FISCAL: RESPONSABLE INSCRIPTO<br>DIRECCIÓN: BOLIVAR 575<br>BARRIO: SAN JOSE<br>RUBRO: HOSPEDAJE<br>CATEGORIA: TURISMO Y ALOJAMIENTO<br>PADRÓN N°: A5-0472<br>INSPECTOR/A: SOFIA- IRMA<br>ÚLTIMA VISITA: 2026-02-06<br>VENC. HABILITACIÓN: 09/04/2027<br>ESTADO: VIGENTE<br>OBSERVACIONES: <br>COORDENADAS: -35.5738322, -58.0214289<br>icon-opacity: <br>icon-color: <br>icon-scale: <br>icon-offset: <br>icon-offset-units: <br>icon: <br>Descripción: <br>RUBRO NORMALIZADO: "},"styleUrl":"#icon-1899-BDBDBD","label-scale":0,"icon-opacity":"","icon-color":"","icon-scale":"","icon-offset":"","icon-offset-units":"","icon":"","descripción":"","NOMBRE / COMERCIO":"MATEYKA MIRTA GLADYS","CUIT":"27-13613662-9","CONTACTO":"2241464654","CATEGORÍA FISCAL":"RESPONSABLE INSCRIPTO","DIRECCIÓN":"BOLIVAR 575","BARRIO":"SAN JOSE","RUBRO":"HOSPEDAJE","CATEGORIA":"TURISMO Y ALOJAMIENTO","PADRÓN N°":"A5-0472","INSPECTOR/A":"SOFIA- IRMA","ÚLTIMA VISITA":"2026-02-06","VENC. HABILITACIÓN":"09/04/2027","ESTADO":"VIGENTE","OBSERVACIONES":"","COORDENADAS":"-35.5738322, -58.0214289","Descripción":"","RUBRO NORMALIZADO":""}},{"type":"Feature","geometry":{"type":"Point","coordinates":[-58.024497,-35.570687,0]},"properties":{"name":"CABAÑAS-BAR-S/EVENTOS","description":{"@type":"html","value":"descripción: <br>styleUrl: #icon-1899-BDBDBD<br>NOMBRE / COMERCIO: SERRANO RODRIGO<br>CUIT: 20-42300911-0<br>CONTACTO: 2241686909<br>CATEGORÍA FISCAL: NO REGISTRA IMPUESTOS ACTIVOS<br>DIRECCIÓN: AV COSTANERA<br>BARRIO: CENTRO<br>RUBRO: CABAÑAS-BAR-S/EVENTOS<br>CATEGORIA: TURISMO Y ALOJAMIENTO<br>PADRÓN N°: A5-0776<br>INSPECTOR/A: YANINA<br>ÚLTIMA VISITA: 2025-09-18<br>VENC. HABILITACIÓN: 30/09/2027<br>ESTADO: VIGENTE<br>OBSERVACIONES: REBA CAT C2 VTO 6/10/25<br>COORDENADAS: -35.5706872, -58.02449719999999<br>icon-opacity: <br>icon-color: <br>icon-scale: <br>icon-offset: <br>icon-offset-units: <br>icon: <br>Descripción: <br>RUBRO NORMALIZADO: "},"styleUrl":"#icon-1899-BDBDBD","label-scale":0,"icon-opacity":"","icon-color":"","icon-scale":"","icon-offset":"","icon-offset-units":"","icon":"","descripción":"","NOMBRE / COMERCIO":"SERRANO RODRIGO","CUIT":"20-42300911-0","CONTACTO":"2241686909","CATEGORÍA FISCAL":"NO REGISTRA IMPUESTOS ACTIVOS","DIRECCIÓN":"AV COSTANERA","BARRIO":"CENTRO","RUBRO":"CABAÑAS-BAR-S/EVENTOS","CATEGORIA":"TURISMO Y ALOJAMIENTO","PADRÓN N°":"A5-0776","INSPECTOR/A":"YANINA","ÚLTIMA VISITA":"2025-09-18","VENC. HABILITACIÓN":"30/09/2027","ESTADO":"VIGENTE","OBSERVACIONES":"REBA CAT C2 VTO 6/10/25","COORDENADAS":"-35.5706872, -58.02449719999999","Descripción":"","RUBRO NORMALIZADO":""}}]}