{"type":"FeatureCollection","features":[{"type":"Feature","geometry":{"type":"Point","coordinates":[-57.79664,-35.65861,0]},"properties":{"name":"-35.65861, -57.79664","styleUrl":"#icon-1886-AFB42B-nodesc","icon-opacity":1,"icon-color":"#afb42b","icon-scale":1,"icon":"https://www.gstatic.com/mapspro/images/stock/503-wht-blank_maps.png"}},{"type":"Feature","geometry":{"type":"Point","coordinates":[-57.79371,-35.66392,0]},"properties":{"name":"-35.66392, -57.79371","styleUrl":"#icon-1886-AFB42B-nodesc","icon-opacity":1,"icon-color":"#afb42b","icon-scale":1,"icon":"https://www.gstatic.com/mapspro/images/stock/503-wht-blank_maps.png"}},{"type":"Feature","geometry":{"type":"Point","coordinates":[-58.23192,-35.59134,0]},"properties":{"name":"-35.59134, -58.23192","styleUrl":"#icon-1886-AFB42B-nodesc","icon-opacity":1,"icon-color":"#afb42b","icon-scale":1,"icon":"https://www.gstatic.com/mapspro/images/stock/503-wht-blank_maps.png"}},{"type":"Feature","geometry":{"type":"Point","coordinates":[-58.03325,-35.38167,0]},"properties":{"name":"-35.38167, -58.03325","styleUrl":"#icon-1886-AFB42B-nodesc","icon-opacity":1,"icon-color":"#afb42b","icon-scale":1,"icon":"https://www.gstatic.com/mapspro/images/stock/503-wht-blank_maps.png"}},{"type":"Feature","geometry":{"type":"Point","coordinates":[-58.142601,-35.431284,0]},"properties":{"name":"-35.431284, -58.142601","styleUrl":"#icon-1886-AFB42B-nodesc","icon-opacity":1,"icon-color":"#afb42b","icon-scale":1,"icon":"https://www.gstatic.com/mapspro/images/stock/503-wht-blank_maps.png"}},{"type":"Feature","geometry":{"type":"Point","coordinates":[-58.135575,-35.392291,0]},"properties":{"name":"-35.392291, -58.135575","styleUrl":"#icon-1886-AFB42B-nodesc","icon-opacity":1,"icon-color":"#afb42b","icon-scale":1,"icon":"https://www.gstatic.com/mapspro/images/stock/503-wht-blank_maps.png"}},{"type":"Feature","geometry":{"type":"Point","coordinates":[-58.08057,-35.51816,0]},"properties":{"name":"-35.51816, -58.08057","styleUrl":"#icon-1886-AFB42B-nodesc","icon-opacity":1,"icon-color":"#afb42b","icon-scale":1,"icon":"https://www.gstatic.com/mapspro/images/stock/503-wht-blank_maps.png"}},{"type":"Feature","geometry":{"type":"Point","coordinates":[-58.037019,-35.390109,0]},"properties":{"name":"-35.3901090, -58.0370190","styleUrl":"#icon-1886-AFB42B-nodesc","icon-opacity":1,"icon-color":"#afb42b","icon-scale":1,"icon":"https://www.gstatic.com/mapspro/images/stock/503-wht-blank_maps.png"}},{"type":"Feature","geometry":{"type":"Point","coordinates":[-58.033975,-35.382286,0]},"properties":{"name":"-35.3822860, -58.0339750","styleUrl":"#icon-1886-AFB42B-nodesc","icon-opacity":1,"icon-color":"#afb42b","icon-scale":1,"icon":"https://www.gstatic.com/mapspro/images/stock/503-wht-blank_maps.png"}},{"type":"Feature","geometry":{"type":"Point","coordinates":[-57.56374,-35.4232,0]},"properties":{"name":"-35.42320, -57.56374","styleUrl":"#icon-1886-AFB42B-nodesc","icon-opacity":1,"icon-color":"#afb42b","icon-scale":1,"icon":"https://www.gstatic.com/mapspro/images/stock/503-wht-blank_maps.png"}},{"type":"Feature","geometry":{"type":"Point","coordinates":[-57.37211,-35.37069,0]},"properties":{"name":"-35.37069, -57.37211","styleUrl":"#icon-1886-AFB42B-nodesc","icon-opacity":1,"icon-color":"#afb42b","icon-scale":1,"icon":"https://www.gstatic.com/mapspro/images/stock/503-wht-blank_maps.png"}},{"type":"Feature","geometry":{"type":"Point","coordinates":[-57.69331,-35.50106,0]},"properties":{"name":"-35.50106, -57.69331","styleUrl":"#icon-1886-AFB42B-nodesc","icon-opacity":1,"icon-color":"#afb42b","icon-scale":1,"icon":"https://www.gstatic.com/mapspro/images/stock/503-wht-blank_maps.png"}},{"type":"Feature","geometry":{"type":"Point","coordinates":[-57.7213687,-35.7314438,0]},"properties":{"name":"-35.7314438, -57.7213687","styleUrl":"#icon-1886-AFB42B-nodesc","icon-opacity":1,"icon-color":"#afb42b","icon-scale":1,"icon":"https://www.gstatic.com/mapspro/images/stock/503-wht-blank_maps.png"}},{"type":"Feature","geometry":{"type":"Point","coordinates":[-58.106767,-35.4301387,0]},"properties":{"name":"-35.4301387, -58.106767","styleUrl":"#icon-1886-AFB42B-nodesc","icon-opacity":1,"icon-color":"#afb42b","icon-scale":1,"icon":"https://www.gstatic.com/mapspro/images/stock/503-wht-blank_maps.png"}},{"type":"Feature","geometry":{"type":"Point","coordinates":[-58.23059,-35.41351,0]},"properties":{"name":"-35.41351, -58.23059","styleUrl":"#icon-1886-AFB42B-nodesc","icon-opacity":1,"icon-color":"#afb42b","icon-scale":1,"icon":"https://www.gstatic.com/mapspro/images/stock/503-wht-blank_maps.png"}},{"type":"Feature","geometry":{"type":"Point","coordinates":[-58.21156,-35.42051,0]},"properties":{"name":"-35.42051, -58.21156","styleUrl":"#icon-1886-AFB42B-nodesc","icon-opacity":1,"icon-color":"#afb42b","icon-scale":1,"icon":"https://www.gstatic.com/mapspro/images/stock/503-wht-blank_maps.png"}},{"type":"Feature","geometry":{"type":"Point","coordinates":[-58.3507,-35.81366,0]},"properties":{"name":"-35.81366, -58.3507","styleUrl":"#icon-1886-AFB42B-nodesc","icon-opacity":1,"icon-color":"#afb42b","icon-scale":1,"icon":"https://www.gstatic.com/mapspro/images/stock/503-wht-blank_maps.png"}},{"type":"Feature","geometry":{"type":"Point","coordinates":[-58.35946,-35.8107,0]},"properties":{"name":"-35.8107, -58.35946","styleUrl":"#icon-1886-AFB42B-nodesc","icon-opacity":1,"icon-color":"#afb42b","icon-scale":1,"icon":"https://www.gstatic.com/mapspro/images/stock/503-wht-blank_maps.png"}},{"type":"Feature","geometry":{"type":"Point","coordinates":[-58.164847,-35.856407,0]},"properties":{"name":"-35.856407, -58.164847","styleUrl":"#icon-1886-AFB42B-nodesc","icon-opacity":1,"icon-color":"#afb42b","icon-scale":1,"icon":"https://www.gstatic.com/mapspro/images/stock/503-wht-blank_maps.png"}},{"type":"Feature","geometry":{"type":"Point","coordinates":[-57.67251,-35.51522,0]},"properties":{"name":"-35.51522, -57.67251","styleUrl":"#icon-1886-AFB42B-nodesc","icon-opacity":1,"icon-color":"#afb42b","icon-scale":1,"icon":"https://www.gstatic.com/mapspro/images/stock/503-wht-blank_maps.png"}}]}