{"type":"FeatureCollection","features":[{"type":"Feature","properties":{"CCA":"027020B0036000","ARA1":511679.43,"SAG":"ARBA","PARTIDO":"027","CIRC":2,"SECC":"B","CHACRA":36,"CHACRA_L":null,"NOMENCLA":"Circ. II - Secc. B - Ch. 36"},"geometry":{"type":"Polygon","coordinates":[[[-58.004274695623856,-35.557467539895306],[-58.00641704407522,-35.5592242286811],[-58.01063455511256,-35.55607618829569],[-58.00857677563283,-35.554256901095755],[-58.004274695623856,-35.557467539895306]],[[-58.002236304067075,-35.54854032591548],[-58.0005036592414,-35.54698131069289],[-57.999194374300856,-35.54681495504172],[-57.99844138527743,-35.55141935174131],[-57.998275581032956,-35.55217615356701],[-57.997894617450505,-35.55429485014007],[-58.001139391004806,-35.55466932476257],[-58.00135611814345,-35.55485845976253],[-58.005735655490305,-35.55155999410548],[-58.0055612834416,-35.551410316009054],[-58.002236304067075,-35.54854032591548]]]}},{"type":"Feature","properties":{"CCA":"027020E0119000","ARA1":134404.05,"SAG":"ARBA","PARTIDO":"027","CIRC":2,"SECC":"E","CHACRA":119,"CHACRA_L":null,"NOMENCLA":"Circ. II - Secc. E - Ch. 119"},"geometry":{"type":"Polygon","coordinates":[[[-57.96526055120842,-35.575856628889404],[-57.96480777708542,-35.57882463459795],[-57.96712814962138,-35.579067546536784],[-57.969234343527255,-35.579287971109395],[-57.969689618207475,-35.57631944780614],[-57.96750362523622,-35.57609101810318],[-57.96526055120842,-35.575856628889404]]]}},{"type":"Feature","properties":{"CCA":"027020E0105000","ARA1":216051.78,"SAG":"ARBA","PARTIDO":"027","CIRC":2,"SECC":"E","CHACRA":105,"CHACRA_L":null,"NOMENCLA":"Circ. II - Secc. E - Ch. 105"},"geometry":{"type":"Polygon","coordinates":[[[-57.96241190481779,-35.56274425020472],[-57.96194958095703,-35.56543157233258],[-57.96180721809242,-35.56649319888103],[-57.96165546409258,-35.567624952984836],[-57.96383823817002,-35.5678618111516],[-57.9659719755441,-35.56809320657637],[-57.9661543922222,-35.56698079691341],[-57.96637643091608,-35.56562701615896],[-57.96678213989245,-35.56331520512107],[-57.96241190481779,-35.56274425020472]]]}},{"type":"Feature","properties":{"CCA":"027020E0114000","ARA1":147570.08,"SAG":"ARBA","PARTIDO":"027","CIRC":2,"SECC":"E","CHACRA":114,"CHACRA_L":null,"NOMENCLA":"Circ. II - Secc. E - Ch. 114"},"geometry":{"type":"Polygon","coordinates":[[[-57.96545425102815,-35.57410327092363],[-57.96539770208084,-35.57476904929489],[-57.96532683729168,-35.57560390484751],[-57.966433072600374,-35.575741526279415],[-57.967581096453294,-35.575884257913216],[-57.96813911050355,-35.57595368282511],[-57.96867568557922,-35.57602040085339],[-57.96918807206969,-35.576084095607904],[-57.96966967287931,-35.576143935345634],[-57.96980519887982,-35.57605781965916],[-57.969908409483246,-35.57512825805916],[-57.96995980625664,-35.574665140710955],[-57.97001349827961,-35.57418097591296],[-57.97006443779515,-35.57372280685773],[-57.97011783504064,-35.57324152052409],[-57.97016464848437,-35.57282004727549],[-57.97020106521853,-35.57249148389052],[-57.970071678855206,-35.572369546342536],[-57.96967641008782,-35.572329185453846],[-57.96928498906603,-35.57228933867318],[-57.968879709186766,-35.572247995468004],[-57.96847696092511,-35.57220687380764],[-57.96798312199967,-35.57215655531192],[-57.967486865186736,-35.57210592368266],[-57.96673582391906,-35.57202936449826],[-57.966670398211384,-35.57268030593948],[-57.966633295809324,-35.573048505412125],[-57.96659056664887,-35.57347347012179],[-57.96651678144228,-35.574206271502405],[-57.96633553947576,-35.57418978621494],[-57.966058059195156,-35.57416257500824],[-57.965729750895505,-35.57413026985993],[-57.96545425102815,-35.57410327092363]]]}},{"type":"Feature","properties":{"CCA":"027020E0115000","ARA1":63419.66,"SAG":"ARBA","PARTIDO":"027","CIRC":2,"SECC":"E","CHACRA":115,"CHACRA_L":null,"NOMENCLA":"Circ. II - Secc. E - Ch. 115"},"geometry":{"type":"Polygon","coordinates":[[[-57.96136180675266,-35.57189702556522],[-57.96134952246071,-35.571994408184615],[-57.96132201991136,-35.572213543914394],[-57.96123142438636,-35.57293326123048],[-57.96115494005226,-35.57354003748564],[-57.960975387186565,-35.5749667032571],[-57.96295765384456,-35.57522379636004],[-57.963036258748225,-35.57467220282045],[-57.96312401235169,-35.57409030622389],[-57.963182374537205,-35.57369336159257],[-57.96340999188531,-35.5721439614091],[-57.96265271021017,-35.57205267331208],[-57.96136180675266,-35.57189702556522]]]}},{"type":"Feature","properties":{"CCA":"027020F0142000","ARA1":116861.36,"SAG":"ARBA","PARTIDO":"027","CIRC":2,"SECC":"F","CHACRA":142,"CHACRA_L":null,"NOMENCLA":"Circ. II - Secc. F - Ch. 142"},"geometry":{"type":"Polygon","coordinates":[[[-57.96087012227411,-35.562515782718954],[-57.958298894985326,-35.56730203248072],[-57.961528236431384,-35.56764496827528],[-57.96223685602339,-35.56271506804947],[-57.96087012227411,-35.562515782718954]]]}},{"type":"Feature","properties":{"CCA":"027020F0143000","ARA1":202777.95,"SAG":"ARBA","PARTIDO":"027","CIRC":2,"SECC":"F","CHACRA":143,"CHACRA_L":null,"NOMENCLA":"Circ. II - Secc. F - Ch. 143"},"geometry":{"type":"Polygon","coordinates":[[[-57.94462152800928,-35.561120758692226],[-57.94387633879516,-35.56576579507997],[-57.945042649873486,-35.56588472098666],[-57.94618982509014,-35.56600168752007],[-57.94839728780845,-35.566226719645044],[-57.94891596439902,-35.56329783739296],[-57.948980761216056,-35.56293200777798],[-57.94782348794032,-35.56188071479296],[-57.947341487940946,-35.561442856445126],[-57.94462152800928,-35.561120758692226]]]}},{"type":"Feature","properties":{"CCA":"027020F0148000","ARA1":140829.83,"SAG":"ARBA","PARTIDO":"027","CIRC":2,"SECC":"F","CHACRA":148,"CHACRA_L":null,"NOMENCLA":"Circ. II - Secc. F - Ch. 148"},"geometry":{"type":"Polygon","coordinates":[[[-57.95346011671567,-35.5670002633551],[-57.952899972267055,-35.57004272234849],[-57.95454355074328,-35.57022823640025],[-57.95524376538517,-35.57030725278856],[-57.955970045293405,-35.57038923037005],[-57.95739467680623,-35.570549995719176],[-57.95764492985066,-35.56936837437654],[-57.95758035014108,-35.56936205339172],[-57.957976478673636,-35.56749940985098],[-57.95648351836617,-35.56733442972765],[-57.95546984814711,-35.56722243911742],[-57.95346011671567,-35.5670002633551]]]}},{"type":"Feature","properties":{"CCA":"027020F0147000","ARA1":117936.53,"SAG":"ARBA","PARTIDO":"027","CIRC":2,"SECC":"F","CHACRA":147,"CHACRA_L":null,"NOMENCLA":"Circ. II - Secc. F - Ch. 147"},"geometry":{"type":"Polygon","coordinates":[[[-57.95823053409418,-35.56752732374539],[-57.95757986005276,-35.570601974805534],[-57.958032183262404,-35.57065343447071],[-57.961397258189294,-35.571085723221536],[-57.961819616016356,-35.56796276318089],[-57.958679744778955,-35.56757908843368],[-57.95823053409418,-35.56752732374539]]]}},{"type":"Feature","properties":{"CCA":"027020F0152000","ARA1":144898.1,"SAG":"ARBA","PARTIDO":"027","CIRC":2,"SECC":"F","CHACRA":152,"CHACRA_L":null,"NOMENCLA":"Circ. II - Secc. F - Ch. 152"},"geometry":{"type":"Polygon","coordinates":[[[-57.95757105822477,-35.570744471591865],[-57.957297830576216,-35.57216602940892],[-57.95687234988915,-35.57437915388869],[-57.958646336432864,-35.57458448627209],[-57.959972957662316,-35.57473797496646],[-57.96084132036045,-35.57483836900817],[-57.960979131466736,-35.573883630288414],[-57.961109344043145,-35.57298048648334],[-57.96136609517885,-35.571201259274936],[-57.96027136477217,-35.57106946408069],[-57.959009723418966,-35.57091762083936],[-57.95757105822477,-35.570744471591865]]]}},{"type":"Feature","properties":{"CCA":"027020F0155000","ARA1":53067.51,"SAG":"ARBA","PARTIDO":"027","CIRC":2,"SECC":"F","CHACRA":155,"CHACRA_L":null,"NOMENCLA":"Circ. II - Secc. F - Ch. 155"},"geometry":{"type":"Polygon","coordinates":[[[-57.94405741372009,-35.56948623164461],[-57.947167122471406,-35.5722530288662],[-57.947432851633124,-35.572489501118206],[-57.94790667489251,-35.56978748348919],[-57.947559953717274,-35.56976031237413],[-57.94405741372009,-35.56948623164461]]]}},{"type":"Feature","properties":{"CCA":"027020F0149000","ARA1":141262.86,"SAG":"ARBA","PARTIDO":"027","CIRC":2,"SECC":"F","CHACRA":149,"CHACRA_L":null,"NOMENCLA":"Circ. II - Secc. F - Ch. 149"},"geometry":{"type":"Polygon","coordinates":[[[-57.94860731543265,-35.566514775679956],[-57.94851558680362,-35.5671710248044],[-57.948397572601344,-35.56801461765455],[-57.94818009857261,-35.569570736659976],[-57.95267866979269,-35.57001904813456],[-57.952932906011455,-35.568536173744604],[-57.95308197389413,-35.567666610555136],[-57.95319698547809,-35.56699543396394],[-57.94860731543265,-35.566514775679956]]]}},{"type":"Feature","properties":{"CCA":"027020F0150000","ARA1":144580.02,"SAG":"ARBA","PARTIDO":"027","CIRC":2,"SECC":"F","CHACRA":150,"CHACRA_L":null,"NOMENCLA":"Circ. II - Secc. F - Ch. 150"},"geometry":{"type":"Polygon","coordinates":[[[-57.94381765097142,-35.56604260586403],[-57.94353096194953,-35.567921663586354],[-57.9433352685868,-35.56920456726674],[-57.94383541775664,-35.56924392029243],[-57.94787791119356,-35.56956180627599],[-57.94833986223707,-35.566467600046536],[-57.94590749961722,-35.566239093960775],[-57.94473280097919,-35.56612877405255],[-57.94381765097142,-35.56604260586403]]]}},{"type":"Feature","properties":{"CCA":"027030B0031000","ARA1":52397.38,"SAG":"ARBA","PARTIDO":"027","CIRC":3,"SECC":"B","CHACRA":31,"CHACRA_L":null,"NOMENCLA":"Circ. III - Secc. B - Ch. 31"},"geometry":{"type":"Polygon","coordinates":[[[-57.96685134547717,-35.58950387521052],[-57.967107482167144,-35.58973590819154],[-57.96715431320504,-35.58973805006666],[-57.96735234623454,-35.58959360920755],[-57.96756914903881,-35.58943542732256],[-57.96778617153437,-35.58927724873524],[-57.96809230542207,-35.58905019590145],[-57.968398550132754,-35.588823054010966],[-57.96870479311879,-35.58859591127651],[-57.969391855596754,-35.588080162976844],[-57.96911611366414,-35.58782500618198],[-57.96884153408036,-35.58757194092645],[-57.96856377665862,-35.58731810059161],[-57.96828877539457,-35.58706439622418],[-57.96803490328563,-35.58683024127616],[-57.96798851269,-35.586828197309515],[-57.967784250061975,-35.58697938277024],[-57.96754670757628,-35.58715532768089],[-57.96730916633201,-35.58733118201111],[-57.967002926851634,-35.58755823119758],[-57.96669668336923,-35.587785369612696],[-57.96639223663985,-35.588011185874606],[-57.9661769406289,-35.58817092302154],[-57.9659616460444,-35.588330569678696],[-57.965770858852416,-35.58847206685244],[-57.96576836003931,-35.588509781202674],[-57.96601662800447,-35.58874736057387],[-57.96629486618255,-35.58899950269024],[-57.96657310382102,-35.58925173428419],[-57.96685134547717,-35.58950387521052]]]}},{"type":"Feature","properties":{"CCA":"027020E0129000","ARA1":98195.31,"SAG":"ARBA","PARTIDO":"027","CIRC":2,"SECC":"E","CHACRA":129,"CHACRA_L":null,"NOMENCLA":"Circ. II - Secc. E - Ch. 129"},"geometry":{"type":"Polygon","coordinates":[[[-57.96415778136569,-35.58222210831935],[-57.964033446304136,-35.582954683384216],[-57.9682341813674,-35.58657507316129],[-57.96828469768527,-35.58402613949955],[-57.96863954252069,-35.58287878948336],[-57.96415778136569,-35.58222210831935]]]}},{"type":"Feature","properties":{"CCA":"027020E0123000","ARA1":125686.87,"SAG":"ARBA","PARTIDO":"027","CIRC":2,"SECC":"E","CHACRA":123,"CHACRA_L":null,"NOMENCLA":"Circ. II - Secc. E - Ch. 123"},"geometry":{"type":"Polygon","coordinates":[[[-57.969446009902036,-35.57962458959133],[-57.969261985094,-35.58093639154751],[-57.96893244239283,-35.582764059649044],[-57.971316435304956,-35.58304373935095],[-57.97163130822541,-35.58308544556359],[-57.972823860324254,-35.58324293585724],[-57.97302314593551,-35.58219450975407],[-57.97316636543533,-35.58144025448878],[-57.97341563081927,-35.58012837153083],[-57.969446009902036,-35.57962458959133]]]}},{"type":"Feature","properties":{"CCA":"027020F0154000","ARA1":154921.05,"SAG":"ARBA","PARTIDO":"027","CIRC":2,"SECC":"F","CHACRA":154,"CHACRA_L":null,"NOMENCLA":"Circ. II - Secc. F - Ch. 154"},"geometry":{"type":"Polygon","coordinates":[[[-57.948152069703426,-35.56981779433375],[-57.94765473860894,-35.5727325250764],[-57.947803815150415,-35.57286383261074],[-57.94828043313884,-35.573260236976104],[-57.95205928575613,-35.573752817553164],[-57.952629891155745,-35.570297563733256],[-57.948324093800025,-35.569836222405634],[-57.948152069703426,-35.56981779433375]]]}},{"type":"Feature","properties":{"CCA":"027020F0156000","ARA1":385723.46,"SAG":"ARBA","PARTIDO":"027","CIRC":2,"SECC":"F","CHACRA":156,"CHACRA_L":null,"NOMENCLA":"Circ. II - Secc. F - Ch. 156"},"geometry":{"type":"Polygon","coordinates":[[[-57.948655623690826,-35.5735685865631],[-57.953590333239774,-35.577947635114],[-57.95593391717411,-35.580047713568035],[-57.95938928689426,-35.57814078030099],[-57.96004097557571,-35.5788442290141],[-57.96075524727541,-35.57521844303826],[-57.948655623690826,-35.5735685865631]]]}},{"type":"Feature","properties":{"CCA":"027020F0153000","ARA1":157475.09,"SAG":"ARBA","PARTIDO":"027","CIRC":2,"SECC":"F","CHACRA":153,"CHACRA_L":null,"NOMENCLA":"Circ. II - Secc. F - Ch. 153"},"geometry":{"type":"Polygon","coordinates":[[[-57.952927522595765,-35.570290635404035],[-57.95277417307937,-35.57107677248464],[-57.9526870412081,-35.5715231441498],[-57.952599646488835,-35.571971133240226],[-57.952513265628994,-35.572413913008475],[-57.952425620722245,-35.572862978964366],[-57.952338096427425,-35.57331159630562],[-57.95226542159644,-35.57368378140668],[-57.95225209810975,-35.573752219589345],[-57.954436893439556,-35.57401460587251],[-57.95659608784975,-35.57427372513188],[-57.95661377720548,-35.57418959100822],[-57.95668916488752,-35.57383141621122],[-57.956784371269315,-35.57337905083468],[-57.956877687084045,-35.57293593472569],[-57.95697012707185,-35.57249685865054],[-57.957064836327774,-35.57204655704058],[-57.957160779534526,-35.57159104978206],[-57.95733863151219,-35.57074611880498],[-57.956924249266805,-35.57070331970463],[-57.956471256484555,-35.57065653030735],[-57.956030473942825,-35.57061102765765],[-57.95556230074285,-35.570562715808606],[-57.95511690059768,-35.57051668093171],[-57.9546714987531,-35.57047073449676],[-57.95423126979021,-35.57042523468551],[-57.95380258949086,-35.570381010707074],[-57.953349490673716,-35.57033420781612],[-57.952927522595765,-35.570290635404035]]]}},{"type":"Feature","properties":{"CCA":"027020D0093000","ARA1":57152.11,"SAG":"ARBA","PARTIDO":"027","CIRC":2,"SECC":"D","CHACRA":93,"CHACRA_L":null,"NOMENCLA":"Circ. II - Secc. D - Ch. 93"},"geometry":{"type":"Polygon","coordinates":[[[-57.983602539659294,-35.57804306708123],[-57.98317345764736,-35.580163148424],[-57.984238466645635,-35.58030352198505],[-57.984042003643616,-35.58129822004068],[-57.985123746254814,-35.581440578105834],[-57.9856840561501,-35.57831613716811],[-57.983602539659294,-35.57804306708123]]]}},{"type":"Feature","properties":{"CCA":"027020D0092000","ARA1":11509.8,"SAG":"ARBA","PARTIDO":"027","CIRC":2,"SECC":"D","CHACRA":92,"CHACRA_L":null,"NOMENCLA":"Circ. II - Secc. D - Ch. 92"},"geometry":{"type":"Polygon","coordinates":[[[-57.991036148280685,-35.58001704728807],[-57.99101503003538,-35.58012059390557],[-57.990964019681314,-35.58038304959934],[-57.99094764247145,-35.58046459789617],[-57.990931343991875,-35.580542993594726],[-57.991221415744015,-35.58035445034059],[-57.99145638560624,-35.58016823186304],[-57.99158434250897,-35.58007097163763],[-57.99267532837915,-35.57921993460732],[-57.99123859683531,-35.5790308163617],[-57.99115470410504,-35.57943951589289],[-57.99113649118095,-35.57952833267167],[-57.99111827821196,-35.57961714944516],[-57.9911000629478,-35.57970605628749],[-57.99108184988895,-35.579794873050375],[-57.991036148280685,-35.58001704728807]]]}},{"type":"Feature","properties":{"CCA":"027020B0039000","ARA1":168998.7,"SAG":"ARBA","PARTIDO":"027","CIRC":2,"SECC":"B","CHACRA":39,"CHACRA_L":null,"NOMENCLA":"Circ. II - Secc. B - Ch. 39"},"geometry":{"type":"Polygon","coordinates":[[[-57.99605478368128,-35.55029290724372],[-57.99384372037894,-35.5500820301754],[-57.99351427273979,-35.55180642796163],[-57.99528435121795,-35.55202025075976],[-57.99526873914512,-35.55210253377112],[-57.99349766264413,-35.55189328981866],[-57.993420354509894,-35.55233165957262],[-57.993357692119126,-35.55268232370456],[-57.99328232996014,-35.55311333650509],[-57.993172111873015,-35.55377031052152],[-57.99364061811028,-35.55382010254628],[-57.99414212031791,-35.55387332547126],[-57.99464901079528,-35.55392717663957],[-57.99539598715985,-35.5540064656516],[-57.99767830906414,-35.55423417922142],[-57.997873656697294,-35.55304370910654],[-57.9981623775007,-35.55135728000323],[-57.99830193328939,-35.55052083369837],[-57.99734666738487,-35.550424946249095],[-57.99605478368128,-35.55029290724372]]]}},{"type":"Feature","properties":{"CCA":"027020B0053000","ARA1":131308.1,"SAG":"ARBA","PARTIDO":"027","CIRC":2,"SECC":"B","CHACRA":53,"CHACRA_L":null,"NOMENCLA":"Circ. II - Secc. B - Ch. 53"},"geometry":{"type":"Polygon","coordinates":[[[-57.991075619002714,-35.5641859719489],[-57.98981913139224,-35.564032555769295],[-57.98848791102469,-35.56527614404174],[-57.988449863407766,-35.56552313617116],[-57.99078596656814,-35.56580865310763],[-57.991075619002714,-35.5641859719489]],[[-57.9869596797283,-35.56119036889612],[-57.98657806127779,-35.5632726954139],[-57.98620664191025,-35.56529914069304],[-57.98734641068344,-35.56545010483988],[-57.98798429477727,-35.56473589716846],[-57.98740864303283,-35.56336343431148],[-57.987588545853306,-35.56338419057198],[-57.98772300984072,-35.563718137384555],[-57.98808842143023,-35.5646249057102],[-57.98882940674451,-35.56391070230992],[-57.9889369866055,-35.563807066753775],[-57.988980797740716,-35.563558818869765],[-57.989344349498836,-35.561495376254534],[-57.9869596797283,-35.56119036889612]],[[-57.99139588238018,-35.56215820611793],[-57.9904146488236,-35.56286292342638],[-57.989118767725486,-35.56393805885177],[-57.98874927019866,-35.56428413997658],[-57.98766736983381,-35.56542248380492],[-57.987977665106946,-35.56545965446581],[-57.98869461678666,-35.56471900855391],[-57.98947777394031,-35.563985229753804],[-57.99062377587459,-35.56304708470115],[-57.99133092733158,-35.56253370107996],[-57.99139588238018,-35.56215820611793]]]}},{"type":"Feature","properties":{"CCA":"027020C0064000","ARA1":192987.21,"SAG":"ARBA","PARTIDO":"027","CIRC":2,"SECC":"C","CHACRA":64,"CHACRA_L":null,"NOMENCLA":"Circ. II - Secc. C - Ch. 64"},"geometry":{"type":"Polygon","coordinates":[[[-57.974471504584045,-35.54816517480452],[-57.973913508843644,-35.551629153450826],[-57.97915000507601,-35.55224115380108],[-57.97990619914247,-35.54865629531565],[-57.974471504584045,-35.54816517480452]]]}},{"type":"Feature","properties":{"CCA":"027020C0065000","ARA1":99423.81,"SAG":"ARBA","PARTIDO":"027","CIRC":2,"SECC":"C","CHACRA":65,"CHACRA_L":null,"NOMENCLA":"Circ. II - Secc. C - Ch. 65"},"geometry":{"type":"Polygon","coordinates":[[[-57.974398746916286,-35.547235530573985],[-57.969243679500586,-35.55114668420605],[-57.97370086566707,-35.551596112267724],[-57.974398746916286,-35.547235530573985]]]}},{"type":"Feature","properties":{"CCA":"027020C0068000","ARA1":193218.01,"SAG":"ARBA","PARTIDO":"027","CIRC":2,"SECC":"C","CHACRA":68,"CHACRA_L":null,"NOMENCLA":"Circ. II - Secc. C - Ch. 68"},"geometry":{"type":"Polygon","coordinates":[[[-57.97387302377064,-35.55184888613759],[-57.97331546944571,-35.55554697680779],[-57.975840645366304,-35.55581595308899],[-57.97833909336699,-35.55607415559661],[-57.979107066090705,-35.55244498763624],[-57.976344032768786,-35.55212315729894],[-57.97387302377064,-35.55184888613759]]]}},{"type":"Feature","properties":{"CCA":"027020C0070000","ARA1":60412.65,"SAG":"ARBA","PARTIDO":"027","CIRC":2,"SECC":"C","CHACRA":70,"CHACRA_L":null,"NOMENCLA":"Circ. II - Secc. C - Ch. 70"},"geometry":{"type":"Polygon","coordinates":[[[-57.96878041239261,-35.55151545447495],[-57.964810275163465,-35.55456039454365],[-57.96825913500366,-35.554938027691314],[-57.96878041239261,-35.55151545447495]]]}},{"type":"Feature","properties":{"CCA":"027020C0073000","ARA1":177712.57,"SAG":"ARBA","PARTIDO":"027","CIRC":2,"SECC":"C","CHACRA":73,"CHACRA_L":null,"NOMENCLA":"Circ. II - Secc. C - Ch. 73"},"geometry":{"type":"Polygon","coordinates":[[[-57.973288908154295,-35.55571720162136],[-57.97268735806023,-35.55920251400977],[-57.974625261916145,-35.559407750521025],[-57.977530299147375,-35.55977120557079],[-57.977917968518966,-35.55815434852015],[-57.97802492520158,-35.55766755731955],[-57.97832980815032,-35.55625503431278],[-57.97543645275248,-35.55595370332294],[-57.973288908154295,-35.55571720162136]]]}},{"type":"Feature","properties":{"CCA":"027020C0075000","ARA1":154677.0,"SAG":"ARBA","PARTIDO":"027","CIRC":2,"SECC":"C","CHACRA":75,"CHACRA_L":null,"NOMENCLA":"Circ. II - Secc. C - Ch. 75"},"geometry":{"type":"Polygon","coordinates":[[[-57.9646252250245,-35.554713703233574],[-57.96365344415837,-35.55553631638205],[-57.96318022091691,-35.558130828692434],[-57.967579990963785,-35.55862304217098],[-57.9682210623845,-35.55512265525313],[-57.9646252250245,-35.554713703233574]]]}},{"type":"Feature","properties":{"CCA":"027020C0069000","ARA1":174658.95,"SAG":"ARBA","PARTIDO":"027","CIRC":2,"SECC":"C","CHACRA":69,"CHACRA_L":null,"NOMENCLA":"Circ. II - Secc. C - Ch. 69"},"geometry":{"type":"Polygon","coordinates":[[[-57.96904862711793,-35.55133434426698],[-57.96848310770301,-35.554972440993296],[-57.97315306232953,-35.555528566324405],[-57.97369696902324,-35.55184727819033],[-57.96904862711793,-35.55133434426698]]]}},{"type":"Feature","properties":{"CCA":"027020C0080000","ARA1":191152.47,"SAG":"ARBA","PARTIDO":"027","CIRC":2,"SECC":"C","CHACRA":80,"CHACRA_L":null,"NOMENCLA":"Circ. II - Secc. C - Ch. 80"},"geometry":{"type":"Polygon","coordinates":[[[-57.963139918092914,-35.55831154186524],[-57.96246213527877,-35.56256361519017],[-57.96467142685531,-35.5628106365851],[-57.966825997573174,-35.56308525978906],[-57.96722446913203,-35.560530563591435],[-57.967543161680965,-35.55878885702974],[-57.963139918092914,-35.55831154186524]]]}},{"type":"Feature","properties":{"CCA":"027020C0079000","ARA1":210567.99,"SAG":"ARBA","PARTIDO":"027","CIRC":2,"SECC":"C","CHACRA":79,"CHACRA_L":null,"NOMENCLA":"Circ. II - Secc. C - Ch. 79"},"geometry":{"type":"Polygon","coordinates":[[[-57.969904025500334,-35.55907411139785],[-57.967742888725574,-35.558818717847885],[-57.967020710603066,-35.56311756048518],[-57.97174177383643,-35.56366812154763],[-57.97217638516171,-35.56142372830239],[-57.97253707996233,-35.559350202040434],[-57.969904025500334,-35.55907411139785]]]}},{"type":"Feature","properties":{"CCA":"027020C006700A","ARA1":76786.82,"SAG":"ARBA","PARTIDO":"027","CIRC":2,"SECC":"C","CHACRA":67,"CHACRA_L":"A","NOMENCLA":"Circ. II - Secc. C - Ch. 67A"},"geometry":{"type":"Polygon","coordinates":[[[-57.97985355474042,-35.554598647790314],[-57.980129074884005,-35.554631200111146],[-57.980682540859014,-35.55469634351156],[-57.981229851116844,-35.554760750493095],[-57.98177309084974,-35.554824816503135],[-57.982180660204214,-35.55487282169112],[-57.9826794838571,-35.55493163443371],[-57.98275942051132,-35.55448763969309],[-57.98305330754453,-35.552889558408374],[-57.97938618019974,-35.55247462811331],[-57.97917373018403,-35.55361080019389],[-57.97911215935441,-35.55390668615654],[-57.979044704167265,-35.55423049816117],[-57.97899468867577,-35.554470167813164],[-57.97902204029075,-35.554500723773174],[-57.9792915154596,-35.55453245574503],[-57.979578142812926,-35.55456618676814],[-57.97985355474042,-35.554598647790314]]]}},{"type":"Feature","properties":{"CCA":"027020C0060000","ARA1":114715.17,"SAG":"ARBA","PARTIDO":"027","CIRC":2,"SECC":"C","CHACRA":60,"CHACRA_L":null,"NOMENCLA":"Circ. II - Secc. C - Ch. 60"},"geometry":{"type":"Polygon","coordinates":[[[-57.98147600223782,-35.543057627583856],[-57.98089935224914,-35.54642635630837],[-57.984567307036706,-35.54672275315013],[-57.98493205343835,-35.543836796983314],[-57.98147600223782,-35.543057627583856]]]}},{"type":"Feature","properties":{"CCA":"027020E0104000","ARA1":230347.23,"SAG":"ARBA","PARTIDO":"027","CIRC":2,"SECC":"E","CHACRA":104,"CHACRA_L":null,"NOMENCLA":"Circ. II - Secc. E - Ch. 104"},"geometry":{"type":"Polygon","coordinates":[[[-57.96695613156801,-35.563347066220885],[-57.966521778002644,-35.5656011738377],[-57.966288211514936,-35.56681337562207],[-57.966070963671974,-35.56810830394053],[-57.96872872771239,-35.568395261976036],[-57.970835254024834,-35.56862665361334],[-57.971440519085164,-35.56507951364136],[-57.97163915620719,-35.56391528242261],[-57.970212493134156,-35.56374221737328],[-57.96695613156801,-35.563347066220885]]]}},{"type":"Feature","properties":{"CCA":"027020E0109000","ARA1":101905.74,"SAG":"ARBA","PARTIDO":"027","CIRC":2,"SECC":"E","CHACRA":109,"CHACRA_L":null,"NOMENCLA":"Circ. II - Secc. E - Ch. 109"},"geometry":{"type":"Polygon","coordinates":[[[-57.968083034967904,-35.57180779711812],[-57.970193499608065,-35.57203953803443],[-57.970289943936514,-35.571172218513745],[-57.96925135155196,-35.571004865110964],[-57.96875812006135,-35.571201555374856],[-57.9688190418591,-35.57081122863344],[-57.96913945059959,-35.568757583822396],[-57.96754803532117,-35.56859369418445],[-57.96622074428508,-35.56845694956117],[-57.966080108422304,-35.570512178154104],[-57.96599830627767,-35.57158816826194],[-57.96729895039993,-35.571725187505095],[-57.968083034967904,-35.57180779711812]]]}},{"type":"Feature","properties":{"CCA":"027020C0074000","ARA1":169616.2,"SAG":"ARBA","PARTIDO":"027","CIRC":2,"SECC":"C","CHACRA":74,"CHACRA_L":null,"NOMENCLA":"Circ. II - Secc. C - Ch. 74"},"geometry":{"type":"Polygon","coordinates":[[[-57.96843597112155,-35.5551535817245],[-57.96778084824513,-35.55865616599453],[-57.97256205451238,-35.559177427710694],[-57.97311746319187,-35.5556942236365],[-57.96843597112155,-35.5551535817245]]]}},{"type":"Feature","properties":{"CCA":"027020B0030000","ARA1":236531.27,"SAG":"ARBA","PARTIDO":"027","CIRC":2,"SECC":"B","CHACRA":30,"CHACRA_L":null,"NOMENCLA":"Circ. II - Secc. B - Ch. 30"},"geometry":{"type":"Polygon","coordinates":[[[-58.00710230327656,-35.5454040450172],[-58.006062943930594,-35.54614578325271],[-58.00495359019905,-35.54688590310881],[-58.002736726991316,-35.548364879923916],[-58.005890372125435,-35.551212287398236],[-58.00608634865473,-35.55138899565772],[-58.00814231244968,-35.549907569721476],[-58.01029742636459,-35.54836854000409],[-58.010099703853065,-35.54819099865617],[-58.00710230327656,-35.5454040450172]],[[-58.01200682231884,-35.547122735042066],[-58.01292897673438,-35.54656248190142],[-58.014518833254776,-35.54573900893085],[-58.01567065526988,-35.54514160575258],[-58.015285229234266,-35.54475994163375],[-58.01200682231884,-35.547122735042066]]]}},{"type":"Feature","properties":{"CCA":"027020C005900A","ARA1":56560.28,"SAG":"ARBA","PARTIDO":"027","CIRC":2,"SECC":"C","CHACRA":59,"CHACRA_L":"A","NOMENCLA":"Circ. II - Secc. C - Ch. 59A"},"geometry":{"type":"Polygon","coordinates":[[[-57.985132783249306,-35.54400604856543],[-57.98462052397869,-35.54760962374632],[-57.985028648670365,-35.54717588949687],[-57.98825891727184,-35.54474095042863],[-57.985132783249306,-35.54400604856543]]]}},{"type":"Feature","properties":{"CCA":"027020B0029000","ARA1":146422.37,"SAG":"ARBA","PARTIDO":"027","CIRC":2,"SECC":"B","CHACRA":29,"CHACRA_L":null,"NOMENCLA":"Circ. II - Secc. B - Ch. 29"},"geometry":{"type":"Polygon","coordinates":[[[-57.99556744700768,-35.54046513607789],[-57.99415657815867,-35.541429478424426],[-57.99418677891734,-35.54123948373583],[-57.993713747101204,-35.54158223845846],[-57.99412736289913,-35.54162859082926],[-57.99534441966454,-35.54176237776882],[-57.99556744700768,-35.54046513607789]],[[-57.9910982896197,-35.53765051995946],[-57.990678552065035,-35.539962651703036],[-57.99042048751127,-35.54137959881361],[-57.992503413600126,-35.541590293539755],[-57.99385083500406,-35.54062897012687],[-57.99388056624191,-35.540364895443226],[-57.99397479577632,-35.54028220861844],[-57.9953062506486,-35.539300777708036],[-57.99549220595901,-35.538230272373845],[-57.9943057103003,-35.53806671846601],[-57.99423343703171,-35.538051458471784],[-57.9910982896197,-35.53765051995946]]]}},{"type":"Feature","properties":{"CCA":"027020B0019000","ARA1":62028.06,"SAG":"ARBA","PARTIDO":"027","CIRC":2,"SECC":"B","CHACRA":19,"CHACRA_L":null,"NOMENCLA":"Circ. II - Secc. B - Ch. 19"},"geometry":{"type":"Polygon","coordinates":[[[-57.99689916048876,-35.53076180823348],[-57.99283847278194,-35.53369825644703],[-57.99626653441985,-35.53425297202202],[-57.99689916048876,-35.53076180823348]]]}},{"type":"Feature","properties":{"CCA":"027020B0024000","ARA1":159724.28,"SAG":"ARBA","PARTIDO":"027","CIRC":2,"SECC":"B","CHACRA":24,"CHACRA_L":null,"NOMENCLA":"Circ. II - Secc. B - Ch. 24"},"geometry":{"type":"Polygon","coordinates":[[[-57.992544462887345,-35.53394135010687],[-57.9917044699521,-35.53451849645377],[-57.99161743424629,-35.53457814263785],[-57.99105857681372,-35.537381864472835],[-57.99115043750187,-35.537394118604865],[-57.9955643799657,-35.53798375380114],[-57.995838559569464,-35.53650425296557],[-57.996207706010566,-35.534512779347516],[-57.992544462887345,-35.53394135010687]]]}},{"type":"Feature","properties":{"CCA":"027020B0032000","ARA1":187498.15,"SAG":"ARBA","PARTIDO":"027","CIRC":2,"SECC":"B","CHACRA":32,"CHACRA_L":null,"NOMENCLA":"Circ. II - Secc. B - Ch. 32"},"geometry":{"type":"Polygon","coordinates":[[[-58.00116815843132,-35.54640552049701],[-58.00302264340856,-35.548089007505865],[-58.004042068944756,-35.54738850827418],[-58.00414759493758,-35.54667215056695],[-58.00440460860615,-35.54492840676419],[-58.00466137854579,-35.54311833504857],[-58.00247815520773,-35.54286761951594],[-58.00029846733272,-35.54261719358887],[-58.000031950272465,-35.54442520051215],[-57.99975864816339,-35.54627941127986],[-58.00116815843132,-35.54640552049701]]]}},{"type":"Feature","properties":{"CCA":"027020B0034000","ARA1":133260.36,"SAG":"ARBA","PARTIDO":"027","CIRC":2,"SECC":"B","CHACRA":34,"CHACRA_L":null,"NOMENCLA":"Circ. II - Secc. B - Ch. 34"},"geometry":{"type":"Polygon","coordinates":[[[-57.9905167989263,-35.54167316768527],[-57.99015709802864,-35.54348653472113],[-57.99244008715143,-35.54192806069813],[-57.9905167989263,-35.54167316768527]],[[-57.994072425083374,-35.541842323926346],[-57.994017772529695,-35.54186313151512],[-57.99222686692384,-35.54309506650846],[-57.99040764787395,-35.544315057503304],[-57.9902624546244,-35.544420501040236],[-57.990175248675314,-35.54464549876396],[-57.99101707123078,-35.544892471574876],[-57.99251361954489,-35.5453247111089],[-57.994210888132095,-35.54582641474418],[-57.99456299717771,-35.545930495581665],[-57.99472994519035,-35.545039991098655],[-57.99529954047435,-35.54200178050396],[-57.994072425083374,-35.541842323926346]]]}},{"type":"Feature","properties":{"CCA":"027020C0058000","ARA1":74920.53,"SAG":"ARBA","PARTIDO":"027","CIRC":2,"SECC":"C","CHACRA":58,"CHACRA_L":null,"NOMENCLA":"Circ. II - Secc. C - Ch. 58"},"geometry":{"type":"Polygon","coordinates":[[[-57.9829177012555,-35.540891588370215],[-57.98158254890499,-35.5419123764403],[-57.98139534399119,-35.54282261660905],[-57.98483281935519,-35.543647524874046],[-57.98522781735049,-35.54110242507796],[-57.9829177012555,-35.540891588370215]]]}},{"type":"Feature","properties":{"CCA":"027020C0054000","ARA1":34981.42,"SAG":"ARBA","PARTIDO":"027","CIRC":2,"SECC":"C","CHACRA":54,"CHACRA_L":null,"NOMENCLA":"Circ. II - Secc. C - Ch. 54"},"geometry":{"type":"Polygon","coordinates":[[[-57.991334238110596,-35.53478077272773],[-57.98832010355455,-35.53702648251814],[-57.99087822605648,-35.537425536999876],[-57.991334238110596,-35.53478077272773]]]}},{"type":"Feature","properties":{"CCA":"027020C0056000","ARA1":19816.14,"SAG":"ARBA","PARTIDO":"027","CIRC":2,"SECC":"C","CHACRA":56,"CHACRA_L":null,"NOMENCLA":"Circ. II - Secc. C - Ch. 56"},"geometry":{"type":"Polygon","coordinates":[[[-57.98560994361824,-35.53888565623495],[-57.9832836932447,-35.54062034708408],[-57.98527494054267,-35.54082737967014],[-57.98560994361824,-35.53888565623495]]]}},{"type":"Feature","properties":{"CCA":"027020C0055000","ARA1":155609.25,"SAG":"ARBA","PARTIDO":"027","CIRC":2,"SECC":"C","CHACRA":55,"CHACRA_L":null,"NOMENCLA":"Circ. II - Secc. C - Ch. 55"},"geometry":{"type":"Polygon","coordinates":[[[-57.98811571551156,-35.537229158185575],[-57.98605063826529,-35.538756589745596],[-57.98591626319476,-35.539589053040466],[-57.98569873867126,-35.5408321190425],[-57.990077520168555,-35.54132549063392],[-57.99023993633859,-35.54051646835935],[-57.990798712697654,-35.53763867883694],[-57.98811571551156,-35.537229158185575]]]}},{"type":"Feature","properties":{"CCA":"027020C0061000","ARA1":185179.45,"SAG":"ARBA","PARTIDO":"027","CIRC":2,"SECC":"C","CHACRA":61,"CHACRA_L":null,"NOMENCLA":"Circ. II - Secc. C - Ch. 61"},"geometry":{"type":"Polygon","coordinates":[[[-57.98114722657019,-35.542191192069026],[-57.97495147635269,-35.54663512144334],[-57.97482418301064,-35.54757969725036],[-57.98022517343803,-35.547958047236],[-57.98114722657019,-35.542191192069026]]]}},{"type":"Feature","properties":{"CCA":"027020F0140000","ARA1":24722.87,"SAG":"ARBA","PARTIDO":"027","CIRC":2,"SECC":"F","CHACRA":140,"CHACRA_L":null,"NOMENCLA":"Circ. II - Secc. F - Ch. 140"},"geometry":{"type":"Polygon","coordinates":[[[-57.928062298606434,-35.55460505317037],[-57.93040836754586,-35.556724038983205],[-57.93069374907697,-35.55488851497153],[-57.928062298606434,-35.55460505317037]]]}},{"type":"Feature","properties":{"CCA":"027020F0132000","ARA1":59968.84,"SAG":"ARBA","PARTIDO":"027","CIRC":2,"SECC":"F","CHACRA":132,"CHACRA_L":null,"NOMENCLA":"Circ. II - Secc. F - Ch. 132"},"geometry":{"type":"Polygon","coordinates":[[[-57.934259868514125,-35.54884728418835],[-57.93156665226518,-35.55076452427131],[-57.936158783683,-35.55140643697574],[-57.936263746345226,-35.550821881775384],[-57.934259868514125,-35.54884728418835]]]}},{"type":"Feature","properties":{"CCA":"027020F0133000","ARA1":124586.39,"SAG":"ARBA","PARTIDO":"027","CIRC":2,"SECC":"F","CHACRA":133,"CHACRA_L":null,"NOMENCLA":"Circ. II - Secc. F - Ch. 133"},"geometry":{"type":"Polygon","coordinates":[[[-57.936471974547054,-35.55099629743244],[-57.93583232808702,-35.55523173507786],[-57.94035729243364,-35.55572176604042],[-57.940523665432714,-35.554567853524155],[-57.936471974547054,-35.55099629743244]]]}},{"type":"Feature","properties":{"CCA":"027020F0134000","ARA1":157252.74,"SAG":"ARBA","PARTIDO":"027","CIRC":2,"SECC":"F","CHACRA":134,"CHACRA_L":null,"NOMENCLA":"Circ. II - Secc. F - Ch. 134"},"geometry":{"type":"Polygon","coordinates":[[[-57.931594652277504,-35.55127115793648],[-57.931040643743735,-35.55472172783414],[-57.93553454729067,-35.55520365642833],[-57.93603296712905,-35.55177644102767],[-57.931594652277504,-35.55127115793648]]]}},{"type":"Feature","properties":{"CCA":"027020F0135000","ARA1":70837.22,"SAG":"ARBA","PARTIDO":"027","CIRC":2,"SECC":"F","CHACRA":135,"CHACRA_L":null,"NOMENCLA":"Circ. II - Secc. F - Ch. 135"},"geometry":{"type":"Polygon","coordinates":[[[-57.93131253741546,-35.550960209378545],[-57.9282140680455,-35.55315129073715],[-57.92730662774407,-35.553804221127876],[-57.92777207838592,-35.554240701658294],[-57.93067547242823,-35.55464724469367],[-57.93131253741546,-35.550960209378545]]]}},{"type":"Feature","properties":{"CCA":"027020F0136000","ARA1":10289.72,"SAG":"ARBA","PARTIDO":"027","CIRC":2,"SECC":"F","CHACRA":136,"CHACRA_L":null,"NOMENCLA":"Circ. II - Secc. F - Ch. 136"},"geometry":{"type":"Polygon","coordinates":[[[-57.94564178693192,-35.55906172507253],[-57.94544057918481,-35.56023911077101],[-57.94714554992659,-35.56042162403544],[-57.94564178693192,-35.55906172507253]]]}},{"type":"Feature","properties":{"CCA":"027020F0137000","ARA1":159789.25,"SAG":"ARBA","PARTIDO":"027","CIRC":2,"SECC":"F","CHACRA":137,"CHACRA_L":null,"NOMENCLA":"Circ. II - Secc. F - Ch. 137"},"geometry":{"type":"Polygon","coordinates":[[[-57.94080129371534,-35.55487933525088],[-57.940092870029964,-35.55969366568141],[-57.94514399659483,-35.56022369153191],[-57.94535214841377,-35.558856560712606],[-57.94080129371534,-35.55487933525088]]]}},{"type":"Feature","properties":{"CCA":"027020F0138000","ARA1":172945.17,"SAG":"ARBA","PARTIDO":"027","CIRC":2,"SECC":"F","CHACRA":138,"CHACRA_L":null,"NOMENCLA":"Circ. II - Secc. F - Ch. 138"},"geometry":{"type":"Polygon","coordinates":[[[-57.93577781311117,-35.55541823220833],[-57.93519589161594,-35.55911551777165],[-57.93979496605885,-35.55961369126351],[-57.940344205270705,-35.55594015177407],[-57.93577781311117,-35.55541823220833]]]}},{"type":"Feature","properties":{"CCA":"027020F0139000","ARA1":157534.14,"SAG":"ARBA","PARTIDO":"027","CIRC":2,"SECC":"F","CHACRA":139,"CHACRA_L":null,"NOMENCLA":"Circ. II - Secc. F - Ch. 139"},"geometry":{"type":"Polygon","coordinates":[[[-57.93089352014689,-35.55488996228626],[-57.93054787987261,-35.55695919092177],[-57.93269235739518,-35.558830381418474],[-57.935003848283685,-35.55908753700757],[-57.935593161423824,-35.55541624095422],[-57.93089352014689,-35.55488996228626]]]}},{"type":"Feature","properties":{"CCA":"027020F0144000","ARA1":217184.18,"SAG":"ARBA","PARTIDO":"027","CIRC":2,"SECC":"F","CHACRA":144,"CHACRA_L":null,"NOMENCLA":"Circ. II - Secc. F - Ch. 144"},"geometry":{"type":"Polygon","coordinates":[[[-57.94000717276797,-35.55990954858747],[-57.939250843057955,-35.56455346141168],[-57.94382419469115,-35.56503140201593],[-57.944569375668976,-35.56038645536524],[-57.94000717276797,-35.55990954858747]]]}},{"type":"Feature","properties":{"CCA":"027020F0145000","ARA1":147275.64,"SAG":"ARBA","PARTIDO":"027","CIRC":2,"SECC":"F","CHACRA":145,"CHACRA_L":null,"NOMENCLA":"Circ. II - Secc. F - Ch. 145"},"geometry":{"type":"Polygon","coordinates":[[[-57.93516408959883,-35.55934926125245],[-57.934895906941875,-35.560921696741026],[-57.93895965413092,-35.56460245811632],[-57.93974466885685,-35.55992425497973],[-57.93516408959883,-35.55934926125245]]]}},{"type":"Feature","properties":{"CCA":"027020F0146000","ARA1":15889.02,"SAG":"ARBA","PARTIDO":"027","CIRC":2,"SECC":"F","CHACRA":146,"CHACRA_L":null,"NOMENCLA":"Circ. II - Secc. F - Ch. 146"},"geometry":{"type":"Polygon","coordinates":[[[-57.93288233658605,-35.55907603828526],[-57.93474444461555,-35.56079907357108],[-57.934973936485136,-35.559316356718476],[-57.93288233658605,-35.55907603828526]]]}},{"type":"Feature","properties":{"CCA":"027020F0151000","ARA1":73056.08,"SAG":"ARBA","PARTIDO":"027","CIRC":2,"SECC":"F","CHACRA":151,"CHACRA_L":null,"NOMENCLA":"Circ. II - Secc. F - Ch. 151"},"geometry":{"type":"Polygon","coordinates":[[[-57.93926099426837,-35.56490632907656],[-57.94293846752852,-35.56823766249664],[-57.94324319349126,-35.5685137373177],[-57.943394653460345,-35.5676021468564],[-57.94376951033317,-35.56534576728749],[-57.93926099426837,-35.56490632907656]]]}},{"type":"Feature","properties":{"CCA":"027060I0038000","ARA1":45669.72,"SAG":"ARBA","PARTIDO":"027","CIRC":6,"SECC":"I","CHACRA":38,"CHACRA_L":null,"NOMENCLA":"Circ. VI - Secc. I - Ch. 38"},"geometry":{"type":"Polygon","coordinates":[[[-58.05305609673243,-35.49721996869253],[-58.05170052386099,-35.49823177473401],[-58.05375909729667,-35.50003899123369],[-58.055111296615486,-35.49901196884186],[-58.05305609673243,-35.49721996869253]]]}},{"type":"Feature","properties":{"CCA":"027060I0039000","ARA1":40051.88,"SAG":"ARBA","PARTIDO":"027","CIRC":6,"SECC":"I","CHACRA":39,"CHACRA_L":null,"NOMENCLA":"Circ. VI - Secc. I - Ch. 39"},"geometry":{"type":"Polygon","coordinates":[[[-58.05114250657537,-35.49552231894209],[-58.05047135507363,-35.49602755462647],[-58.049796043447365,-35.4965358731197],[-58.050009421656284,-35.4967254080351],[-58.050245025738135,-35.496934586226836],[-58.0504668235767,-35.49713146556443],[-58.05068862031802,-35.497328434601044],[-58.050919805336505,-35.49753366519648],[-58.05115055963045,-35.49773852794571],[-58.05137678449766,-35.49793935207981],[-58.05158801495584,-35.49812686707375],[-58.052264049810056,-35.49762521878815],[-58.05294826727361,-35.49711748077731],[-58.05274197683818,-35.49693527449012],[-58.05250267315555,-35.49672387861174],[-58.052282574902975,-35.49652946346912],[-58.052052658629265,-35.49632641867183],[-58.051816811514314,-35.49611805104971],[-58.05159671873492,-35.49592354466331],[-58.05136637619327,-35.49572004113745],[-58.05114250657537,-35.49552231894209]]]}},{"type":"Feature","properties":{"CCA":"027060I0047000","ARA1":35053.06,"SAG":"ARBA","PARTIDO":"027","CIRC":6,"SECC":"I","CHACRA":47,"CHACRA_L":null,"NOMENCLA":"Circ. VI - Secc. I - Ch. 47"},"geometry":{"type":"Polygon","coordinates":[[[-58.0565771426697,-35.50276099404596],[-58.05533452369137,-35.503665621803215],[-58.05726530611943,-35.50539754731392],[-58.05809344146714,-35.504122887786636],[-58.0565771426697,-35.50276099404596]]]}},{"type":"Feature","properties":{"CCA":"027060I0048000","ARA1":38120.9,"SAG":"ARBA","PARTIDO":"027","CIRC":6,"SECC":"I","CHACRA":48,"CHACRA_L":null,"NOMENCLA":"Circ. VI - Secc. I - Ch. 48"},"geometry":{"type":"Polygon","coordinates":[[[-58.054694085316434,-35.50110948844822],[-58.05336837786454,-35.502091875910374],[-58.055111986009074,-35.50365356260153],[-58.056437309569134,-35.50266448163673],[-58.054694085316434,-35.50110948844822]]]}},{"type":"Feature","properties":{"CCA":"027060I0001000","ARA1":56510.72,"SAG":"ARBA","PARTIDO":"027","CIRC":6,"SECC":"I","CHACRA":1,"CHACRA_L":null,"NOMENCLA":"Circ. VI - Secc. I - Ch. 1"},"geometry":{"type":"Polygon","coordinates":[[[-58.05942324102267,-35.49600790729903],[-58.05877389508817,-35.49648812864785],[-58.05812505750343,-35.496969796349205],[-58.058362949101664,-35.497185574145284],[-58.0586112386701,-35.49740890819415],[-58.05885763359958,-35.49762860669564],[-58.05910197817208,-35.49784655954788],[-58.05935823920422,-35.4980730842508],[-58.06080893244614,-35.49937089883065],[-58.061411113701354,-35.49895082585419],[-58.0618733457988,-35.49818201270698],[-58.060173534382066,-35.49666780584717],[-58.05992745383466,-35.49644874585032],[-58.05967588882087,-35.4962286959965],[-58.05942324102267,-35.49600790729903]]]}},{"type":"Feature","properties":{"CCA":"027060I0002000","ARA1":43222.06,"SAG":"ARBA","PARTIDO":"027","CIRC":6,"SECC":"I","CHACRA":2,"CHACRA_L":null,"NOMENCLA":"Circ. VI - Secc. I - Ch. 2"},"geometry":{"type":"Polygon","coordinates":[[[-58.05723648225017,-35.49410022699144],[-58.05658333833704,-35.494582718493426],[-58.055951393098404,-35.49504941758206],[-58.05619535525984,-35.49526430612978],[-58.056439422354885,-35.49547946622968],[-58.05668133552218,-35.49569260863893],[-58.05693263544953,-35.495914102161194],[-58.05717660065732,-35.49612907893957],[-58.0574174379105,-35.4963413014416],[-58.057675216368956,-35.49656848486252],[-58.058012414137636,-35.496865613312345],[-58.05847385236791,-35.496524301067545],[-58.05892653466398,-35.496189514498894],[-58.05929720559105,-35.49591531490661],[-58.05895547152657,-35.49561433221099],[-58.05869801402692,-35.49538751711043],[-58.058464509963635,-35.495181903377116],[-58.05822075773438,-35.49496720293851],[-58.05796114478321,-35.494738549327096],[-58.057731961421595,-35.49453669845255],[-58.05747515648,-35.49431052211629],[-58.05723648225017,-35.49410022699144]]]}},{"type":"Feature","properties":{"CCA":"027060I0003000","ARA1":38703.11,"SAG":"ARBA","PARTIDO":"027","CIRC":6,"SECC":"I","CHACRA":3,"CHACRA_L":null,"NOMENCLA":"Circ. VI - Secc. I - Ch. 3"},"geometry":{"type":"Polygon","coordinates":[[[-58.05530652596523,-35.49236308910145],[-58.054644458621986,-35.49283650510726],[-58.05399624075715,-35.493306446092156],[-58.05422500394188,-35.493516046926054],[-58.054478983839296,-35.493735516037695],[-58.054703225720935,-35.49395450502244],[-58.0549511480778,-35.49417396558517],[-58.0552005133299,-35.49440218996634],[-58.05544726745465,-35.4946245143454],[-58.055798738132715,-35.49493683783495],[-58.05625955262221,-35.494607599160794],[-58.05672065413838,-35.494266288005306],[-58.05710627792485,-35.49398422570576],[-58.05675801105125,-35.493671507018576],[-58.05650874650486,-35.49344815357879],[-58.05625458974916,-35.49322210749613],[-58.056010039764615,-35.49300441609209],[-58.05577548167201,-35.492788236971435],[-58.05552944495966,-35.49256376210911],[-58.05530652596523,-35.49236308910145]]]}},{"type":"Feature","properties":{"CCA":"027060I0013000","ARA1":29853.64,"SAG":"ARBA","PARTIDO":"027","CIRC":6,"SECC":"I","CHACRA":13,"CHACRA_L":null,"NOMENCLA":"Circ. VI - Secc. I - Ch. 13"},"geometry":{"type":"Polygon","coordinates":[[[-58.061465421847,-35.49905704196567],[-58.058162375489374,-35.501562150979794],[-58.059238625770995,-35.50254026865858],[-58.061465421847,-35.49905704196567]]]}},{"type":"Feature","properties":{"CCA":"027060I0014000","ARA1":57205.68,"SAG":"ARBA","PARTIDO":"027","CIRC":6,"SECC":"I","CHACRA":14,"CHACRA_L":null,"NOMENCLA":"Circ. VI - Secc. I - Ch. 14"},"geometry":{"type":"Polygon","coordinates":[[[-58.058071556154545,-35.49708662375564],[-58.05676880511729,-35.49805374069395],[-58.05941773462779,-35.50042304114837],[-58.06073991196895,-35.49945954257318],[-58.058071556154545,-35.49708662375564]]]}},{"type":"Feature","properties":{"CCA":"027060I0015000","ARA1":43846.01,"SAG":"ARBA","PARTIDO":"027","CIRC":6,"SECC":"I","CHACRA":15,"CHACRA_L":null,"NOMENCLA":"Circ. VI - Secc. I - Ch. 15"},"geometry":{"type":"Polygon","coordinates":[[[-58.05584169385477,-35.495125057287495],[-58.05519579011325,-35.4956081983189],[-58.05454976633718,-35.49609142390952],[-58.05478410901813,-35.49629850043468],[-58.055033340751784,-35.49651879301127],[-58.05527890476232,-35.49673587196372],[-58.055523284498186,-35.49695184997041],[-58.05576874533075,-35.49716874606082],[-58.056018522326816,-35.49738949601434],[-58.05626981023999,-35.49761162152189],[-58.05661432349325,-35.497916080831004],[-58.05707535036476,-35.49757404664293],[-58.05752942035698,-35.49723703506495],[-58.05790786384217,-35.49695620657127],[-58.0575616434602,-35.49664938045128],[-58.05731230922066,-35.496428460546284],[-58.05706125084182,-35.49620598042915],[-58.056822062839714,-35.49599396403024],[-58.056575971989695,-35.495775798314014],[-58.05632826063063,-35.495556344400185],[-58.056089940288174,-35.4953450614812],[-58.05584169385477,-35.495125057287495]]]}},{"type":"Feature","properties":{"CCA":"027060I0016000","ARA1":38220.62,"SAG":"ARBA","PARTIDO":"027","CIRC":6,"SECC":"I","CHACRA":16,"CHACRA_L":null,"NOMENCLA":"Circ. VI - Secc. I - Ch. 16"},"geometry":{"type":"Polygon","coordinates":[[[-58.05391176721253,-35.49341439136857],[-58.05327401225429,-35.49387503514181],[-58.05261763306103,-35.494349162124664],[-58.052846998282476,-35.49455661252036],[-58.053091787410914,-35.49477791864999],[-58.053339164893934,-35.49500160903125],[-58.0535799660202,-35.4952193353918],[-58.053822280086465,-35.495438347290744],[-58.054069013754926,-35.49566148514375],[-58.05441614832783,-35.49597536469959],[-58.05486879079744,-35.49564735146586],[-58.0553417311754,-35.49530452458284],[-58.055715188717926,-35.49503389547347],[-58.055365413604285,-35.494719796801526],[-58.055115191205594,-35.494495073371034],[-58.054881254778905,-35.494285030296304],[-58.05463567142594,-35.49406452594851],[-58.05438707050537,-35.493841269022205],[-58.05414914721417,-35.493627645813184],[-58.05391176721253,-35.49341439136857]]]}},{"type":"Feature","properties":{"CCA":"027060I0025000","ARA1":53864.8,"SAG":"ARBA","PARTIDO":"027","CIRC":6,"SECC":"I","CHACRA":25,"CHACRA_L":null,"NOMENCLA":"Circ. VI - Secc. I - Ch. 25"},"geometry":{"type":"Polygon","coordinates":[[[-58.05660093195471,-35.498124298483475],[-58.05535685534985,-35.49906504038019],[-58.056414719342484,-35.4999985501182],[-58.057974478035185,-35.50137484271238],[-58.05922725765373,-35.5004390803793],[-58.057667673240964,-35.499064518735146],[-58.05660093195471,-35.498124298483475]]]}},{"type":"Feature","properties":{"CCA":"027060I0026000","ARA1":43353.83,"SAG":"ARBA","PARTIDO":"027","CIRC":6,"SECC":"I","CHACRA":26,"CHACRA_L":null,"NOMENCLA":"Circ. VI - Secc. I - Ch. 26"},"geometry":{"type":"Polygon","coordinates":[[[-58.054434756571226,-35.49619067657257],[-58.05314413590543,-35.49713343869158],[-58.055187578535765,-35.49896516821238],[-58.056485941716275,-35.498016922241696],[-58.054434756571226,-35.49619067657257]]]}},{"type":"Feature","properties":{"CCA":"027060I0027000","ARA1":36958.01,"SAG":"ARBA","PARTIDO":"027","CIRC":6,"SECC":"I","CHACRA":27,"CHACRA_L":null,"NOMENCLA":"Circ. VI - Secc. I - Ch. 27"},"geometry":{"type":"Polygon","coordinates":[[[-58.052503358741085,-35.494495554396444],[-58.05188399544464,-35.49496504824879],[-58.051269338204825,-35.49543101025211],[-58.05152818217685,-35.49565885455068],[-58.05176749758939,-35.49586953158685],[-58.05201199261698,-35.496084797506406],[-58.05225357582671,-35.49629749273426],[-58.05250465553375,-35.496518541186546],[-58.052749264635516,-35.49673380749301],[-58.05307781924106,-35.497023060141984],[-58.054318928358676,-35.49607715705986],[-58.05399915074786,-35.495798592677865],[-58.053751793725105,-35.49558301418952],[-58.053501412571826,-35.49536495332914],[-58.05325599738018,-35.495151207465575],[-58.05301015376844,-35.49493700363091],[-58.05277186518318,-35.49472940947533],[-58.052503358741085,-35.494495554396444]]]}},{"type":"Feature","properties":{"CCA":"027060I0036000","ARA1":23239.91,"SAG":"ARBA","PARTIDO":"027","CIRC":6,"SECC":"I","CHACRA":36,"CHACRA_L":null,"NOMENCLA":"Circ. VI - Secc. I - Ch. 36"},"geometry":{"type":"Polygon","coordinates":[[[-58.05773717069,-35.5018710631499],[-58.05667849192388,-35.50267557718384],[-58.0581916096172,-35.503991099936286],[-58.05889645776436,-35.50286971530509],[-58.05773717069,-35.5018710631499]]]}},{"type":"Feature","properties":{"CCA":"027060I0037000","ARA1":58272.08,"SAG":"ARBA","PARTIDO":"027","CIRC":6,"SECC":"I","CHACRA":37,"CHACRA_L":null,"NOMENCLA":"Circ. VI - Secc. I - Ch. 37"},"geometry":{"type":"Polygon","coordinates":[[[-58.05522469268295,-35.499148878011596],[-58.05387664050533,-35.50016839899968],[-58.05650954918756,-35.50248830175148],[-58.057841194185386,-35.501468577640985],[-58.05522469268295,-35.499148878011596]]]}},{"type":"Feature","properties":{"CCA":"027020E0120000","ARA1":129000.29,"SAG":"ARBA","PARTIDO":"027","CIRC":2,"SECC":"E","CHACRA":120,"CHACRA_L":null,"NOMENCLA":"Circ. II - Secc. E - Ch. 120"},"geometry":{"type":"Polygon","coordinates":[[[-57.961553374634,-35.578377277502135],[-57.964607165593144,-35.578792951042864],[-57.964869917049214,-35.57716682709997],[-57.965086354878345,-35.5758274648486],[-57.96358789085312,-35.5756378769978],[-57.96207776574027,-35.5754430271519],[-57.960883992084504,-35.57529568440397],[-57.960291569813826,-35.578205528634],[-57.961553374634,-35.578377277502135]]]}},{"type":"Feature","properties":{"CCA":"027020D0099000","ARA1":94611.97,"SAG":"ARBA","PARTIDO":"027","CIRC":2,"SECC":"D","CHACRA":99,"CHACRA_L":null,"NOMENCLA":"Circ. II - Secc. D - Ch. 99"},"geometry":{"type":"Polygon","coordinates":[[[-57.984186001937765,-35.58639562200936],[-57.984151012663986,-35.586550388706925],[-57.98408031970219,-35.5868663981238],[-57.98399397531734,-35.58724783680966],[-57.98396959060052,-35.58736241095258],[-57.9839576381597,-35.58741672835878],[-57.98378905341864,-35.588174177244035],[-57.98411001903681,-35.58819396597635],[-57.9845652619242,-35.58822167720403],[-57.98502171818243,-35.588249407007616],[-57.985105251414055,-35.58763227915628],[-57.98527063940096,-35.587640091212165],[-57.98518655346308,-35.588261715526365],[-57.985626343655426,-35.58828979511004],[-57.98586139204709,-35.588304448076364],[-57.98608106556998,-35.58832073592138],[-57.986362997175284,-35.588335450705536],[-57.98639969864023,-35.58831038234824],[-57.986429906830665,-35.58808650969761],[-57.986450402347685,-35.587893653269504],[-57.9864930591701,-35.58749427127822],[-57.98653560520307,-35.587094887390265],[-57.98679177661329,-35.585882663186844],[-57.98680027224986,-35.58583414493844],[-57.98690401555947,-35.58523744792216],[-57.98621529759723,-35.58515087566083],[-57.9858062225887,-35.585099522543885],[-57.9853974789673,-35.5850481735854],[-57.98498939752947,-35.58499683432112],[-57.98458021402237,-35.584945475245824],[-57.984143872290446,-35.5848905966076],[-57.98371027883163,-35.58483612283425],[-57.9832743772408,-35.58478133853855],[-57.98283869685054,-35.5847265563763],[-57.98219352715143,-35.58464573655317],[-57.982068391234655,-35.58528910887471],[-57.98289071429033,-35.58539244962371],[-57.983149463410996,-35.585424986158905],[-57.98358593550983,-35.585479149724634],[-57.984022063921685,-35.5855338466342],[-57.984366852804435,-35.58557538955478],[-57.984343560615656,-35.58569043265294],[-57.984186001937765,-35.58639562200936]]]}},{"type":"Feature","properties":{"CCA":"027020B0033000","ARA1":163719.28,"SAG":"ARBA","PARTIDO":"027","CIRC":2,"SECC":"B","CHACRA":33,"CHACRA_L":null,"NOMENCLA":"Circ. II - Secc. B - Ch. 33"},"geometry":{"type":"Polygon","coordinates":[[[-57.99972757325952,-35.544996057575084],[-57.99981551602786,-35.54438970962456],[-58.00006418901952,-35.54258564247942],[-57.99784092061233,-35.542310479390856],[-57.99575571357479,-35.542052709883464],[-57.995464106653,-35.54385920672452],[-57.995344716798805,-35.54448737587885],[-57.995226588444304,-35.54510907773096],[-57.995226478232446,-35.545109075898],[-57.99511050404924,-35.54571945924437],[-57.996690042258464,-35.54590206526143],[-57.99733705320086,-35.54597688626706],[-57.99798417796576,-35.546051615592276],[-57.999545197213884,-35.54623459766966],[-57.99972757325952,-35.544996057575084]]]}},{"type":"Feature","properties":{"CCA":"027020E0101000","ARA1":5275.44,"SAG":"ARBA","PARTIDO":"027","CIRC":2,"SECC":"E","CHACRA":101,"CHACRA_L":null,"NOMENCLA":"Circ. II - Secc. E - Ch. 101"},"geometry":{"type":"Polygon","coordinates":[[[-57.98559156510727,-35.56695601811249],[-57.98427454031101,-35.56681414728646],[-57.984204758210055,-35.56720911104938],[-57.98552754720678,-35.56734125691279],[-57.98559156510727,-35.56695601811249]]]}},{"type":"Feature","properties":{"CCA":"027020D0099000","ARA1":195.03,"SAG":"ARBA","PARTIDO":"027","CIRC":2,"SECC":"D","CHACRA":99,"CHACRA_L":null,"NOMENCLA":"Circ. II - Secc. D - Ch. 99"},"geometry":{"type":"Polygon","coordinates":[[[-57.98172722935743,-35.588034044605465],[-57.9814454406952,-35.58788631700403],[-57.98142444783897,-35.58798427678436],[-57.98145058916674,-35.58801517240959],[-57.98172722935743,-35.588034044605465]]]}},{"type":"Feature","properties":{"CCA":"027020E0112000","ARA1":69052.16,"SAG":"ARBA","PARTIDO":"027","CIRC":2,"SECC":"E","CHACRA":112,"CHACRA_L":null,"NOMENCLA":"Circ. II - Secc. E - Ch. 112"},"geometry":{"type":"Polygon","coordinates":[[[-57.97504240262709,-35.57301889895028],[-57.97478848902945,-35.5743861278249],[-57.97462631530976,-35.57525919494211],[-57.97436433623204,-35.576674496270115],[-57.976165257568105,-35.576896154627406],[-57.976912865724174,-35.57325712261249],[-57.97630290100537,-35.57317938682722],[-57.97624122128945,-35.57317159259368],[-57.97589424114531,-35.57312737720142],[-57.97504240262709,-35.57301889895028]]]}},{"type":"Feature","properties":{"CCA":"027020E0116000","ARA1":121143.69,"SAG":"ARBA","PARTIDO":"027","CIRC":2,"SECC":"E","CHACRA":116,"CHACRA_L":null,"NOMENCLA":"Circ. II - Secc. E - Ch. 116"},"geometry":{"type":"Polygon","coordinates":[[[-57.97963114091455,-35.57758491790768],[-57.97911838269885,-35.577829352195835],[-57.97904579783223,-35.57819389720501],[-57.97886829646842,-35.57900678898509],[-57.97877475288511,-35.57899386580905],[-57.97876057092467,-35.57906220271336],[-57.978381735210995,-35.58053412504867],[-57.98056436772128,-35.580845475998984],[-57.98113357805876,-35.57939881347421],[-57.981473738638705,-35.579447856090184],[-57.98090193181887,-35.580901505489294],[-57.98090158746861,-35.58090204038755],[-57.98264420127852,-35.581144072896336],[-57.98295142025377,-35.57965715014636],[-57.98296603306038,-35.57958909024537],[-57.98329018257194,-35.578029098727505],[-57.98208957328888,-35.57788275184447],[-57.98149990032335,-35.57938116130497],[-57.98115984800049,-35.579332210692066],[-57.98174694973496,-35.5778397973866],[-57.98022401377869,-35.57765514194629],[-57.97963114091455,-35.57758491790768]]]}},{"type":"Feature","properties":{"CCA":"027020B0042000","ARA1":258864.92,"SAG":"ARBA","PARTIDO":"027","CIRC":2,"SECC":"B","CHACRA":42,"CHACRA_L":null,"NOMENCLA":"Circ. II - Secc. B - Ch. 42"},"geometry":{"type":"Polygon","coordinates":[[[-58.000943374270136,-35.554747445094236],[-58.00065105315851,-35.554751607554955],[-58.000524555213076,-35.55557349453516],[-58.00022814476445,-35.557499589470275],[-57.999910759166106,-35.5601402839887],[-57.9997227396835,-35.56179044938106],[-58.0020470166302,-35.562207744954584],[-58.004005270666454,-35.562559280282166],[-58.004141937750234,-35.56117093345956],[-58.00421550935627,-35.560423319987216],[-58.00444594603252,-35.558081516258234],[-58.00446305678357,-35.55790734239489],[-58.00125898887719,-35.555030855659176],[-58.000943374270136,-35.554747445094236]]]}},{"type":"Feature","properties":{"CCA":"027020B0043000","ARA1":97136.98,"SAG":"ARBA","PARTIDO":"027","CIRC":2,"SECC":"B","CHACRA":43,"CHACRA_L":null,"NOMENCLA":"Circ. II - Secc. B - Ch. 43"},"geometry":{"type":"Polygon","coordinates":[[[-57.99793855904271,-35.554523203230254],[-57.99733313367853,-35.5576890550272],[-57.99726735984563,-35.558032280221546],[-57.99723894064813,-35.55818166430611],[-57.99980797072117,-35.558472405847155],[-58.000327324068856,-35.55581577796585],[-58.0003994589218,-35.55544670398821],[-58.000525412115785,-35.55480214881273],[-57.99793855904271,-35.554523203230254]]]}},{"type":"Feature","properties":{"CCA":"027020B0045000","ARA1":175248.98,"SAG":"ARBA","PARTIDO":"027","CIRC":2,"SECC":"B","CHACRA":45,"CHACRA_L":null,"NOMENCLA":"Circ. II - Secc. B - Ch. 45"},"geometry":{"type":"Polygon","coordinates":[[[-57.988263102643174,-35.55338068874183],[-57.98811694323042,-35.55428279274796],[-57.98796923443091,-35.55519379162008],[-57.98765302690222,-35.55714556273901],[-57.992224070200535,-35.55762414728668],[-57.99253270945775,-35.55571062419752],[-57.992825157396176,-35.55389739492927],[-57.989376972672275,-35.55350686876354],[-57.988263102643174,-35.55338068874183]]]}},{"type":"Feature","properties":{"CCA":"027020B0046000","ARA1":78777.54,"SAG":"ARBA","PARTIDO":"027","CIRC":2,"SECC":"B","CHACRA":46,"CHACRA_L":null,"NOMENCLA":"Circ. II - Secc. B - Ch. 46"},"geometry":{"type":"Polygon","coordinates":[[[-57.997058806726564,-35.55838322516086],[-57.99660202026299,-35.5613963678392],[-57.99923846241242,-35.561667698051835],[-57.999627424632756,-35.55877506954269],[-57.997058806726564,-35.55838322516086]]]}},{"type":"Feature","properties":{"CCA":"027020A0006000","ARA1":10015.06,"SAG":"ARBA","PARTIDO":"027","CIRC":2,"SECC":"A","CHACRA":6,"CHACRA_L":null,"NOMENCLA":"Circ. II - Secc. A - Ch. 6"},"geometry":{"type":"Polygon","coordinates":[[[-58.01922502385811,-35.56478195637714],[-58.01887210018587,-35.56530646631792],[-58.01884718864228,-35.56534624689476],[-58.01893335090155,-35.56536298240526],[-58.01910655524825,-35.565396557817],[-58.01922502385811,-35.56478195637714]],[[-58.0186768342239,-35.567834691347215],[-58.01839878214045,-35.567642685952336],[-58.01834607761648,-35.56760631505283],[-58.018234707354644,-35.56752932998996],[-58.01812886655362,-35.56745622047856],[-58.01800383011209,-35.56736990911572],[-58.01772274549006,-35.56717577973918],[-58.01714547135544,-35.56807623654831],[-58.018606619641375,-35.568227147423],[-58.0186768342239,-35.567834691347215]]]}},{"type":"Feature","properties":{"CCA":"027020E0118000","ARA1":127657.06,"SAG":"ARBA","PARTIDO":"027","CIRC":2,"SECC":"E","CHACRA":118,"CHACRA_L":null,"NOMENCLA":"Circ. II - Secc. E - Ch. 118"},"geometry":{"type":"Polygon","coordinates":[[[-57.96986669461001,-35.57630891466156],[-57.96976933542719,-35.57701969427848],[-57.969677378171454,-35.57769118610431],[-57.96958530884959,-35.578362675881074],[-57.96946610647626,-35.57933107543404],[-57.971720957424694,-35.57962334750217],[-57.97349668417406,-35.57985345344281],[-57.97407885728682,-35.57685487565635],[-57.97211783387897,-35.57660075509343],[-57.96986669461001,-35.57630891466156]]]}},{"type":"Feature","properties":{"CCA":"027020E0128000","ARA1":152058.56,"SAG":"ARBA","PARTIDO":"027","CIRC":2,"SECC":"E","CHACRA":128,"CHACRA_L":null,"NOMENCLA":"Circ. II - Secc. E - Ch. 128"},"geometry":{"type":"Polygon","coordinates":[[[-57.968895876628835,-35.58291464985391],[-57.96878389143952,-35.58331285574487],[-57.96857906870644,-35.5840411054285],[-57.968583727427664,-35.5867381211871],[-57.968751500255586,-35.58688278483632],[-57.97207359131269,-35.587277295902545],[-57.97235884895917,-35.585755883243436],[-57.97279639249101,-35.58341359501532],[-57.971347177368976,-35.58322871469516],[-57.968895876628835,-35.58291464985391]]]}},{"type":"Feature","properties":{"CCA":"027020E0131000","ARA1":12829.46,"SAG":"ARBA","PARTIDO":"027","CIRC":2,"SECC":"E","CHACRA":131,"CHACRA_L":null,"NOMENCLA":"Circ. II - Secc. E - Ch. 131"},"geometry":{"type":"Polygon","coordinates":[[[-57.96961165710056,-35.58733558436189],[-57.97147301357464,-35.588760237717686],[-57.971719260316284,-35.58757897089702],[-57.96961165710056,-35.58733558436189]]]}},{"type":"Feature","properties":{"CCA":"027030B0032000","ARA1":51228.25,"SAG":"ARBA","PARTIDO":"027","CIRC":3,"SECC":"B","CHACRA":32,"CHACRA_L":null,"NOMENCLA":"Circ. III - Secc. B - Ch. 32"},"geometry":{"type":"Polygon","coordinates":[[[-57.96555060196605,-35.58862721351144],[-57.96490560412936,-35.58910562305953],[-57.964599348868376,-35.5893327556952],[-57.96429309188275,-35.58955988748672],[-57.96398863172893,-35.58978569716375],[-57.96334361536537,-35.59026409764391],[-57.963612992341666,-35.590521863159296],[-57.96389122857019,-35.5907740107132],[-57.96416946653775,-35.591026157672154],[-57.9644477062443,-35.591278304036145],[-57.96472594540914,-35.59153053987762],[-57.96538255676965,-35.59105178726185],[-57.965688706436175,-35.59082465097664],[-57.965994962371376,-35.59059760578216],[-57.96630121886143,-35.590370469670965],[-57.966946329556855,-35.58989205466406],[-57.96666797603699,-35.58963991205705],[-57.96638973680604,-35.589387680643235],[-57.96611149703557,-35.58913553870703],[-57.965833259003986,-35.588883396175795],[-57.96555060196605,-35.58862721351144]]]}},{"type":"Feature","properties":{"CCA":"027020E0111000","ARA1":81917.53,"SAG":"ARBA","PARTIDO":"027","CIRC":2,"SECC":"E","CHACRA":111,"CHACRA_L":null,"NOMENCLA":"Circ. II - Secc. E - Ch. 111"},"geometry":{"type":"Polygon","coordinates":[[[-57.979751043818354,-35.575534188608145],[-57.97968459723127,-35.575856574827014],[-57.979484157353745,-35.57582248595011],[-57.97938902262186,-35.57618034539948],[-57.97961620739083,-35.576216775228445],[-57.97934643248631,-35.57731791938614],[-57.980074008025206,-35.57740464059224],[-57.98089330074783,-35.57750235605816],[-57.981144289554464,-35.576089828422376],[-57.98122062303336,-35.57572047863319],[-57.979751043818354,-35.575534188608145]],[[-57.98290464781319,-35.57401502422996],[-57.982582476043056,-35.57580447288128],[-57.982673251789315,-35.575813291695546],[-57.98252611029559,-35.57682467315011],[-57.982148938979,-35.57765324077099],[-57.983283894369315,-35.5777872242356],[-57.9837020127911,-35.57592332547403],[-57.983829262060205,-35.57535279564709],[-57.984085165644196,-35.57418184181597],[-57.98405847174338,-35.57415111773548],[-57.983715097686414,-35.574107886205766],[-57.983054310380325,-35.57403302860093],[-57.98290464781319,-35.57401502422996]],[[-57.9814249936848,-35.57576057783593],[-57.981382898267825,-35.57578978966892],[-57.98131878574402,-35.57612050624149],[-57.98125498714871,-35.5764738460055],[-57.981186374626034,-35.57682998862295],[-57.98105867793592,-35.57749656655549],[-57.98109350572311,-35.57752841879753],[-57.98163374204389,-35.57758639990696],[-57.98167667918421,-35.57756323957786],[-57.98193054249101,-35.576919139240495],[-57.98201341255623,-35.57670678259263],[-57.98202686126464,-35.576566433839126],[-57.982055576099775,-35.57620890161479],[-57.982088778362126,-35.57586153700258],[-57.9820625360546,-35.575839200426],[-57.9814249936848,-35.57576057783593]]]}},{"type":"Feature","properties":{"CCA":"027020E0121000","ARA1":137427.87,"SAG":"ARBA","PARTIDO":"027","CIRC":2,"SECC":"E","CHACRA":121,"CHACRA_L":null,"NOMENCLA":"Circ. II - Secc. E - Ch. 121"},"geometry":{"type":"Polygon","coordinates":[[[-57.978781426630036,-35.58077773345325],[-57.978284761800566,-35.5810041410585],[-57.97825817985046,-35.58113129277607],[-57.97817204009463,-35.58154327845415],[-57.97809015559267,-35.58193515048848],[-57.97800790317398,-35.582328458039676],[-57.977751839239474,-35.58355364006433],[-57.97804793984233,-35.583920947290075],[-57.978669731586315,-35.58400103654106],[-57.97882081089679,-35.584020421873454],[-57.97910571037145,-35.584056829924236],[-57.9796167920573,-35.58412217139187],[-57.98076914717139,-35.58426953777365],[-57.98197879673853,-35.58442416063559],[-57.982161976099064,-35.583520617468146],[-57.982298898093134,-35.58284698452997],[-57.98261038712864,-35.581313547099356],[-57.98106394864051,-35.58110012267127],[-57.980750686575085,-35.58105585493832],[-57.98027024204471,-35.580987968333524],[-57.97931484830785,-35.580853092569775],[-57.978781426630036,-35.58077773345325]]]}},{"type":"Feature","properties":{"CCA":"027020E0127000","ARA1":114923.44,"SAG":"ARBA","PARTIDO":"027","CIRC":2,"SECC":"E","CHACRA":127,"CHACRA_L":null,"NOMENCLA":"Circ. II - Secc. E - Ch. 127"},"geometry":{"type":"Polygon","coordinates":[[[-57.97356872323763,-35.583485880455896],[-57.97308372625018,-35.58533536608596],[-57.972566370850664,-35.58736903237783],[-57.975055480242744,-35.58754137446272],[-57.97554280269811,-35.58727616648156],[-57.97591290856673,-35.586084445458205],[-57.97652861775866,-35.584101345186525],[-57.97636115004251,-35.58386532442539],[-57.97356872323763,-35.583485880455896]]]}},{"type":"Feature","properties":{"CCA":"027020E0130000","ARA1":108621.37,"SAG":"ARBA","PARTIDO":"027","CIRC":2,"SECC":"E","CHACRA":130,"CHACRA_L":null,"NOMENCLA":"Circ. II - Secc. E - Ch. 130"},"geometry":{"type":"Polygon","coordinates":[[[-57.97200777779185,-35.58755102728437],[-57.97177982957284,-35.58859311070876],[-57.97158477762904,-35.58948544188229],[-57.97152001537928,-35.58977856445389],[-57.97391101800132,-35.5919814670732],[-57.97413800591328,-35.59191355577822],[-57.97452146684787,-35.590635828665306],[-57.97496248055999,-35.58917497003191],[-57.97528347530893,-35.58811182583813],[-57.97502063263105,-35.587773005471],[-57.97200777779185,-35.58755102728437]]]}},{"type":"Feature","properties":{"CCA":"027020D0094000","ARA1":130869.55,"SAG":"ARBA","PARTIDO":"027","CIRC":2,"SECC":"D","CHACRA":94,"CHACRA_L":null,"NOMENCLA":"Circ. II - Secc. D - Ch. 94"},"geometry":{"type":"Polygon","coordinates":[[[-57.99241749399441,-35.58261077594544],[-57.99172638174146,-35.58574739752532],[-57.99514641559206,-35.58598656156187],[-57.99568169808375,-35.58500703278612],[-57.99643878673579,-35.58409895389597],[-57.997219304945084,-35.582931557339734],[-57.99241749399441,-35.58261077594544]]]}},{"type":"Feature","properties":{"CCA":"027020D0096000","ARA1":129734.72,"SAG":"ARBA","PARTIDO":"027","CIRC":2,"SECC":"D","CHACRA":96,"CHACRA_L":null,"NOMENCLA":"Circ. II - Secc. D - Ch. 96"},"geometry":{"type":"Polygon","coordinates":[[[-57.982988972754335,-35.58140540109599],[-57.98230864709566,-35.58422116706505],[-57.98229051808694,-35.58434575791268],[-57.98271855662287,-35.58412467306807],[-57.983052700185155,-35.583917514042135],[-57.98332760783898,-35.58375423809223],[-57.98371894047745,-35.583558216959084],[-57.984134315067365,-35.58336674189587],[-57.98453049064752,-35.58320179742967],[-57.9849402454201,-35.5830319423777],[-57.98533963121504,-35.58286641809466],[-57.9857970060785,-35.58268014500678],[-57.98621377581747,-35.58252067550371],[-57.98676910703619,-35.58229449439449],[-57.987359349392335,-35.58203519210695],[-57.987492616510146,-35.58196848279371],[-57.98729525573612,-35.58194283846337],[-57.9852094433211,-35.58168756503869],[-57.982988972754335,-35.58140540109599]],[[-57.987425847962534,-35.58219012330565],[-57.98492441809681,-35.58318811123083],[-57.9846400207092,-35.5833077083435],[-57.98398615970069,-35.58360468041311],[-57.9832524718845,-35.58398790101576],[-57.98280257898094,-35.58424475659655],[-57.98260636859459,-35.58436654609164],[-57.984648521923106,-35.5846320387257],[-57.985090868597986,-35.58468935884085],[-57.985526510099,-35.58474575422722],[-57.986859028912264,-35.58492382911349],[-57.98690434940209,-35.58490250903564],[-57.9871193164995,-35.58374933903339],[-57.987425847962534,-35.58219012330565]]]}},{"type":"Feature","properties":{"CCA":"027020C005900B","ARA1":100634.46,"SAG":"ARBA","PARTIDO":"027","CIRC":2,"SECC":"C","CHACRA":59,"CHACRA_L":"B","NOMENCLA":"Circ. II - Secc. C - Ch. 59B"},"geometry":{"type":"Polygon","coordinates":[[[-57.98877262951685,-35.54540202424547],[-57.98647703341269,-35.5471138555672],[-57.98558736685803,-35.54780925345142],[-57.98522229964407,-35.54824956654784],[-57.98495616857386,-35.54869288412185],[-57.9852553816272,-35.549007240149486],[-57.988769654709536,-35.549391955228614],[-57.98881085405955,-35.54912428910466],[-57.98936626862733,-35.545516367590785],[-57.98877262951685,-35.54540202424547]]]}},{"type":"Feature","properties":{"CCA":"027020C0062000","ARA1":149966.78,"SAG":"ARBA","PARTIDO":"027","CIRC":2,"SECC":"C","CHACRA":62,"CHACRA_L":null,"NOMENCLA":"Circ. II - Secc. C - Ch. 62"},"geometry":{"type":"Polygon","coordinates":[[[-57.98519088086718,-35.54915691928886],[-57.984769370982896,-35.549495091601614],[-57.98462649873034,-35.55030434093293],[-57.98450843852934,-35.5509724390446],[-57.984356658923595,-35.55095259946604],[-57.98417511453834,-35.55217859953749],[-57.98408221657583,-35.55280593664499],[-57.9857120304677,-35.55297997736032],[-57.986549341285446,-35.55307074294136],[-57.98669437061469,-35.55308731314961],[-57.98809860168467,-35.55323872000864],[-57.98841819560522,-35.55140171524782],[-57.98874132933657,-35.54954593456886],[-57.98519088086718,-35.54915691928886]]]}},{"type":"Feature","properties":{"CCA":"027020C0063000","ARA1":133306.71,"SAG":"ARBA","PARTIDO":"027","CIRC":2,"SECC":"C","CHACRA":63,"CHACRA_L":null,"NOMENCLA":"Circ. II - Secc. C - Ch. 63"},"geometry":{"type":"Polygon","coordinates":[[[-57.9801537093283,-35.54868378214276],[-57.97940751302819,-35.55225295027085],[-57.98310532695946,-35.55268380239681],[-57.98362873084843,-35.54955098879846],[-57.983103101674104,-35.548952592396326],[-57.981896388689094,-35.54884264314911],[-57.981100628292474,-35.548772186286605],[-57.9801537093283,-35.54868378214276]]]}},{"type":"Feature","properties":{"CCA":"027020C0066000","ARA1":149854.58,"SAG":"ARBA","PARTIDO":"027","CIRC":2,"SECC":"C","CHACRA":66,"CHACRA_L":null,"NOMENCLA":"Circ. II - Secc. C - Ch. 66"},"geometry":{"type":"Polygon","coordinates":[[[-57.984037387827655,-35.55302406859959],[-57.983399466030775,-35.55658984588016],[-57.987447720651616,-35.557113749383994],[-57.98758365587407,-35.55631240137539],[-57.98806739704489,-35.553459243724916],[-57.986080220597934,-35.55324421049973],[-57.984037387827655,-35.55302406859959]]]}},{"type":"Feature","properties":{"CCA":"027020C0077000","ARA1":136880.85,"SAG":"ARBA","PARTIDO":"027","CIRC":2,"SECC":"C","CHACRA":77,"CHACRA_L":null,"NOMENCLA":"Circ. II - Secc. C - Ch. 77"},"geometry":{"type":"Polygon","coordinates":[[[-57.980355742335064,-35.56254992654108],[-57.98002100699641,-35.56250728055719],[-57.979386339948675,-35.56242383091283],[-57.979407800654556,-35.56226748653142],[-57.97942155976642,-35.56208406962522],[-57.97942721601144,-35.5619466540388],[-57.97943484095294,-35.561757186904835],[-57.97944765437415,-35.56144453396949],[-57.979461517562044,-35.561103243099616],[-57.97946887084123,-35.56092458478613],[-57.97948270207771,-35.560584554913156],[-57.97949728221877,-35.56022786691049],[-57.97776183344486,-35.56000429855948],[-57.97729548769031,-35.5621971793806],[-57.97684295057496,-35.564357308257804],[-57.978973809230325,-35.564591577985766],[-57.9810882446529,-35.56481282930374],[-57.981512853767796,-35.56269772146466],[-57.981273818052365,-35.56266479181279],[-57.980933381056055,-35.56262079128036],[-57.980825327593735,-35.56260672575863],[-57.98050039129685,-35.56256469583617],[-57.980355742335064,-35.56254992654108]]]}},{"type":"Feature","properties":{"CCA":"027020C0078000","ARA1":214158.58,"SAG":"ARBA","PARTIDO":"027","CIRC":2,"SECC":"C","CHACRA":78,"CHACRA_L":null,"NOMENCLA":"Circ. II - Secc. C - Ch. 78"},"geometry":{"type":"Polygon","coordinates":[[[-57.972640388681604,-35.559368520455735],[-57.97186390551842,-35.56374055406989],[-57.97653672610338,-35.56432670154464],[-57.977466251389004,-35.55995017385829],[-57.972640388681604,-35.559368520455735]]]}},{"type":"Feature","properties":{"CCA":"027020B0051000","ARA1":63269.4,"SAG":"ARBA","PARTIDO":"027","CIRC":2,"SECC":"B","CHACRA":51,"CHACRA_L":null,"NOMENCLA":"Circ. II - Secc. B - Ch. 51"},"geometry":{"type":"Polygon","coordinates":[[[-58.001686188354846,-35.56528900139164],[-58.00171208158905,-35.565019094647255],[-58.00172129289857,-35.56492796389286],[-58.001729469523355,-35.56483852810846],[-58.001737445780634,-35.564748277991384],[-58.00176311201563,-35.56448305327149],[-57.99936147175334,-35.564140791924906],[-57.99917479372631,-35.56548324502399],[-57.99899968419962,-35.566595293044884],[-58.001495335879554,-35.566960748606014],[-58.001637665475336,-35.566980590599904],[-58.00167508314148,-35.56695273567814],[-58.001797631171904,-35.56646798263351],[-58.00181232996659,-35.56640902275907],[-58.0017789783992,-35.56637530853177],[-58.0015658618536,-35.56634149697626],[-58.001581296695,-35.56623515041694],[-58.00159485454348,-35.56612444735092],[-58.00160827810653,-35.566019148775325],[-58.00161867204298,-35.56592037813499],[-58.0016302495101,-35.565822798573905],[-58.00164030594913,-35.565724292667596],[-58.001651188963365,-35.565632468754906],[-58.001667489322045,-35.565491263167196],[-58.001686188354846,-35.56528900139164]]]}},{"type":"Feature","properties":{"CCA":"027020E0108000","ARA1":144786.23,"SAG":"ARBA","PARTIDO":"027","CIRC":2,"SECC":"E","CHACRA":108,"CHACRA_L":null,"NOMENCLA":"Circ. II - Secc. E - Ch. 108"},"geometry":{"type":"Polygon","coordinates":[[[-57.97095461197671,-35.568944864390495],[-57.970457660728044,-35.57206984941292],[-57.9733153139548,-35.57242693752444],[-57.97488373144453,-35.5726228959691],[-57.97544562486059,-35.56941752047663],[-57.97386714162354,-35.56925140813263],[-57.97095461197671,-35.568944864390495]]]}},{"type":"Feature","properties":{"CCA":"027020E0102000","ARA1":198659.55,"SAG":"ARBA","PARTIDO":"027","CIRC":2,"SECC":"E","CHACRA":102,"CHACRA_L":null,"NOMENCLA":"Circ. II - Secc. E - Ch. 102"},"geometry":{"type":"Polygon","coordinates":[[[-57.97670164065129,-35.564553127390155],[-57.97656851099837,-35.56521159031873],[-57.97639520352144,-35.56606861501856],[-57.97622818564336,-35.56689465644189],[-57.97605788975249,-35.56773686250093],[-57.9757754874131,-35.56913326326292],[-57.97779167291687,-35.56936247553422],[-57.97998713554336,-35.56961196095734],[-57.98006389305226,-35.5692168467332],[-57.98023616609692,-35.56832952178527],[-57.9804008412846,-35.56748108741392],[-57.98056069489033,-35.56665762289286],[-57.980728649092484,-35.565792481937216],[-57.98088494735703,-35.56498733988107],[-57.97871469465146,-35.56476208496162],[-57.97670164065129,-35.564553127390155]]]}},{"type":"Feature","properties":{"CCA":"027020E0103000","ARA1":226534.11,"SAG":"ARBA","PARTIDO":"027","CIRC":2,"SECC":"E","CHACRA":103,"CHACRA_L":null,"NOMENCLA":"Circ. II - Secc. E - Ch. 103"},"geometry":{"type":"Polygon","coordinates":[[[-57.97183845390347,-35.56387961835913],[-57.97158227894162,-35.56523085408142],[-57.97138614246991,-35.566265096160464],[-57.97092860154651,-35.5686774262647],[-57.97394445999787,-35.56900598287374],[-57.97549177519014,-35.56917454419253],[-57.97568793903661,-35.56830402821997],[-57.976033210012304,-35.56677144348794],[-57.97654531076823,-35.56449841815072],[-57.9750988745561,-35.564308227834026],[-57.97183845390347,-35.56387961835913]]]}},{"type":"Feature","properties":{"CCA":"027020D0083000","ARA1":198249.38,"SAG":"ARBA","PARTIDO":"027","CIRC":2,"SECC":"D","CHACRA":83,"CHACRA_L":null,"NOMENCLA":"Circ. II - Secc. D - Ch. 83"},"geometry":{"type":"Polygon","coordinates":[[[-57.98610476166828,-35.56549207957619],[-57.985734074149896,-35.567505918975456],[-57.98709461817167,-35.56559602561916],[-57.98610476166828,-35.56549207957619]],[[-57.987479482941644,-35.56563255073516],[-57.987175678121105,-35.56597512804843],[-57.98618185946196,-35.56741716341283],[-57.9859034704473,-35.567827745735315],[-57.98558818743308,-35.56838585426497],[-57.98556488674077,-35.56843989223334],[-57.985399407863625,-35.56943258976795],[-57.98577230001085,-35.56865295905002],[-57.98584746812911,-35.56850075520145],[-57.98619541576732,-35.567853710905396],[-57.986304994320584,-35.567688204547316],[-57.98665527967625,-35.56716338930732],[-57.987084869101686,-35.56651905774127],[-57.9876600053041,-35.56577424730939],[-57.98777064469382,-35.56566309458793],[-57.98768316215856,-35.56565091052355],[-57.987479482941644,-35.56563255073516]],[[-57.98813124835437,-35.56570398845381],[-57.9879403356324,-35.56592481900213],[-57.98762090272994,-35.56631462540906],[-57.98727383565067,-35.56678615127893],[-57.98694726445311,-35.56726702960064],[-57.986539314806606,-35.56787937197549],[-57.985924916895506,-35.569050379353946],[-57.98545060242397,-35.57029058790723],[-57.987495726068076,-35.57050732640214],[-57.988405508668436,-35.57060505926143],[-57.989772575646306,-35.570750964746544],[-57.99026794168812,-35.568184373587734],[-57.99065603683239,-35.56595931645236],[-57.98839311633839,-35.56572845483164],[-57.98813124835437,-35.56570398845381]]]}},{"type":"Feature","properties":{"CCA":"027020D0086000","ARA1":175563.63,"SAG":"ARBA","PARTIDO":"027","CIRC":2,"SECC":"D","CHACRA":86,"CHACRA_L":null,"NOMENCLA":"Circ. II - Secc. D - Ch. 86"},"geometry":{"type":"Polygon","coordinates":[[[-57.989662961207216,-35.57092683648681],[-57.98938080169133,-35.57260478519568],[-57.98908437227868,-35.574394142883726],[-57.98953213666445,-35.5744576639135],[-57.990385812673786,-35.57456913458637],[-57.99286600933839,-35.57487251735178],[-57.99363199715571,-35.5749755658834],[-57.992961174192935,-35.57430765999559],[-57.99299215183357,-35.574104973942816],[-57.99393984287064,-35.57504178706954],[-57.9941173595782,-35.573996201646715],[-57.99417384629407,-35.573663908555694],[-57.994204879890084,-35.57348095753198],[-57.99425503810055,-35.57318568508429],[-57.99434985649535,-35.57269615400251],[-57.9943799669864,-35.572519225022035],[-57.99440828454108,-35.57235226859703],[-57.99444453498667,-35.57217679345513],[-57.99447723463823,-35.57199774483891],[-57.99457227282179,-35.571463882094854],[-57.994522957669616,-35.571402506235216],[-57.994389629296045,-35.57138857271297],[-57.99417342367989,-35.5713676726185],[-57.993966139272736,-35.5713472810969],[-57.9937354171699,-35.57132469677226],[-57.99346981862914,-35.5712986477006],[-57.99103841083932,-35.571059801351275],[-57.989662961207216,-35.57092683648681]]]}},{"type":"Feature","properties":{"CCA":"027020D0087000","ARA1":147607.82,"SAG":"ARBA","PARTIDO":"027","CIRC":2,"SECC":"D","CHACRA":87,"CHACRA_L":null,"NOMENCLA":"Circ. II - Secc. D - Ch. 87"},"geometry":{"type":"Polygon","coordinates":[[[-57.9853795103697,-35.570517742371],[-57.98498529529604,-35.57149201651818],[-57.98457274652684,-35.573765392009186],[-57.98467537086642,-35.57386469929229],[-57.988839299460786,-35.57436734466241],[-57.9893954622701,-35.57090191821342],[-57.9853795103697,-35.570517742371]]]}},{"type":"Feature","properties":{"CCA":"027020B0038000","ARA1":59152.59,"SAG":"ARBA","PARTIDO":"027","CIRC":2,"SECC":"B","CHACRA":38,"CHACRA_L":null,"NOMENCLA":"Circ. II - Secc. B - Ch. 38"},"geometry":{"type":"Polygon","coordinates":[[[-57.98931413107535,-35.54744957295862],[-57.98899926174776,-35.549434534374285],[-57.99140891691239,-35.54968359270218],[-57.99193126091104,-35.549735639832726],[-57.99196856563252,-35.54971211128077],[-57.99227584963271,-35.54789137912886],[-57.99224906625438,-35.54786002456202],[-57.9916649294741,-35.54777495965255],[-57.991669456601784,-35.547748181681285],[-57.98931413107535,-35.54744957295862]]]}},{"type":"Feature","properties":{"CCA":"027020C006700B","ARA1":53229.92,"SAG":"ARBA","PARTIDO":"027","CIRC":2,"SECC":"C","CHACRA":67,"CHACRA_L":"B","NOMENCLA":"Circ. II - Secc. C - Ch. 67B"},"geometry":{"type":"Polygon","coordinates":[[[-57.97894458629478,-35.5546518040005],[-57.978884935559925,-35.554941414149944],[-57.97881610697226,-35.55527592621643],[-57.97875392949211,-35.555578289754585],[-57.97865695254031,-35.55605002035596],[-57.97868540905046,-35.55608050481069],[-57.97932782383569,-35.55615201232792],[-57.979641669190336,-35.556186740280076],[-57.98040911691196,-35.55627214256349],[-57.980966756378784,-35.5563340206257],[-57.981514384300354,-35.556395007555416],[-57.98180447937865,-35.55642707934223],[-57.98219058376113,-35.556187989441405],[-57.98250242527079,-35.55599478365143],[-57.982553066596424,-35.55569898325866],[-57.98261080617187,-35.55536194031396],[-57.982661025608905,-35.555069737246924],[-57.98176308403891,-35.55496882783167],[-57.98121811994829,-35.55490752634553],[-57.98066172060921,-35.554844949474564],[-57.98011103808829,-35.55478309663525],[-57.97955530206173,-35.55472052579333],[-57.97894458629478,-35.5546518040005]]]}},{"type":"Feature","properties":{"CCA":"027020B0040000","ARA1":129953.68,"SAG":"ARBA","PARTIDO":"027","CIRC":2,"SECC":"B","CHACRA":40,"CHACRA_L":null,"NOMENCLA":"Circ. II - Secc. B - Ch. 40"},"geometry":{"type":"Polygon","coordinates":[[[-57.988990620320266,-35.549639214797644],[-57.988667152260625,-35.55132323719618],[-57.990747971344305,-35.55156213595524],[-57.990413093255505,-35.55347017145002],[-57.992884301671296,-35.553754290726076],[-57.99321242872307,-35.551844963655796],[-57.993524284217315,-35.550030342183334],[-57.99126219733455,-35.549827759972835],[-57.988990620320266,-35.549639214797644]]]}},{"type":"Feature","properties":{"CCA":"027020C0076000","ARA1":162482.88,"SAG":"ARBA","PARTIDO":"027","CIRC":2,"SECC":"C","CHACRA":76,"CHACRA_L":null,"NOMENCLA":"Circ. II - Secc. C - Ch. 76"},"geometry":{"type":"Polygon","coordinates":[[[-57.98329121217459,-35.56077336657304],[-57.98256614155874,-35.5611599757847],[-57.98246909923429,-35.56168325214289],[-57.98229361177171,-35.56263009180046],[-57.982112276208795,-35.5636076512863],[-57.98189593143443,-35.564758449466126],[-57.98487232183156,-35.56502542465528],[-57.98596276928914,-35.56512421337963],[-57.98632042650444,-35.5631675557921],[-57.98648437908649,-35.56226998825279],[-57.985411107392515,-35.562134185665215],[-57.98542369617258,-35.56206744304983],[-57.98543628492909,-35.56200070043176],[-57.98650878551839,-35.56213639977473],[-57.98667629990756,-35.56121969746219],[-57.98560887055665,-35.56108453510791],[-57.98329121217459,-35.56077336657304]]]}},{"type":"Feature","properties":{"CCA":"027020B0052000","ARA1":343851.11,"SAG":"ARBA","PARTIDO":"027","CIRC":2,"SECC":"B","CHACRA":52,"CHACRA_L":null,"NOMENCLA":"Circ. II - Secc. B - Ch. 52"},"geometry":{"type":"Polygon","coordinates":[[[-57.994448156945424,-35.56143569779617],[-57.994327045663994,-35.56214899092197],[-57.99382330096146,-35.56209960548686],[-57.99252571555073,-35.56197229705226],[-57.99148951934638,-35.56278964876403],[-57.9913923437593,-35.56335140864201],[-57.991014574739125,-35.56579155839113],[-57.993664273713435,-35.56604917607311],[-57.99690084045071,-35.56636380062606],[-57.9988059584124,-35.566549002683495],[-57.99947910244076,-35.56192463725597],[-57.997573978949134,-35.561739537474274],[-57.994448156945424,-35.56143569779617]],[[-57.991759155644466,-35.56189716844687],[-57.99162585006626,-35.562002270295565],[-57.99156387232137,-35.562360153097174],[-57.99210756292078,-35.56193126877954],[-57.991759155644466,-35.56189716844687]]]}},{"type":"Feature","properties":{"CCA":"027020B0044000","ARA1":103658.51,"SAG":"ARBA","PARTIDO":"027","CIRC":2,"SECC":"B","CHACRA":44,"CHACRA_L":null,"NOMENCLA":"Circ. II - Secc. B - Ch. 44"},"geometry":{"type":"Polygon","coordinates":[[[-57.994086154610244,-35.55782375259861],[-57.99490336936365,-35.557913585828295],[-57.99572276836645,-35.55800435098207],[-57.99582285778865,-35.55739046017095],[-57.99588115630645,-35.55703323426872],[-57.99593934400258,-35.55667600646861],[-57.99601392270759,-35.556218486105074],[-57.99519454137048,-35.55612772348959],[-57.99496382607827,-35.55610216857951],[-57.99497224295089,-35.55605202608722],[-57.99497613318083,-35.55602866167569],[-57.995033328515696,-35.55568925998878],[-57.99510723298403,-35.5552501118301],[-57.9952838840384,-35.554200991955426],[-57.99432934654619,-35.554105272313],[-57.993891676368,-35.55406140290856],[-57.9930311864486,-35.553975168198136],[-57.99297774538914,-35.554314090746544],[-57.99286906473787,-35.55500208840621],[-57.99279951252068,-35.55544310973525],[-57.992742295319346,-35.55580512797111],[-57.99273443047631,-35.55585518936906],[-57.99262402450551,-35.55655469218571],[-57.992541138712646,-35.557079205170346],[-57.9924512386537,-35.557641718565755],[-57.99339764263342,-35.55774678003087],[-57.994086154610244,-35.55782375259861]],[[-57.996994598774876,-35.557883658275216],[-57.99670734663874,-35.55811344564263],[-57.99694664613265,-35.55813995098054],[-57.996994598774876,-35.557883658275216]]]}},{"type":"Feature","properties":{"CCA":"027020B0047000","ARA1":152549.67,"SAG":"ARBA","PARTIDO":"027","CIRC":2,"SECC":"B","CHACRA":47,"CHACRA_L":null,"NOMENCLA":"Circ. II - Secc. B - Ch. 47"},"geometry":{"type":"Polygon","coordinates":[[[-57.996740327682986,-35.55833017261019],[-57.9964713553124,-35.558299569104335],[-57.994042302804615,-35.5580346056993],[-57.99360732873425,-35.55798348074882],[-57.99311287175338,-35.55792532626671],[-57.99243083654046,-35.557845121876326],[-57.99236801384047,-35.55820181988775],[-57.99230497004738,-35.55855851415582],[-57.99217965217364,-35.55927191533341],[-57.992098307704985,-35.5597078733635],[-57.99201784714787,-35.56017907978604],[-57.99194397615951,-35.56061155766515],[-57.99176600141829,-35.5616538001717],[-57.99204146848184,-35.561685243432265],[-57.99239050506475,-35.56172503046956],[-57.99339263902563,-35.56183931133116],[-57.99391804797185,-35.56167873789551],[-57.9943237432695,-35.561259440949485],[-57.99460115684508,-35.56117736967721],[-57.99627400158785,-35.56136279972497],[-57.9967261126677,-35.558413920748976],[-57.996740327682986,-35.55833017261019]]]}},{"type":"Feature","properties":{"CCA":"027020B0048000","ARA1":29984.12,"SAG":"ARBA","PARTIDO":"027","CIRC":2,"SECC":"B","CHACRA":48,"CHACRA_L":null,"NOMENCLA":"Circ. II - Secc. B - Ch. 48"},"geometry":{"type":"Polygon","coordinates":[[[-57.99144605533162,-35.55773571866074],[-57.991408861355,-35.55775906858282],[-57.99077370352001,-35.56149470399231],[-57.99080193487389,-35.56152563246915],[-57.99148451879966,-35.56161153271475],[-57.99152213754213,-35.561588910784764],[-57.99219994704888,-35.557839653675465],[-57.99217202682765,-35.5578095417129],[-57.99144605533162,-35.55773571866074]]]}},{"type":"Feature","properties":{"CCA":"027020B0037000","ARA1":162604.75,"SAG":"ARBA","PARTIDO":"027","CIRC":2,"SECC":"B","CHACRA":37,"CHACRA_L":null,"NOMENCLA":"Circ. II - Secc. B - Ch. 37"},"geometry":{"type":"Polygon","coordinates":[[[-57.9944475440003,-35.546302810488235],[-57.99421305542997,-35.54782396659287],[-57.99389621394621,-35.5498795576899],[-57.99683527154567,-35.550182103518175],[-57.998330055315044,-35.55034021207728],[-57.998625002289074,-35.548508893839546],[-57.99889438732273,-35.54676050362371],[-57.9944475440003,-35.546302810488235]]]}},{"type":"Feature","properties":{"CCA":"027020A0004000","ARA1":36660.59,"SAG":"ARBA","PARTIDO":"027","CIRC":2,"SECC":"A","CHACRA":4,"CHACRA_L":null,"NOMENCLA":"Circ. II - Secc. A - Ch. 4"},"geometry":{"type":"Polygon","coordinates":[[[-58.023163249917395,-35.55827048366278],[-58.022517264326645,-35.55811291296508],[-58.020216816223794,-35.561653421211204],[-58.019833365809184,-35.56223618633578],[-58.019921911660425,-35.56229486252379],[-58.01955537027177,-35.562849068475984],[-58.02003710343448,-35.56315750859489],[-58.02039942581404,-35.56259989771114],[-58.023163249917395,-35.55827048366278]]]}},{"type":"Feature","properties":{"CCA":"027020A0004000","ARA1":14307.0,"SAG":"ARBA","PARTIDO":"027","CIRC":2,"SECC":"A","CHACRA":4,"CHACRA_L":null,"NOMENCLA":"Circ. II - Secc. A - Ch. 4"},"geometry":{"type":"Polygon","coordinates":[[[-58.02533244892796,-35.55424512050198],[-58.02337849833197,-35.55707209324175],[-58.02379397862777,-35.55728904883487],[-58.02565778659566,-35.55440985934409],[-58.02533244892796,-35.55424512050198]]]}},{"type":"Feature","properties":{"CCA":"027020A0004000","ARA1":24756.75,"SAG":"ARBA","PARTIDO":"027","CIRC":2,"SECC":"A","CHACRA":4,"CHACRA_L":null,"NOMENCLA":"Circ. II - Secc. A - Ch. 4"},"geometry":{"type":"Polygon","coordinates":[[[-58.02581903917564,-35.55416559211243],[-58.01819697533521,-35.550307146941215],[-58.01817663332236,-35.55062283708656],[-58.01901992006341,-35.551049504926326],[-58.019730243321916,-35.55140856085976],[-58.02407412681746,-35.55360821859399],[-58.02533244892796,-35.55424512050198],[-58.02565778659566,-35.55440985934409],[-58.02581903917564,-35.55416559211243]]]}},{"type":"Feature","properties":{"CCA":"027020A0004000","ARA1":698648.11,"SAG":"ARBA","PARTIDO":"027","CIRC":2,"SECC":"A","CHACRA":4,"CHACRA_L":null,"NOMENCLA":"Circ. II - Secc. A - Ch. 4"},"geometry":{"type":"Polygon","coordinates":[[[-58.02269264810719,-35.54355269402817],[-58.02239238259373,-35.54377872717777],[-58.0184011875722,-35.54677710122946],[-58.02003254666999,-35.54811531722752],[-58.02108927477249,-35.54898207181595],[-58.02167801186795,-35.549465007312115],[-58.0215520804341,-35.54955963118596],[-58.018434890854294,-35.547002576262216],[-58.01819697533521,-35.550307146941215],[-58.02581903917564,-35.55416559211243],[-58.02736306641435,-35.551834065944405],[-58.029304861335405,-35.54883029255891],[-58.02601016442412,-35.54620069054439],[-58.02541029353185,-35.54572200910925],[-58.02434694418727,-35.54487320599494],[-58.02269264810719,-35.54355269402817]],[[-58.018949021365955,-35.55211130694749],[-58.018954985743925,-35.552021292464964],[-58.01896060046903,-35.55194100438544],[-58.018961060326475,-35.55193127979206],[-58.01898026512153,-35.551643776058555],[-58.01900003758114,-35.551346639597575],[-58.01901992006341,-35.551049504926326],[-58.01817663332236,-35.55062283708656],[-58.01815664434593,-35.550919699500824],[-58.01813675873805,-35.5512168339337],[-58.01811687514809,-35.55151387826874],[-58.01809687891815,-35.551811010845626],[-58.01807699271061,-35.55210814521304],[-58.01805710852112,-35.55240518948261],[-58.01890087144181,-35.55283114526108],[-58.01890695062351,-35.55274095245406],[-58.01891302313606,-35.55265102987324],[-58.01891898540653,-35.55256110547873],[-58.01892050565478,-35.55253517806437],[-58.018925062316065,-35.55247100274178],[-58.018931024550014,-35.55238107834328],[-58.018936986765816,-35.5522911539428],[-58.018940499159164,-35.552238045292015],[-58.01894294896347,-35.55220122954035],[-58.018949021365955,-35.55211130694749]]]}},{"type":"Feature","properties":{"CCA":"027020B0013000","ARA1":183002.25,"SAG":"ARBA","PARTIDO":"027","CIRC":2,"SECC":"B","CHACRA":13,"CHACRA_L":null,"NOMENCLA":"Circ. II - Secc. B - Ch. 13"},"geometry":{"type":"Polygon","coordinates":[[[-58.00335010562619,-35.52640103642664],[-58.00185961895186,-35.52748274601521],[-58.00134551989583,-35.53142736987085],[-58.005527752255546,-35.531993330452934],[-58.00585518127603,-35.52876388595074],[-58.00335010562619,-35.52640103642664]]]}},{"type":"Feature","properties":{"CCA":"027020B0018000","ARA1":130676.25,"SAG":"ARBA","PARTIDO":"027","CIRC":2,"SECC":"B","CHACRA":18,"CHACRA_L":null,"NOMENCLA":"Circ. II - Secc. B - Ch. 18"},"geometry":{"type":"Polygon","coordinates":[[[-57.99715905642956,-35.53095428074848],[-57.99650927590231,-35.53442191189329],[-58.00062047077368,-35.53503417305536],[-58.00099297070839,-35.53236049661618],[-57.998494962365,-35.53130762937705],[-57.99715905642956,-35.53095428074848]]]}},{"type":"Feature","properties":{"CCA":"027020B0021000","ARA1":172024.63,"SAG":"ARBA","PARTIDO":"027","CIRC":2,"SECC":"B","CHACRA":21,"CHACRA_L":null,"NOMENCLA":"Circ. II - Secc. B - Ch. 21"},"geometry":{"type":"Polygon","coordinates":[[[-58.005176525354635,-35.53594643214781],[-58.00473691373232,-35.53968269843622],[-58.009208870270044,-35.54032560297028],[-58.00969963166907,-35.536599173175105],[-58.005176525354635,-35.53594643214781]]]}},{"type":"Feature","properties":{"CCA":"027020B0025000","ARA1":42516.42,"SAG":"ARBA","PARTIDO":"027","CIRC":2,"SECC":"B","CHACRA":25,"CHACRA_L":null,"NOMENCLA":"Circ. II - Secc. B - Ch. 25"},"geometry":{"type":"Polygon","coordinates":[[[-58.014853563580544,-35.544415902778994],[-58.01473882931471,-35.54436048639259],[-58.014634560076594,-35.54430992811188],[-58.01450935904622,-35.54424974338189],[-58.01439549585348,-35.54419479158473],[-58.01427330746331,-35.5441510567195],[-58.01415221244228,-35.54410770019449],[-58.01403100734482,-35.54406434173599],[-58.01390980238269,-35.54402098315946],[-58.01378870998943,-35.543977536205034],[-58.01366750529808,-35.54393417739268],[-58.01354630074213,-35.543890818462344],[-58.013425206532894,-35.543847461230285],[-58.01330400224757,-35.543804102064094],[-58.01318279809766,-35.54376074277992],[-58.01306170651692,-35.54371729511852],[-58.012940502637775,-35.5436739355985],[-58.01281929889402,-35.54363057596052],[-58.01269820549654,-35.54358721802146],[-58.01257700202345,-35.54354385814764],[-58.01245579868571,-35.5435004981558],[-58.01233470569408,-35.5434571398633],[-58.01221350485063,-35.54341368955979],[-58.01209230191903,-35.543370329214135],[-58.01197120933336,-35.54332697056813],[-58.011850006672454,-35.54328360998666],[-58.01172880414692,-35.5432402492872],[-58.011607601756744,-35.543196888469794],[-58.011486511936624,-35.543153439276615],[-58.01121066607016,-35.54305472103691],[-58.01091557747867,-35.54294946689477],[-58.01051876343562,-35.54280693877187],[-58.01032334654981,-35.54273739066229],[-58.01031854406568,-35.54273541903204],[-58.00999160205993,-35.542687849551875],[-58.00916717661846,-35.54256511061251],[-58.00908927008482,-35.54316983022268],[-58.00901072446848,-35.54375129014414],[-58.00983366097631,-35.543845530204585],[-58.010297738131,-35.54389869798108],[-58.01076192396986,-35.5439519558842],[-58.011308022248194,-35.544014493300715],[-58.01193053393972,-35.54408576786652],[-58.01280416136941,-35.54418587004111],[-58.014853563580544,-35.544415902778994]]]}},{"type":"Feature","properties":{"CCA":"027020B0026000","ARA1":152295.35,"SAG":"ARBA","PARTIDO":"027","CIRC":2,"SECC":"B","CHACRA":26,"CHACRA_L":null,"NOMENCLA":"Circ. II - Secc. B - Ch. 26"},"geometry":{"type":"Polygon","coordinates":[[[-58.00471924398272,-35.53981739438147],[-58.004274424512204,-35.54319230951885],[-58.00876291049298,-35.54372286645385],[-58.009191097571424,-35.54046029797625],[-58.00471924398272,-35.53981739438147]]]}},{"type":"Feature","properties":{"CCA":"027020B0027000","ARA1":152601.3,"SAG":"ARBA","PARTIDO":"027","CIRC":2,"SECC":"B","CHACRA":27,"CHACRA_L":null,"NOMENCLA":"Circ. II - Secc. B - Ch. 27"},"geometry":{"type":"Polygon","coordinates":[[[-58.00026416924052,-35.539176676701196],[-57.99972499194785,-35.54265444721227],[-58.00411073287656,-35.54317301866312],[-58.004555994549094,-35.53979387626515],[-58.00026416924052,-35.539176676701196]]]}}]}