{"type": "FeatureCollection", "name": "027CIRC", "features": [{"type": "Feature", "geometry": {"type": "MultiPolygon", "coordinates": [[[[-57.900068, -35.693548], [-57.908455, -35.701242], [-57.926664, -35.718613], [-57.9289, -35.717576], [-57.981715, -35.758608], [-57.979499, -35.754755], [-57.974751, -35.75193], [-57.976333, -35.748591], [-57.979182, -35.746022], [-57.9776, -35.736005], [-57.978233, -35.730612], [-57.980765, -35.726502], [-57.984564, -35.724961], [-57.98583, -35.719824], [-57.986447, -35.711862], [-57.986763, -35.704413], [-57.983601, -35.702872], [-57.978542, -35.697992], [-57.97127, -35.700561], [-57.969057, -35.705698], [-57.969057, -35.710064], [-57.96716, -35.709807], [-57.965895, -35.705698], [-57.958939, -35.700304], [-57.95173, -35.700703], [-57.947369, -35.705879], [-57.946531, -35.703155], [-57.950221, -35.700158], [-57.950449, -35.69858], [-57.950086, -35.698506], [-57.950518, -35.698107], [-57.950891, -35.695526], [-57.949885, -35.693074], [-57.93999, -35.692937], [-57.933449, -35.697569], [-57.931101, -35.701384], [-57.92674, -35.703155], [-57.923386, -35.702337], [-57.918354, -35.69934], [-57.91567, -35.699068], [-57.911813, -35.695117], [-57.909465, -35.694845], [-57.902421, -35.693482], [-57.900068, -35.693548]]], [[[-57.870396, -35.595375], [-57.867157, -35.598443], [-57.874492, -35.600258], [-57.880551, -35.599998], [-57.889481, -35.608554], [-57.885654, -35.609591], [-57.911152, -35.631629], [-57.921684, -35.64174], [-57.905726, -35.652629], [-57.903491, -35.655222], [-57.923277, -35.673628], [-57.923721, -35.67332], [-57.929088, -35.672776], [-57.935629, -35.671822], [-57.936971, -35.671277], [-57.939822, -35.673457], [-57.939487, -35.675636], [-57.944183, -35.677407], [-57.948208, -35.682039], [-57.950891, -35.685717], [-57.952401, -35.689532], [-57.951059, -35.692665], [-57.952233, -35.693619], [-57.956009, -35.69303], [-57.959255, -35.69003], [-57.966527, -35.689516], [-57.976962, -35.689516], [-57.983601, -35.687975], [-57.986447, -35.682068], [-57.985499, -35.675133], [-57.988028, -35.673078], [-57.994036, -35.67205], [-57.999727, -35.665886], [-58.001308, -35.66229], [-57.999727, -35.655098], [-57.999955, -35.651583], [-58.002208, -35.647192], [-58.003807, -35.644075], [-58.004578, -35.640008], [-58.008979, -35.633594], [-58.00876, -35.631275], [-58.003617, -35.63023], [-57.999759, -35.623259], [-57.998902, -35.612454], [-57.99033, -35.606528], [-57.986901, -35.601649], [-57.980472, -35.597815], [-57.981758, -35.592586], [-57.980044, -35.586661], [-57.976186, -35.591192], [-57.974901, -35.594329], [-57.959471, -35.579342], [-57.955614, -35.582479], [-57.928184, -35.555292], [-57.917723, -35.561391], [-57.904894, -35.570603], [-57.908521, -35.573765], [-57.908521, -35.57725], [-57.905094, -35.581781], [-57.896099, -35.584918], [-57.883245, -35.586148], [-57.870396, -35.595375]]]]}, "properties": {"ID": 26, "AREA": 123.991684, "CIRCUNSCRI": 3}}, {"type": "Feature", "geometry": {"type": "Polygon", "coordinates": [[[-58.039619, -35.561914], [-58.039619, -35.557035], [-58.019475, -35.539607], [-58.012189, -35.543093], [-58.01176, -35.534728], [-58.004474, -35.527059], [-57.951328, -35.565748], [-57.93547, -35.550064], [-57.928184, -35.555292], [-57.955614, -35.582479], [-57.959471, -35.579342], [-57.974901, -35.594329], [-57.976186, -35.591192], [-57.980044, -35.586661], [-57.992473, -35.581433], [-58.002759, -35.574113], [-58.007903, -35.574113], [-58.013474, -35.574113], [-58.022475, -35.560869], [-58.031475, -35.564354], [-58.031904, -35.561914], [-58.039619, -35.561914]]]}, "properties": {"ID": 2, "AREA": 30.509907, "CIRCUNSCRI": 2}}, {"type": "Feature", "geometry": {"type": "Polygon", "coordinates": [[[-57.867157, -35.598443], [-57.808538, -35.64139], [-57.873153, -35.697436], [-57.879099, -35.693571], [-57.887424, -35.700657], [-57.900068, -35.693548], [-57.897557, -35.693619], [-57.891854, -35.691575], [-57.888835, -35.686126], [-57.893028, -35.688033], [-57.898228, -35.689396], [-57.899569, -35.690894], [-57.906278, -35.686262], [-57.908794, -35.68272], [-57.912484, -35.681494], [-57.91273, -35.681644], [-57.917006, -35.678395], [-57.916844, -35.678088], [-57.923277, -35.673628], [-57.903491, -35.655222], [-57.905726, -35.652629], [-57.921684, -35.64174], [-57.911152, -35.631629], [-57.885654, -35.609591], [-57.889481, -35.608554], [-57.880551, -35.599998], [-57.874492, -35.600258], [-57.867157, -35.598443]]]}, "properties": {"ID": 30, "AREA": 65.033669, "CIRCUNSCRI": 4}}, {"type": "Feature", "geometry": {"type": "Polygon", "coordinates": [[[-57.909802, -35.553791], [-57.917723, -35.561391], [-57.928184, -35.555292], [-57.93547, -35.550064], [-57.951328, -35.565748], [-58.004474, -35.527059], [-58.01176, -35.534728], [-58.012189, -35.543093], [-58.019475, -35.539607], [-58.039619, -35.557035], [-58.044762, -35.553201], [-58.052048, -35.553201], [-58.056334, -35.552155], [-58.061961, -35.556502], [-58.065491, -35.550935], [-58.071487, -35.547101], [-58.071487, -35.544312], [-58.039792, -35.51364], [-58.002529, -35.481574], [-58.001244, -35.481574], [-57.996532, -35.48471], [-58.007668, -35.49447], [-58.002957, -35.49691], [-57.992677, -35.48715], [-57.97683, -35.500744], [-57.965265, -35.50632], [-57.942565, -35.486105], [-57.912583, -35.50876], [-57.927574, -35.522354], [-57.913975, -35.531673], [-57.914519, -35.533333], [-57.918374, -35.539258], [-57.920516, -35.548321], [-57.914947, -35.552503], [-57.909802, -35.553791]]]}, "properties": {"ID": 6, "AREA": 71.231056, "CIRCUNSCRI": 5}}, {"type": "Feature", "geometry": {"type": "Polygon", "coordinates": [[[-57.746596, -35.493947], [-57.870396, -35.595375], [-57.883245, -35.586148], [-57.881534, -35.586312], [-57.870396, -35.57969], [-57.86954, -35.570279], [-57.874252, -35.560868], [-57.878535, -35.558777], [-57.888388, -35.559474], [-57.896527, -35.565748], [-57.902524, -35.568536], [-57.904894, -35.570603], [-57.917723, -35.561391], [-57.909802, -35.553791], [-57.909378, -35.553897], [-57.905523, -35.553897], [-57.894385, -35.544835], [-57.890101, -35.540304], [-57.88796, -35.537864], [-57.887531, -35.528802], [-57.889673, -35.525665], [-57.897384, -35.523574], [-57.905951, -35.523922], [-57.912805, -35.528105], [-57.913975, -35.531673], [-57.927574, -35.522354], [-57.912583, -35.50876], [-57.942565, -35.486105], [-57.965265, -35.50632], [-57.97683, -35.500744], [-57.992677, -35.48715], [-58.002957, -35.49691], [-58.007668, -35.49447], [-57.996532, -35.48471], [-58.001244, -35.481574], [-58.002529, -35.481574], [-58.039792, -35.51364], [-58.071487, -35.544312], [-58.079642, -35.539782], [-58.077501, -35.538388], [-58.080927, -35.532811], [-58.085637, -35.529326], [-58.087779, -35.529326], [-58.097628, -35.522006], [-58.105765, -35.520264], [-58.117328, -35.51643], [-58.122895, -35.516778], [-58.131888, -35.516778], [-58.133173, -35.516778], [-58.134886, -35.516081], [-58.139168, -35.517127], [-58.147305, -35.513641], [-58.149018, -35.508762], [-58.154585, -35.502836], [-58.156726, -35.494471], [-58.161437, -35.493425], [-58.165408, -35.485583], [-58.151719, -35.473035], [-58.194497, -35.440969], [-58.155569, -35.408902], [-58.139741, -35.420404], [-58.089478, -35.375267], [-58.043731, -35.33379], [-58.043731, -35.335881], [-58.041593, -35.338321], [-58.039883, -35.340064], [-58.035608, -35.342503], [-58.03347, -35.346686], [-58.030477, -35.348429], [-58.024919, -35.35296], [-58.020216, -35.350171], [-58.012093, -35.34564], [-58.0091, -35.343898], [-58.008673, -35.339715], [-58.005252, -35.335881], [-58.001832, -35.332395], [-57.997984, -35.333093], [-57.992854, -35.333093], [-57.992426, -35.331698], [-57.987296, -35.330304], [-57.983448, -35.331698], [-57.98131, -35.334487], [-57.977035, -35.338669], [-57.976607, -35.342503], [-57.979172, -35.346337], [-57.975325, -35.346337], [-57.972332, -35.34808], [-57.972332, -35.35052], [-57.970194, -35.352611], [-57.965919, -35.3554], [-57.965064, -35.3554], [-57.956085, -35.357142], [-57.949245, -35.362022], [-57.949672, -35.369342], [-57.947535, -35.372479], [-57.946679, -35.371781], [-57.943687, -35.371084], [-57.942832, -35.372479], [-57.942832, -35.374221], [-57.940266, -35.37457], [-57.934281, -35.375964], [-57.928723, -35.374918], [-57.923165, -35.373524], [-57.918889, -35.371781], [-57.915897, -35.373176], [-57.915897, -35.375615], [-57.912904, -35.378404], [-57.912904, -35.382586], [-57.906491, -35.380844], [-57.898368, -35.380844], [-57.891099, -35.383981], [-57.886824, -35.385375], [-57.885114, -35.392346], [-57.883831, -35.389906], [-57.877846, -35.38642], [-57.873143, -35.385723], [-57.87015, -35.391997], [-57.872288, -35.397574], [-57.869722, -35.398968], [-57.863846, -35.399491], [-57.859995, -35.402628], [-57.857855, -35.404371], [-57.859567, -35.406113], [-57.855288, -35.410296], [-57.853148, -35.412387], [-57.848869, -35.413084], [-57.844589, -35.415524], [-57.839882, -35.41413], [-57.831323, -35.41657], [-57.830895, -35.420752], [-57.827472, -35.429466], [-57.822337, -35.4333], [-57.822337, -35.43574], [-57.81549, -35.439574], [-57.809926, -35.443757], [-57.804791, -35.443757], [-57.800084, -35.443757], [-57.793237, -35.444454], [-57.78853, -35.444105], [-57.783822, -35.440968], [-57.773124, -35.438528], [-57.767561, -35.444105], [-57.769273, -35.451773], [-57.767133, -35.45491], [-57.769273, -35.460835], [-57.766277, -35.461533], [-57.765849, -35.463275], [-57.760286, -35.462578], [-57.756435, -35.460835], [-57.754295, -35.461184], [-57.748304, -35.465367], [-57.741885, -35.468155], [-57.741885, -35.47164], [-57.744025, -35.474777], [-57.740173, -35.474429], [-57.732898, -35.474777], [-57.728191, -35.477217], [-57.746596, -35.493947]]]}, "properties": {"ID": 9, "AREA": 575.87207, "CIRCUNSCRI": 6}}, {"type": "Feature", "geometry": {"type": "Polygon", "coordinates": [[[-57.710822, -35.869991], [-57.707779, -35.874405], [-57.719588, -35.879875], [-57.730553, -35.890815], [-57.730553, -35.901755], [-57.717901, -35.91543], [-57.733927, -35.925686], [-57.743206, -35.925003], [-57.754171, -35.921584], [-57.760919, -35.920216], [-57.768511, -35.924319], [-57.771885, -35.933208], [-57.784537, -35.933208], [-57.803602, -35.934917], [-57.813735, -35.936968], [-57.831467, -35.942438], [-57.839911, -35.958848], [-57.859332, -35.964319], [-57.885508, -35.97184], [-57.88973, -35.975259], [-57.89564, -35.972524], [-57.90324, -35.97184], [-57.905293, -35.976828], [-57.907462, -35.982096], [-57.913372, -35.986882], [-57.926038, -35.984831], [-57.935326, -35.984147], [-57.948837, -35.989617], [-57.945459, -35.993036], [-57.95137, -36.002609], [-57.953903, -36.007395], [-57.94377, -36.003976], [-57.948837, -36.0156], [-57.967413, -36.0156], [-57.970791, -36.021754], [-57.95728, -36.024489], [-57.972479, -36.028591], [-57.982612, -36.02654], [-57.984301, -36.023121], [-57.97839, -36.017651], [-57.980923, -36.014232], [-57.988523, -36.022437], [-57.990211, -36.027224], [-57.993589, -36.032694], [-57.9995, -36.040215], [-58.007099, -36.040215], [-58.011321, -36.040215], [-58.012165, -36.035429], [-58.020609, -36.033377], [-58.02652, -36.029275], [-58.027364, -36.02107], [-58.030742, -36.012181], [-58.029897, -36.01013], [-58.033275, -36.006711], [-58.035808, -35.998506], [-58.025675, -35.992352], [-58.022298, -35.980045], [-58.021454, -35.972524], [-58.013854, -35.967054], [-58.007943, -35.958848], [-58.009632, -35.953378], [-58.017951, -35.944397], [-58.022298, -35.939703], [-58.025675, -35.93902], [-58.030742, -35.935601], [-58.035808, -35.928763], [-58.025675, -35.923293], [-58.023987, -35.921242], [-58.025675, -35.91714], [-58.020609, -35.910986], [-58.016387, -35.902097], [-58.021454, -35.898678], [-58.035438, -35.89657], [-58.035019, -35.89657], [-58.039584, -35.893957], [-58.04271, -35.892168], [-58.04271, -35.886666], [-58.046782, -35.873461], [-58.0409, -35.867959], [-58.032304, -35.866125], [-58.032304, -35.864658], [-58.037733, -35.858056], [-58.035924, -35.854754], [-58.025971, -35.851086], [-58.023708, -35.844851], [-58.011041, -35.840816], [-58.005159, -35.839349], [-58.007421, -35.837148], [-58.013303, -35.838248], [-58.016017, -35.832746], [-58.017827, -35.828345], [-58.020994, -35.827244], [-58.021899, -35.821742], [-58.020994, -35.816974], [-58.024161, -35.814406], [-58.026423, -35.811839], [-58.023256, -35.80597], [-58.026423, -35.80597], [-58.029137, -35.796433], [-58.025518, -35.791665], [-58.022351, -35.785796], [-58.017374, -35.790564], [-58.017374, -35.794232], [-58.021446, -35.797533], [-58.016922, -35.797533], [-58.010136, -35.795333], [-58.006969, -35.792765], [-58.006064, -35.796066], [-58.004707, -35.794599], [-57.999278, -35.796066], [-57.99973, -35.792398], [-57.998825, -35.78763], [-58.009231, -35.786529], [-58.010588, -35.783962], [-58.003802, -35.774425], [-58.00154, -35.774792], [-57.993744, -35.773505], [-57.98583, -35.769653], [-57.983297, -35.777358], [-57.981715, -35.781981], [-57.97665, -35.780183], [-57.972851, -35.786091], [-57.968736, -35.786348], [-57.966204, -35.787632], [-57.963038, -35.786605], [-57.962405, -35.784807], [-57.963038, -35.783266], [-57.966837, -35.780183], [-57.961772, -35.776074], [-57.959873, -35.773249], [-57.956391, -35.773249], [-57.951643, -35.77068], [-57.947528, -35.775046], [-57.943096, -35.776588], [-57.939614, -35.77479], [-57.939297, -35.771964], [-57.937362, -35.770726], [-57.934966, -35.770207], [-57.932729, -35.7693], [-57.931451, -35.768392], [-57.930333, -35.768522], [-57.93193, -35.770596], [-57.931132, -35.772022], [-57.927457, -35.7693], [-57.927457, -35.767744], [-57.929694, -35.766189], [-57.93193, -35.766189], [-57.934806, -35.765281], [-57.937042, -35.76204], [-57.937042, -35.758022], [-57.937042, -35.756077], [-57.936723, -35.75141], [-57.937362, -35.751021], [-57.941995, -35.749855], [-57.943273, -35.748947], [-57.946947, -35.749984], [-57.950302, -35.749984], [-57.953337, -35.751281], [-57.957331, -35.751799], [-57.958449, -35.753614], [-57.960526, -35.75504], [-57.962089, -35.757067], [-57.96652, -35.762204], [-57.967154, -35.7658], [-57.971902, -35.767598], [-57.976967, -35.762461], [-57.977916, -35.761433], [-57.979499, -35.761177], [-57.981715, -35.758608], [-57.9289, -35.717576], [-57.926664, -35.718613], [-57.864036, -35.763316], [-57.82638, -35.79083], [-57.832934, -35.795914], [-57.807288, -35.816485], [-57.79532, -35.80932], [-57.789621, -35.803542], [-57.76882, -35.821108], [-57.710822, -35.869991]], [[-57.881139, -35.775202], [-57.878216, -35.780659], [-57.874124, -35.782557], [-57.868277, -35.783743], [-57.865647, -35.784929], [-57.863893, -35.787302], [-57.858339, -35.788013], [-57.858046, -35.788488], [-57.853954, -35.789437], [-57.849569, -35.789437], [-57.846938, -35.790623], [-57.846354, -35.788488], [-57.847815, -35.784929], [-57.846354, -35.779947], [-57.847815, -35.778049], [-57.848692, -35.778049], [-57.851323, -35.776863], [-57.851031, -35.774491], [-57.851908, -35.774253], [-57.854539, -35.771881], [-57.855416, -35.771881], [-57.858046, -35.769034], [-57.86097, -35.771407], [-57.863016, -35.769509], [-57.867693, -35.773067], [-57.869447, -35.773067], [-57.870324, -35.769509], [-57.875878, -35.769746], [-57.879093, -35.772118], [-57.879093, -35.774016], [-57.881139, -35.775202]]]}, "properties": {"ID": 53, "AREA": 570.614624, "CIRCUNSCRI": 9}}, {"type": "Feature", "geometry": {"type": "Polygon", "coordinates": [[[-58.017951, -35.944397], [-58.020978, -35.94713], [-58.027304, -35.950204], [-58.034896, -35.950204], [-58.038691, -35.944568], [-58.045018, -35.94508], [-58.053875, -35.94713], [-58.060834, -35.951741], [-58.073486, -35.951229], [-58.089935, -35.949692], [-58.086772, -35.945592], [-58.087404, -35.936882], [-58.098159, -35.936369], [-58.106383, -35.935857], [-58.109546, -35.931758], [-58.106383, -35.927146], [-58.100057, -35.92151], [-58.106383, -35.918436], [-58.117138, -35.917923], [-58.129791, -35.910237], [-58.134852, -35.903576], [-58.133587, -35.895378], [-58.148137, -35.887179], [-58.148137, -35.881031], [-58.141811, -35.875907], [-58.148137, -35.868221], [-58.1513, -35.864634], [-58.154463, -35.867196], [-58.165218, -35.865659], [-58.172177, -35.865659], [-58.176606, -35.865659], [-58.186095, -35.86156], [-58.187534, -35.853105], [-58.199543, -35.841832], [-58.209024, -35.838245], [-58.197015, -35.829535], [-58.202071, -35.824411], [-58.217872, -35.821336], [-58.223561, -35.816725], [-58.221665, -35.821336], [-58.221665, -35.825948], [-58.234306, -35.825948], [-58.245682, -35.818262], [-58.251371, -35.819287], [-58.265908, -35.824923], [-58.265908, -35.833634], [-58.272228, -35.842345], [-58.272228, -35.848493], [-58.2697, -35.856692], [-58.277285, -35.861303], [-58.28803, -35.856179], [-58.293086, -35.852592], [-58.302567, -35.857716], [-58.307623, -35.866427], [-58.317736, -35.868477], [-58.325952, -35.863353], [-58.334801, -35.863865], [-58.343018, -35.856692], [-58.339857, -35.844394], [-58.344282, -35.841832], [-58.353762, -35.840295], [-58.361979, -35.836196], [-58.369564, -35.833634], [-58.375252, -35.829535], [-58.377148, -35.825435], [-58.382205, -35.820312], [-58.392317, -35.818262], [-58.408119, -35.820312], [-58.414439, -35.81365], [-58.417599, -35.805964], [-58.417599, -35.799303], [-58.413807, -35.795204], [-58.413807, -35.79213], [-58.420127, -35.787006], [-58.427712, -35.781369], [-58.427712, -35.776246], [-58.440353, -35.769584], [-58.440985, -35.769072], [-58.451014, -35.770097], [-58.452907, -35.762411], [-58.451014, -35.758824], [-58.44723, -35.75575], [-58.452276, -35.748576], [-58.449122, -35.74089], [-58.43966, -35.73218], [-58.433352, -35.73013], [-58.339997, -35.652246], [-58.332752, -35.637661], [-58.326593, -35.645169], [-58.306961, -35.657058], [-58.300032, -35.669886], [-58.29469, -35.681774], [-58.290836, -35.68897], [-58.285827, -35.707116], [-58.282745, -35.712435], [-58.282359, -35.714938], [-58.282359, -35.716815], [-58.282359, -35.719005], [-58.28313, -35.724011], [-58.284286, -35.733084], [-58.284286, -35.735274], [-58.276194, -35.741218], [-58.266176, -35.748414], [-58.255001, -35.7578], [-58.249221, -35.760929], [-58.251148, -35.76656], [-58.249367, -35.769742], [-58.249966, -35.770532], [-58.248003, -35.788453], [-58.255366, -35.800002], [-58.249475, -35.803586], [-58.232294, -35.801993], [-58.219531, -35.806373], [-58.210695, -35.809559], [-58.205295, -35.816728], [-58.196459, -35.817524], [-58.186641, -35.815135], [-58.194496, -35.796019], [-58.200877, -35.78009], [-58.208732, -35.775311], [-58.20759, -35.769753], [-58.202018, -35.767342], [-58.198547, -35.766091], [-58.196618, -35.766404], [-58.192761, -35.761711], [-58.191604, -35.757643], [-58.183886, -35.763065], [-58.154193, -35.783924], [-58.127967, -35.760146], [-58.100584, -35.737307], [-58.071993, -35.712279], [-58.02623, -35.673445], [-58.024385, -35.675004], [-58.019959, -35.676802], [-58.019485, -35.678215], [-58.020749, -35.67937], [-58.019643, -35.680269], [-58.014743, -35.681425], [-58.010633, -35.677829], [-58.009527, -35.681425], [-58.010317, -35.683737], [-58.012533, -35.686049], [-58.019173, -35.684251], [-58.022967, -35.685535], [-58.025813, -35.686562], [-58.028342, -35.686819], [-58.028026, -35.690158], [-58.027078, -35.693754], [-58.028975, -35.697607], [-58.035615, -35.700432], [-58.033401, -35.70146], [-58.025497, -35.703257], [-58.016011, -35.696579], [-58.010319, -35.691699], [-58.008106, -35.691699], [-58.005892, -35.689131], [-58.00273, -35.68759], [-58.001782, -35.689901], [-58.002098, -35.694011], [-58.002098, -35.697093], [-58.002098, -35.700432], [-57.998304, -35.705055], [-58.001149, -35.709165], [-57.998936, -35.713531], [-57.99609, -35.71687], [-57.993877, -35.71687], [-57.993877, -35.720005], [-57.993877, -35.722264], [-57.990247, -35.730612], [-57.985503, -35.732923], [-57.982972, -35.731125], [-57.98234, -35.736005], [-57.982656, -35.740115], [-57.983921, -35.743968], [-57.983921, -35.744995], [-57.98488, -35.748591], [-57.982664, -35.750132], [-57.985197, -35.752444], [-57.988995, -35.753985], [-57.99501, -35.754499], [-58.000075, -35.758865], [-58.001657, -35.765286], [-57.996277, -35.769193], [-57.99792, -35.771857], [-58.005159, -35.77039], [-58.011493, -35.764888], [-58.031852, -35.781394], [-58.035471, -35.781394], [-58.035471, -35.77846], [-58.039543, -35.778827], [-58.041353, -35.782861], [-58.047687, -35.785429], [-58.053568, -35.785062], [-58.058997, -35.788363], [-58.05583, -35.787997], [-58.047687, -35.792765], [-58.039996, -35.7979], [-58.037733, -35.802669], [-58.040448, -35.805236], [-58.050854, -35.810738], [-58.048139, -35.810738], [-58.042258, -35.810005], [-58.035019, -35.812206], [-58.034567, -35.813306], [-58.034567, -35.81624], [-58.032757, -35.81624], [-58.026875, -35.817708], [-58.024613, -35.821376], [-58.025971, -35.82431], [-58.023256, -35.829078], [-58.024613, -35.833113], [-58.029137, -35.837515], [-58.032304, -35.840816], [-58.032304, -35.847418], [-58.034114, -35.848152], [-58.038638, -35.842283], [-58.041805, -35.840449], [-58.04271, -35.848152], [-58.047234, -35.858789], [-58.045425, -35.860623], [-58.040448, -35.863191], [-58.039543, -35.865759], [-58.047687, -35.866859], [-58.053568, -35.862091], [-58.059902, -35.864291], [-58.063974, -35.867959], [-58.071213, -35.870894], [-58.07076, -35.873828], [-58.063522, -35.874929], [-58.062164, -35.880431], [-58.063522, -35.886299], [-58.063522, -35.891801], [-58.065331, -35.895103], [-58.060355, -35.895469], [-58.057188, -35.895469], [-58.057188, -35.89657], [-58.057808, -35.904823], [-58.058261, -35.90739], [-58.048292000000004, -35.907757], [-58.038323, -35.904456], [-58.031073, -35.899321], [-58.035438, -35.89657], [-58.021454, -35.898678], [-58.016387, -35.902097], [-58.020609, -35.910986], [-58.025675, -35.91714], [-58.023987, -35.921242], [-58.025675, -35.923293], [-58.035808, -35.928763], [-58.030742, -35.935601], [-58.025675, -35.93902], [-58.022298, -35.939703], [-58.017951, -35.944397]]]}, "properties": {"ID": 56, "AREA": 577.626587, "CIRCUNSCRI": 10}}, {"type": "Feature", "geometry": {"type": "Polygon", "coordinates": [[[-57.728191, -35.477217], [-57.720279, -35.479787], [-57.7159, -35.479238], [-57.707477, -35.479238], [-57.699391, -35.48061], [-57.691979, -35.485274], [-57.682209, -35.484725], [-57.679514, -35.478964], [-57.679177, -35.474026], [-57.675134, -35.469636], [-57.669238, -35.464835], [-57.663173, -35.464835], [-57.655424, -35.463464], [-57.64936, -35.466756], [-57.64397, -35.466756], [-57.638242, -35.467853], [-57.628135, -35.469225], [-57.624092, -35.468676], [-57.621397, -35.46703], [-57.618365, -35.464012], [-57.611963, -35.464287], [-57.610616, -35.460172], [-57.607584, -35.4588], [-57.601856, -35.461818], [-57.596803, -35.460172], [-57.589054, -35.456605], [-57.583326, -35.45688], [-57.580631, -35.458251], [-57.573893, -35.457703], [-57.56446, -35.457703], [-57.56109, -35.45688], [-57.555363, -35.456057], [-57.551657, -35.459623], [-57.547614, -35.462915], [-57.549299, -35.46511], [-57.550983, -35.467853], [-57.550309, -35.470597], [-57.547951, -35.468402], [-57.545593, -35.468676], [-57.545593, -35.469774], [-57.541213, -35.471968], [-57.539865, -35.471968], [-57.534812, -35.472791], [-57.531443, -35.471694], [-57.524368, -35.471694], [-57.520643, -35.473327], [-57.516619, -35.470597], [-57.511902, -35.469499], [-57.50887, -35.467853], [-57.50449, -35.468951], [-57.499773, -35.468128], [-57.512576, -35.491446], [-57.525041, -35.488154], [-57.547627, -35.507632], [-57.64478, -35.592678], [-57.6836, -35.625324], [-57.682587, -35.629714], [-57.682587, -35.636572], [-57.68495, -35.642059], [-57.694402, -35.634377], [-57.752182, -35.684307], [-57.786651, -35.71613], [-57.79983, -35.706802], [-57.83174, -35.734889], [-57.835538, -35.736533], [-57.838169, -35.737956], [-57.83963, -35.739854], [-57.840558, -35.742651], [-57.864036, -35.763316], [-57.926664, -35.718613], [-57.908455, -35.701242], [-57.900068, -35.693548], [-57.887424, -35.700657], [-57.879099, -35.693571], [-57.873153, -35.697436], [-57.808538, -35.64139], [-57.867157, -35.598443], [-57.870396, -35.595375], [-57.746596, -35.493947], [-57.728191, -35.477217]], [[-57.520643, -35.473327], [-57.520662, -35.47334], [-57.519988, -35.473614], [-57.520643, -35.473327]], [[-57.874124, -35.72562], [-57.867985, -35.727043], [-57.867108, -35.72989], [-57.860385, -35.72989], [-57.857754, -35.733448], [-57.854539, -35.734397], [-57.852492, -35.732262], [-57.851615, -35.728941], [-57.8522, -35.724671], [-57.857754, -35.721824], [-57.859216, -35.719451], [-57.862723, -35.718502], [-57.865354, -35.718028], [-57.870031, -35.718977], [-57.873247, -35.722535], [-57.874124, -35.72562]]]}, "properties": {"ID": 33, "AREA": 468.732147, "CIRCUNSCRI": 7}}, {"type": "Feature", "geometry": {"type": "Polygon", "coordinates": [[[-57.499773, -35.468128], [-57.495541, -35.469443], [-57.495257, -35.472679], [-57.490715, -35.472679], [-57.490715, -35.469674], [-57.488728, -35.466669], [-57.487593, -35.462278], [-57.484754, -35.462278], [-57.483335, -35.465051], [-57.487593, -35.469905], [-57.486173, -35.473372], [-57.481348, -35.473372], [-57.481348, -35.480537], [-57.479644, -35.483311], [-57.47567, -35.484004], [-57.477941, -35.485622], [-57.479928, -35.489782], [-57.469993, -35.492556], [-57.46176, -35.49348], [-57.458922, -35.496485], [-57.466586, -35.499952], [-57.46955, -35.501686], [-57.464722, -35.503072], [-57.451655, -35.504921], [-57.44569, -35.509082], [-57.439441, -35.510931], [-57.434328, -35.518327], [-57.436316, -35.52295], [-57.443133, -35.525492], [-57.442565, -35.528728], [-57.441997, -35.531501], [-57.446258, -35.53127], [-57.445406, -35.53936], [-57.452223, -35.543751], [-57.451371, -35.550223], [-57.449951, -35.552534], [-57.449951, -35.555077], [-57.455348, -35.554383], [-57.458472, -35.55577], [-57.458472, -35.560162], [-57.452791, -35.560624], [-57.451371, -35.566402], [-57.454212, -35.57218], [-57.451927, -35.579114], [-57.45676, -35.586279], [-57.461594, -35.586279], [-57.462731, -35.587665], [-57.462731, -35.596217], [-57.45676, -35.598066], [-57.453348, -35.599222], [-57.451074, -35.601533], [-57.44624, -35.60916], [-57.439985, -35.611241], [-57.429181, -35.61309], [-57.425484, -35.616094], [-57.428896, -35.61933], [-57.427475, -35.624646], [-57.429749, -35.627651], [-57.435436, -35.622566], [-57.436004, -35.624877], [-57.439701, -35.631118], [-57.43982, -35.635856], [-57.432422, -35.64071], [-57.424456, -35.644177], [-57.421895, -35.643483], [-57.416489, -35.644639], [-57.414497, -35.646026], [-57.411652, -35.652729], [-57.415635, -35.652729], [-57.417911, -35.654346], [-57.414497, -35.6592], [-57.411083, -35.658045], [-57.410229, -35.661049], [-57.409376, -35.664978], [-57.405677, -35.665903], [-57.403116, -35.661974], [-57.400271, -35.666134], [-57.393727, -35.668677], [-57.392588, -35.66937], [-57.395434, -35.670988], [-57.391166, -35.672837], [-57.385475, -35.670988], [-57.385191, -35.67353], [-57.386613, -35.676304], [-57.382061, -35.676304], [-57.384622, -35.677922], [-57.381492, -35.679771], [-57.380354, -35.679309], [-57.376939, -35.676535], [-57.374379, -35.679077], [-57.372672, -35.679309], [-57.37381, -35.676304], [-57.375801, -35.673993], [-57.366981, -35.677228], [-57.368404, -35.680695], [-57.370395, -35.68162], [-57.370395, -35.684393], [-57.374663, -35.682313], [-57.373241, -35.684625], [-57.37068, -35.687167], [-57.374663, -35.68578], [-57.373847, -35.689016], [-57.37584, -35.691328], [-57.37584, -35.694101], [-57.379826, -35.695257], [-57.378972, -35.696644], [-57.376979, -35.699879], [-57.376694, -35.700804], [-57.378687, -35.705427], [-57.375555, -35.708894], [-57.379826, -35.71028], [-57.38068, -35.712592], [-57.376694, -35.713285], [-57.375555, -35.712361], [-57.373562, -35.709587], [-57.371285, -35.712361], [-57.370715, -35.710974], [-57.367298, -35.710743], [-57.366444, -35.711898], [-57.364167, -35.709587], [-57.36075, -35.7082], [-57.356764, -35.712823], [-57.352208, -35.714903], [-57.347937, -35.71629], [-57.346229, -35.719526], [-57.348792, -35.723455], [-57.36018, -35.741252], [-57.363597, -35.743794], [-57.367583, -35.744025], [-57.373562, -35.745412], [-57.381535, -35.74495], [-57.384097, -35.741252], [-57.386375, -35.736629], [-57.389222, -35.738478], [-57.394632, -35.738016], [-57.394062, -35.744257], [-57.399187, -35.745643], [-57.401465, -35.744719], [-57.408298, -35.743101], [-57.407729, -35.747261], [-57.400611, -35.753271], [-57.399187, -35.756275], [-57.40175, -35.758355], [-57.407159, -35.758355], [-57.407063, -35.763556], [-57.404783, -35.767485], [-57.407918, -35.767716], [-57.410768, -35.767485], [-57.411338, -35.764018], [-57.413902, -35.761938], [-57.413902, -35.767023], [-57.418177, -35.771183], [-57.421882, -35.774188], [-57.425872, -35.773725], [-57.426727, -35.776499], [-57.421597, -35.77881], [-57.421882, -35.783202], [-57.423592, -35.783664], [-57.429577, -35.783895], [-57.431857, -35.783433], [-57.436416, -35.782277], [-57.439836, -35.782277], [-57.442116, -35.776961], [-57.446106, -35.778579], [-57.449811, -35.778579], [-57.452945, -35.776037], [-57.457505, -35.778348], [-57.45494, -35.782046], [-57.453515, -35.782971], [-57.45551, -35.787593], [-57.458075, -35.787593], [-57.456935, -35.783895], [-57.45836, -35.783664], [-57.463775, -35.785513], [-57.465485, -35.78274], [-57.46805, -35.779273], [-57.472324, -35.781584], [-57.475744, -35.784357], [-57.474604, -35.787824], [-57.477454, -35.790136], [-57.480304, -35.793372], [-57.480589, -35.79707], [-57.477454, -35.79707], [-57.475744, -35.798919], [-57.477739, -35.801461], [-57.479734, -35.804004], [-57.480874, -35.807008], [-57.489709, -35.812787], [-57.490564, -35.821107], [-57.487144, -35.826423], [-57.489709, -35.826423], [-57.498828, -35.827579], [-57.501678, -35.825268], [-57.509943, -35.825268], [-57.517352, -35.831046], [-57.519347, -35.829659], [-57.523337, -35.831508], [-57.521342, -35.838211], [-57.525646, -35.840985], [-57.53306, -35.844221], [-57.543895, -35.847225], [-57.547317, -35.846532], [-57.549313, -35.84399], [-57.55416, -35.845839], [-57.556441, -35.847457], [-57.561003, -35.854159], [-57.56471, -35.856008], [-57.569272, -35.856008], [-57.573549, -35.852773], [-57.575545, -35.848612], [-57.57469, -35.843296], [-57.576115, -35.841909], [-57.576971, -35.839367], [-57.580107, -35.834976], [-57.583814, -35.832895], [-57.587236, -35.831277], [-57.591227, -35.83174], [-57.5975, -35.831046], [-57.601777, -35.832664], [-57.60748, -35.83174], [-57.614323, -35.833127], [-57.6186, -35.831277], [-57.624588, -35.834282], [-57.634283, -35.836593], [-57.645973, -35.837056], [-57.65025, -35.840292], [-57.65025, -35.842372], [-57.652531, -35.850692], [-57.656238, -35.850692], [-57.658082, -35.849421], [-57.661218, -35.845954], [-57.661788, -35.843874], [-57.664068, -35.842487], [-57.671766, -35.839944], [-57.675187, -35.836015], [-57.676897, -35.836015], [-57.679748, -35.832548], [-57.681744, -35.83093], [-57.685735, -35.831624], [-57.690296, -35.835322], [-57.697423, -35.835784], [-57.700844, -35.83486], [-57.706546, -35.832086], [-57.709682, -35.837171], [-57.711392, -35.843642], [-57.710252, -35.851732], [-57.708827, -35.860977], [-57.710822, -35.869991], [-57.76882, -35.821108], [-57.789621, -35.803542], [-57.79532, -35.80932], [-57.807288, -35.816485], [-57.832934, -35.795914], [-57.82638, -35.79083], [-57.864036, -35.763316], [-57.840558, -35.742651], [-57.841677, -35.746022], [-57.838461, -35.746497], [-57.833492, -35.74531], [-57.830276, -35.748869], [-57.821214, -35.748869], [-57.817122, -35.745073], [-57.817707, -35.74104], [-57.822125, -35.73723], [-57.826768, -35.735346], [-57.831153, -35.734635], [-57.83174, -35.734889], [-57.79983, -35.706802], [-57.786651, -35.71613], [-57.752182, -35.684307], [-57.694402, -35.634377], [-57.68495, -35.642059], [-57.682587, -35.636572], [-57.682587, -35.629714], [-57.6836, -35.625324], [-57.64478, -35.592678], [-57.547627, -35.507632], [-57.525041, -35.488154], [-57.512576, -35.491446], [-57.499773, -35.468128]], [[-57.816245, -35.771644], [-57.814199, -35.773542], [-57.80806, -35.776151], [-57.805762, -35.777847], [-57.803675, -35.77971], [-57.802214, -35.782082], [-57.798998, -35.778761], [-57.794614, -35.778998], [-57.79286, -35.773779], [-57.795198, -35.769034], [-57.79666, -35.768797], [-57.800168, -35.766187], [-57.804552, -35.764527], [-57.808352, -35.762154], [-57.814783, -35.763578], [-57.815953, -35.766899], [-57.816245, -35.76856], [-57.816245, -35.771644]], [[-57.588862, -35.745161], [-57.583477, -35.743954], [-57.579577, -35.746216], [-57.583477, -35.741994], [-57.583662, -35.740487], [-57.581619, -35.742145], [-57.577905, -35.741693], [-57.578277, -35.738074], [-57.575119, -35.739883], [-57.573076, -35.736868], [-57.570476, -35.737471], [-57.573819, -35.734154], [-57.571591, -35.732797], [-57.568248, -35.733702], [-57.567134, -35.732797], [-57.569548, -35.730988], [-57.574562, -35.729932], [-57.570291, -35.725861], [-57.566391, -35.726163], [-57.562491, -35.725258], [-57.557476, -35.721036], [-57.557476, -35.716513], [-57.559148, -35.716513], [-57.558219, -35.712744], [-57.553948, -35.707919], [-57.553762, -35.700983], [-57.554133, -35.700681], [-57.561748, -35.696761], [-57.564905, -35.698872], [-57.566391, -35.70038], [-57.568805, -35.703395], [-57.572334, -35.706109], [-57.570662, -35.709276], [-57.568062, -35.71003], [-57.565091, -35.714402], [-57.563048, -35.715307], [-57.563976, -35.717418], [-57.566576, -35.719981], [-57.569919, -35.722996], [-57.573262, -35.724353], [-57.575677, -35.72375], [-57.576234, -35.720886], [-57.575677, -35.716513], [-57.576977, -35.715005], [-57.580134, -35.715608], [-57.581805, -35.718775], [-57.583662, -35.71983], [-57.581991, -35.721036], [-57.578277, -35.720584], [-57.576977, -35.724806], [-57.575491, -35.728575], [-57.580877, -35.729631], [-57.583662, -35.727067], [-57.585148, -35.730686], [-57.587377, -35.731892], [-57.588305, -35.732495], [-57.586262, -35.73536], [-57.580134, -35.733098], [-57.575862, -35.731892], [-57.575491, -35.733852], [-57.578277, -35.736416], [-57.582177, -35.735963], [-57.586448, -35.737169], [-57.587748, -35.738225], [-57.588862, -35.745161]], [[-57.542805, -35.72767], [-57.540762, -35.730384], [-57.542062, -35.731892], [-57.54299, -35.732194], [-57.544105, -35.728575], [-57.545033, -35.727821], [-57.546705, -35.729027], [-57.548933, -35.730083], [-57.549305, -35.727218], [-57.548933, -35.725861], [-57.550605, -35.724052], [-57.553205, -35.72556], [-57.555248, -35.727972], [-57.555619, -35.730988], [-57.555433, -35.733551], [-57.552833, -35.736717], [-57.551162, -35.734154], [-57.548005, -35.73536], [-57.546147, -35.735662], [-57.542805, -35.738376], [-57.540204, -35.741391], [-57.535933, -35.741844], [-57.532219, -35.740939], [-57.532219, -35.742748], [-57.529619, -35.743954], [-57.525161, -35.745161], [-57.523676, -35.742748], [-57.521818, -35.741693], [-57.52349, -35.738526], [-57.522933, -35.734908], [-57.52219, -35.733551], [-57.522376, -35.729631], [-57.524976, -35.731289], [-57.527947, -35.732495], [-57.528133, -35.734003], [-57.53129, -35.731591], [-57.527761, -35.728575], [-57.528319, -35.727369], [-57.530547, -35.728575], [-57.533519, -35.728575], [-57.537419, -35.727821], [-57.537419, -35.726615], [-57.541505, -35.726464], [-57.542805, -35.72767]], [[-57.529532, -35.710858], [-57.52749, -35.71312], [-57.525076, -35.713271], [-57.523219, -35.714929], [-57.519691, -35.718548], [-57.514121, -35.719453], [-57.512078, -35.71885], [-57.51115, -35.715985], [-57.509478, -35.715231], [-57.508179, -35.718548], [-57.508736, -35.719302], [-57.50725, -35.720508], [-57.506879, -35.720056], [-57.506322, -35.718096], [-57.502794, -35.720056], [-57.504279, -35.721262], [-57.500194, -35.721564], [-57.496852, -35.722317], [-57.501308, -35.720357], [-57.500009, -35.720357], [-57.497966, -35.719453], [-57.498152, -35.717643], [-57.501123, -35.719], [-57.502794, -35.717191], [-57.49908, -35.716286], [-57.500194, -35.713572], [-57.497966, -35.712517], [-57.496109, -35.714025], [-57.497038, -35.71508], [-57.496666, -35.716588], [-57.495181, -35.718096], [-57.495552, -35.717191], [-57.492953, -35.714477], [-57.493324, -35.712215], [-57.487754, -35.711311], [-57.485525, -35.707541], [-57.480326, -35.706486], [-57.47587, -35.704827], [-57.472156, -35.702867], [-57.469928, -35.701812], [-57.468628, -35.701963], [-57.468628, -35.700907], [-57.469, -35.698344], [-57.465843, -35.701963], [-57.463243, -35.701661], [-57.4638, -35.700756], [-57.467514, -35.694122], [-57.469557, -35.691107], [-57.473642, -35.690353], [-57.475127, -35.693067], [-57.479955, -35.693217], [-57.480326, -35.692464], [-57.481626, -35.688845], [-57.482926, -35.68794], [-57.486639, -35.687639], [-57.493138, -35.690654], [-57.49221, -35.693821], [-57.493138, -35.698947], [-57.498895, -35.701812], [-57.502794, -35.703169], [-57.50168, -35.704677], [-57.505393, -35.706486], [-57.502794, -35.707692], [-57.502237, -35.710708], [-57.503908, -35.714477], [-57.504465, -35.715231], [-57.50595, -35.713271], [-57.504651, -35.709954], [-57.510035, -35.708144], [-57.513006, -35.708597], [-57.518391, -35.709501], [-57.519505, -35.711461], [-57.522476, -35.710104], [-57.523962, -35.7092], [-57.529532, -35.710858]], [[-57.517988, -35.746566], [-57.516371, -35.747616], [-57.515724, -35.748141], [-57.513138, -35.747529], [-57.507857, -35.747529], [-57.5029, -35.747704], [-57.499128, -35.744117], [-57.497296, -35.74193], [-57.49805, -35.739044], [-57.500206, -35.737294], [-57.504301, -35.733883], [-57.508181, -35.734495], [-57.513785, -35.738519], [-57.516802, -35.740618], [-57.517664, -35.74368], [-57.517988, -35.746566]], [[-57.574757, -35.742446], [-57.5742, -35.745763], [-57.568627, -35.748176], [-57.56584, -35.749231], [-57.565654, -35.752247], [-57.563053, -35.752548], [-57.562124, -35.751191], [-57.558594, -35.753453], [-57.553578, -35.753453], [-57.549305, -35.753302], [-57.548933, -35.756167], [-57.543917, -35.757373], [-57.540016, -35.756016], [-57.538344, -35.755111], [-57.537972, -35.750437], [-57.542988, -35.750588], [-57.547819, -35.748779], [-57.549862, -35.748327], [-57.553021, -35.748025], [-57.555064, -35.747723], [-57.556179, -35.749985], [-57.558594, -35.74908], [-57.562124, -35.74908], [-57.564911, -35.749533], [-57.562124, -35.74712], [-57.562681, -35.740788], [-57.563053, -35.739581], [-57.565097, -35.742145], [-57.566397, -35.74124], [-57.564725, -35.740486], [-57.567512, -35.739129], [-57.568338, -35.739613], [-57.572156, -35.741089], [-57.574757, -35.742446]], [[-57.484597, -35.709803], [-57.479955, -35.711311], [-57.484226, -35.711763], [-57.484226, -35.714175], [-57.479026, -35.713271], [-57.479955, -35.715532], [-57.477727, -35.71704], [-57.473456, -35.717643], [-57.471971, -35.719151], [-57.466957, -35.718548], [-57.463986, -35.718548], [-57.461944, -35.716437], [-57.463058, -35.714628], [-57.464915, -35.713723], [-57.4677, -35.710104], [-57.467885, -35.708446], [-57.469371, -35.707089], [-57.467885, -35.70543], [-57.469928, -35.704375], [-57.472528, -35.706335], [-57.473085, -35.70724], [-57.476427, -35.706184], [-57.477541, -35.707089], [-57.477912, -35.708295], [-57.480883, -35.709501], [-57.484597, -35.709803]]]}, "properties": {"ID": 47, "AREA": 978.891846, "CIRCUNSCRI": 8}}, {"type": "Feature", "geometry": {"type": "MultiPolygon", "coordinates": [[[[-57.905293, -35.976828], [-57.902479, -35.987284], [-57.911794, -35.994028], [-57.926503, -35.990854], [-57.931896, -35.993631], [-57.937779, -36.005532], [-57.93876, -36.009498], [-57.940721, -36.020209], [-57.93827, -36.03211], [-57.937289, -36.03687], [-57.944153, -36.03687], [-57.949056, -36.030126], [-57.945134, -36.024176], [-57.946605, -36.019812], [-57.95641, -36.028936], [-57.959842, -36.027349], [-57.95728, -36.024489], [-57.970791, -36.021754], [-57.967413, -36.0156], [-57.948837, -36.0156], [-57.94377, -36.003976], [-57.953903, -36.007395], [-57.95137, -36.002609], [-57.945459, -35.993036], [-57.948837, -35.989617], [-57.935326, -35.984147], [-57.926038, -35.984831], [-57.913372, -35.986882], [-57.907462, -35.982096], [-57.905293, -35.976828]]], [[[-57.993744, -35.773505], [-58.00154, -35.774792], [-58.003802, -35.774425], [-58.010588, -35.783962], [-58.009231, -35.786529], [-57.998825, -35.78763], [-57.99973, -35.792398], [-57.999278, -35.796066], [-58.004707, -35.794599], [-58.006064, -35.796066], [-58.006969, -35.792765], [-58.010136, -35.795333], [-58.016922, -35.797533], [-58.021446, -35.797533], [-58.017374, -35.794232], [-58.017374, -35.790564], [-58.022351, -35.785796], [-58.025518, -35.791665], [-58.029137, -35.796433], [-58.026423, -35.80597], [-58.023256, -35.80597], [-58.026423, -35.811839], [-58.024161, -35.814406], [-58.020994, -35.816974], [-58.021899, -35.821742], [-58.020994, -35.827244], [-58.017827, -35.828345], [-58.016017, -35.832746], [-58.013303, -35.838248], [-58.007421, -35.837148], [-58.005159, -35.839349], [-58.011041, -35.840816], [-58.023708, -35.844851], [-58.025971, -35.851086], [-58.035924, -35.854754], [-58.037733, -35.858056], [-58.032304, -35.864658], [-58.032304, -35.866125], [-58.0409, -35.867959], [-58.046782, -35.873461], [-58.04271, -35.886666], [-58.04271, -35.892168], [-58.039584, -35.893957], [-58.035438, -35.89657], [-58.031073, -35.899321], [-58.038323, -35.904456], [-58.048292000000004, -35.907757], [-58.058261, -35.90739], [-58.057808, -35.904823], [-58.057188, -35.89657], [-58.057188, -35.895469], [-58.060355, -35.895469], [-58.065331, -35.895103], [-58.063522, -35.891801], [-58.063522, -35.886299], [-58.062164, -35.880431], [-58.063522, -35.874929], [-58.07076, -35.873828], [-58.071213, -35.870894], [-58.063974, -35.867959], [-58.059902, -35.864291], [-58.053568, -35.862091], [-58.047687, -35.866859], [-58.039543, -35.865759], [-58.040448, -35.863191], [-58.045425, -35.860623], [-58.047234, -35.858789], [-58.04271, -35.848152], [-58.041805, -35.840449], [-58.038638, -35.842283], [-58.034114, -35.848152], [-58.032304, -35.847418], [-58.032304, -35.840816], [-58.029137, -35.837515], [-58.024613, -35.833113], [-58.023256, -35.829078], [-58.025971, -35.82431], [-58.024613, -35.821376], [-58.026875, -35.817708], [-58.032757, -35.81624], [-58.034567, -35.81624], [-58.034567, -35.813306], [-58.035019, -35.812206], [-58.042258, -35.810005], [-58.048139, -35.810738], [-58.050854, -35.810738], [-58.040448, -35.805236], [-58.037733, -35.802669], [-58.039996, -35.7979], [-58.047687, -35.792765], [-58.05583, -35.787997], [-58.058997, -35.788363], [-58.053568, -35.785062], [-58.047687, -35.785429], [-58.041353, -35.782861], [-58.039543, -35.778827], [-58.035471, -35.77846], [-58.035471, -35.781394], [-58.031852, -35.781394], [-58.011493, -35.764888], [-58.005159, -35.77039], [-57.99792, -35.771857], [-57.996277, -35.769193], [-58.001657, -35.765286], [-58.000075, -35.758865], [-57.99501, -35.754499], [-57.988995, -35.753985], [-57.985197, -35.752444], [-57.982664, -35.750132], [-57.98488, -35.748591], [-57.983921, -35.744995], [-57.983921, -35.743968], [-57.982656, -35.740115], [-57.98234, -35.736005], [-57.982972, -35.731125], [-57.985503, -35.732923], [-57.990247, -35.730612], [-57.993877, -35.722264], [-57.993877, -35.720005], [-57.993877, -35.71687], [-57.99609, -35.71687], [-57.998936, -35.713531], [-58.001149, -35.709165], [-57.998304, -35.705055], [-58.002098, -35.700432], [-58.002098, -35.697093], [-58.002098, -35.694011], [-58.001782, -35.689901], [-58.00273, -35.68759], [-58.005892, -35.689131], [-58.008106, -35.691699], [-58.010319, -35.691699], [-58.016011, -35.696579], [-58.025497, -35.703257], [-58.033401, -35.70146], [-58.035615, -35.700432], [-58.028975, -35.697607], [-58.027078, -35.693754], [-58.028026, -35.690158], [-58.028342, -35.686819], [-58.025813, -35.686562], [-58.022967, -35.685535], [-58.019173, -35.684251], [-58.012533, -35.686049], [-58.010317, -35.683737], [-58.009527, -35.681425], [-58.010633, -35.677829], [-58.014743, -35.681425], [-58.019643, -35.680269], [-58.020749, -35.67937], [-58.019485, -35.678215], [-58.019959, -35.676802], [-58.024385, -35.675004], [-58.02623, -35.673445], [-58.028336, -35.671665], [-58.027072, -35.671793], [-58.024701, -35.670252], [-58.02319, -35.670866], [-58.018604, -35.666973], [-58.017904, -35.665886], [-58.01664, -35.661776], [-58.010733, -35.660336], [-58.010317, -35.660235], [-58.01022, -35.65992], [-58.009527, -35.657667000000004], [-58.005575, -35.653557], [-58.002208, -35.647192], [-57.999955, -35.651583], [-57.999727, -35.655098], [-58.001308, -35.66229], [-57.999727, -35.665886], [-57.994036, -35.67205], [-57.988028, -35.673078], [-57.985499, -35.675133], [-57.986447, -35.682068], [-57.983601, -35.687975], [-57.976962, -35.689516], [-57.966527, -35.689516], [-57.959255, -35.69003], [-57.956009, -35.69303], [-57.952233, -35.693619], [-57.951059, -35.692665], [-57.952401, -35.689532], [-57.950891, -35.685717], [-57.948208, -35.682039], [-57.944183, -35.677407], [-57.939487, -35.675636], [-57.939822, -35.673457], [-57.936971, -35.671277], [-57.935629, -35.671822], [-57.929088, -35.672776], [-57.923721, -35.67332], [-57.923277, -35.673628], [-57.92328, -35.67363], [-57.917006, -35.678395], [-57.91273, -35.681644], [-57.912484, -35.681494], [-57.908794, -35.68272], [-57.906278, -35.686262], [-57.899569, -35.690894], [-57.898228, -35.689396], [-57.893028, -35.688033], [-57.888835, -35.686126], [-57.891854, -35.691575], [-57.897557, -35.693619], [-57.900068, -35.693548], [-57.902421, -35.693482], [-57.909465, -35.694845], [-57.911813, -35.695117], [-57.91567, -35.699068], [-57.918354, -35.69934], [-57.923386, -35.702337], [-57.92674, -35.703155], [-57.931101, -35.701384], [-57.933449, -35.697569], [-57.93999, -35.692937], [-57.949885, -35.693074], [-57.950891, -35.695526], [-57.950518, -35.698107], [-57.950449, -35.69858], [-57.950221, -35.700158], [-57.946531, -35.703155], [-57.947369, -35.705879], [-57.95173, -35.700703], [-57.958939, -35.700304], [-57.965895, -35.705698], [-57.96716, -35.709807], [-57.969057, -35.710064], [-57.969057, -35.705698], [-57.97127, -35.700561], [-57.978542, -35.697992], [-57.983601, -35.702872], [-57.986763, -35.704413], [-57.986447, -35.711862], [-57.98583, -35.719824], [-57.984564, -35.724961], [-57.980765, -35.726502], [-57.978233, -35.730612], [-57.9776, -35.736005], [-57.979182, -35.746022], [-57.976333, -35.748591], [-57.974751, -35.75193], [-57.979499, -35.754755], [-57.981715, -35.758608], [-57.979499, -35.761177], [-57.977916, -35.761433], [-57.976967, -35.762461], [-57.971902, -35.767598], [-57.967154, -35.7658], [-57.96652, -35.762204], [-57.962089, -35.757067], [-57.960526, -35.75504], [-57.958449, -35.753614], [-57.957331, -35.751799], [-57.953337, -35.751281], [-57.950302, -35.749984], [-57.946947, -35.749984], [-57.943273, -35.748947], [-57.941995, -35.749855], [-57.937362, -35.751021], [-57.936723, -35.75141], [-57.937042, -35.756077], [-57.937042, -35.758022], [-57.937042, -35.76204], [-57.934806, -35.765281], [-57.93193, -35.766189], [-57.929694, -35.766189], [-57.927457, -35.767744], [-57.927457, -35.7693], [-57.931132, -35.772022], [-57.93193, -35.770596], [-57.930333, -35.768522], [-57.931451, -35.768392], [-57.932729, -35.7693], [-57.934966, -35.770207], [-57.937362, -35.770726], [-57.939297, -35.771964], [-57.939614, -35.77479], [-57.943096, -35.776588], [-57.947528, -35.775046], [-57.951643, -35.77068], [-57.956391, -35.773249], [-57.959873, -35.773249], [-57.961772, -35.776074], [-57.966837, -35.780183], [-57.963038, -35.783266], [-57.962405, -35.784807], [-57.963038, -35.786605], [-57.966204, -35.787632], [-57.968736, -35.786348], [-57.972851, -35.786091], [-57.97665, -35.780183], [-57.981715, -35.781981], [-57.983297, -35.777358], [-57.98583, -35.769653], [-57.993744, -35.773505]]], [[[-58.20759, -35.769753], [-58.208732, -35.775311], [-58.200877, -35.78009], [-58.194496, -35.796019], [-58.186641, -35.815135], [-58.196459, -35.817524], [-58.205295, -35.816728], [-58.210695, -35.809559], [-58.219531, -35.806373], [-58.232294, -35.801993], [-58.249475, -35.803586], [-58.255366, -35.800002], [-58.248003, -35.788453], [-58.249966, -35.770532], [-58.249367, -35.769742], [-58.246039, -35.765355], [-58.236712, -35.760178], [-58.217445, -35.764214], [-58.204804, -35.754603], [-58.202841, -35.748629], [-58.204313, -35.744249], [-58.198914, -35.737081], [-58.198423, -35.737479], [-58.194496, -35.743054], [-58.191059, -35.738674], [-58.186641, -35.74624], [-58.185169, -35.751019], [-58.181733, -35.754603], [-58.177805, -35.755399], [-58.181733, -35.756594], [-58.183205, -35.759382], [-58.183886, -35.763065], [-58.191604, -35.757643], [-58.192761, -35.761711], [-58.196618, -35.766404], [-58.198547, -35.766091], [-58.202018, -35.767342], [-58.20759, -35.769753]]], [[[-57.517988, -35.746566], [-57.517664, -35.74368], [-57.516802, -35.740618], [-57.513785, -35.738519], [-57.508181, -35.734495], [-57.504301, -35.733883], [-57.500206, -35.737294], [-57.49805, -35.739044], [-57.497296, -35.74193], [-57.499128, -35.744117], [-57.5029, -35.747704], [-57.507857, -35.747529], [-57.513138, -35.747529], [-57.515724, -35.748141], [-57.516371, -35.747616], [-57.517988, -35.746566]]], [[[-57.588862, -35.745161], [-57.587748, -35.738225], [-57.586448, -35.737169], [-57.582177, -35.735963], [-57.578277, -35.736416], [-57.575491, -35.733852], [-57.575862, -35.731892], [-57.580134, -35.733098], [-57.586262, -35.73536], [-57.588305, -35.732495], [-57.587377, -35.731892], [-57.585148, -35.730686], [-57.583662, -35.727067], [-57.580877, -35.729631], [-57.575491, -35.728575], [-57.576977, -35.724806], [-57.578277, -35.720584], [-57.581991, -35.721036], [-57.583662, -35.71983], [-57.581805, -35.718775], [-57.580134, -35.715608], [-57.576977, -35.715005], [-57.575677, -35.716513], [-57.576234, -35.720886], [-57.575677, -35.72375], [-57.573262, -35.724353], [-57.569919, -35.722996], [-57.566576, -35.719981], [-57.563976, -35.717418], [-57.563048, -35.715307], [-57.565091, -35.714402], [-57.568062, -35.71003], [-57.570662, -35.709276], [-57.572334, -35.706109], [-57.568805, -35.703395], [-57.566391, -35.70038], [-57.564905, -35.698872], [-57.561748, -35.696761], [-57.554133, -35.700681], [-57.553762, -35.700983], [-57.553948, -35.707919], [-57.558219, -35.712744], [-57.559148, -35.716513], [-57.557476, -35.716513], [-57.557476, -35.721036], [-57.562491, -35.725258], [-57.566391, -35.726163], [-57.570291, -35.725861], [-57.574562, -35.729932], [-57.569548, -35.730988], [-57.567134, -35.732797], [-57.568248, -35.733702], [-57.571591, -35.732797], [-57.573819, -35.734154], [-57.570476, -35.737471], [-57.573076, -35.736868], [-57.575119, -35.739883], [-57.578277, -35.738074], [-57.577905, -35.741693], [-57.581619, -35.742145], [-57.583662, -35.740487], [-57.583477, -35.741994], [-57.579577, -35.746216], [-57.583477, -35.743954], [-57.588862, -35.745161]]], [[[-57.568338, -35.739613], [-57.567512, -35.739129], [-57.564725, -35.740486], [-57.566397, -35.74124], [-57.565097, -35.742145], [-57.563053, -35.739581], [-57.562681, -35.740788], [-57.562124, -35.74712], [-57.564911, -35.749533], [-57.562124, -35.74908], [-57.558594, -35.74908], [-57.556179, -35.749985], [-57.555064, -35.747723], [-57.553021, -35.748025], [-57.549862, -35.748327], [-57.547819, -35.748779], [-57.542988, -35.750588], [-57.537972, -35.750437], [-57.538344, -35.755111], [-57.540016, -35.756016], [-57.543917, -35.757373], [-57.548933, -35.756167], [-57.549305, -35.753302], [-57.553578, -35.753453], [-57.558594, -35.753453], [-57.562124, -35.751191], [-57.563053, -35.752548], [-57.565654, -35.752247], [-57.56584, -35.749231], [-57.568627, -35.748176], [-57.5742, -35.745763], [-57.574757, -35.742446], [-57.572156, -35.741089], [-57.568338, -35.739613]]], [[[-57.555619, -35.730988], [-57.555248, -35.727972], [-57.553205, -35.72556], [-57.550605, -35.724052], [-57.548933, -35.725861], [-57.549305, -35.727218], [-57.548933, -35.730083], [-57.546705, -35.729027], [-57.545033, -35.727821], [-57.544105, -35.728575], [-57.54299, -35.732194], [-57.542062, -35.731892], [-57.540762, -35.730384], [-57.542805, -35.72767], [-57.541505, -35.726464], [-57.537419, -35.726615], [-57.537419, -35.727821], [-57.533519, -35.728575], [-57.530547, -35.728575], [-57.528319, -35.727369], [-57.527761, -35.728575], [-57.53129, -35.731591], [-57.528133, -35.734003], [-57.527947, -35.732495], [-57.524976, -35.731289], [-57.522376, -35.729631], [-57.52219, -35.733551], [-57.522933, -35.734908], [-57.52349, -35.738526], [-57.521818, -35.741693], [-57.523676, -35.742748], [-57.525161, -35.745161], [-57.529619, -35.743954], [-57.532219, -35.742748], [-57.532219, -35.740939], [-57.535933, -35.741844], [-57.540204, -35.741391], [-57.542805, -35.738376], [-57.546147, -35.735662], [-57.548005, -35.73536], [-57.551162, -35.734154], [-57.552833, -35.736717], [-57.555433, -35.733551], [-57.555619, -35.730988]]], [[[-57.529532, -35.710858], [-57.523962, -35.7092], [-57.522476, -35.710104], [-57.519505, -35.711461], [-57.518391, -35.709501], [-57.513006, -35.708597], [-57.510035, -35.708144], [-57.504651, -35.709954], [-57.50595, -35.713271], [-57.504465, -35.715231], [-57.503908, -35.714477], [-57.502237, -35.710708], [-57.502794, -35.707692], [-57.505393, -35.706486], [-57.50168, -35.704677], [-57.502794, -35.703169], [-57.498895, -35.701812], [-57.493138, -35.698947], [-57.49221, -35.693821], [-57.493138, -35.690654], [-57.486639, -35.687639], [-57.482926, -35.68794], [-57.481626, -35.688845], [-57.480326, -35.692464], [-57.479955, -35.693217], [-57.475127, -35.693067], [-57.473642, -35.690353], [-57.469557, -35.691107], [-57.467514, -35.694122], [-57.4638, -35.700756], [-57.463243, -35.701661], [-57.465843, -35.701963], [-57.469, -35.698344], [-57.468628, -35.700907], [-57.468628, -35.701963], [-57.469928, -35.701812], [-57.472156, -35.702867], [-57.47587, -35.704827], [-57.480326, -35.706486], [-57.485525, -35.707541], [-57.487754, -35.711311], [-57.493324, -35.712215], [-57.492953, -35.714477], [-57.495552, -35.717191], [-57.495181, -35.718096], [-57.496666, -35.716588], [-57.497038, -35.71508], [-57.496109, -35.714025], [-57.497966, -35.712517], [-57.500194, -35.713572], [-57.49908, -35.716286], [-57.502794, -35.717191], [-57.501123, -35.719], [-57.498152, -35.717643], [-57.497966, -35.719453], [-57.500009, -35.720357], [-57.501308, -35.720357], [-57.496852, -35.722317], [-57.500194, -35.721564], [-57.504279, -35.721262], [-57.502794, -35.720056], [-57.506322, -35.718096], [-57.506879, -35.720056], [-57.50725, -35.720508], [-57.508736, -35.719302], [-57.508179, -35.718548], [-57.509478, -35.715231], [-57.51115, -35.715985], [-57.512078, -35.71885], [-57.514121, -35.719453], [-57.519691, -35.718548], [-57.523219, -35.714929], [-57.525076, -35.713271], [-57.52749, -35.71312], [-57.529532, -35.710858]]], [[[-57.805762, -35.777847], [-57.80806, -35.776151], [-57.814199, -35.773542], [-57.816245, -35.771644], [-57.816245, -35.76856], [-57.815953, -35.766899], [-57.814783, -35.763578], [-57.808352, -35.762154], [-57.804552, -35.764527], [-57.800168, -35.766187], [-57.79666, -35.768797], [-57.795198, -35.769034], [-57.79286, -35.773779], [-57.794614, -35.778998], [-57.798998, -35.778761], [-57.802214, -35.782082], [-57.803675, -35.77971], [-57.805762, -35.777847]]], [[[-57.881139, -35.775202], [-57.879093, -35.774016], [-57.879093, -35.772118], [-57.875878, -35.769746], [-57.870324, -35.769509], [-57.869447, -35.773067], [-57.867693, -35.773067], [-57.863016, -35.769509], [-57.86097, -35.771407], [-57.858046, -35.769034], [-57.855416, -35.771881], [-57.854539, -35.771881], [-57.851908, -35.774253], [-57.851031, -35.774491], [-57.851323, -35.776863], [-57.848692, -35.778049], [-57.847815, -35.778049], [-57.846354, -35.779947], [-57.847815, -35.784929], [-57.846354, -35.788488], [-57.846938, -35.790623], [-57.849569, -35.789437], [-57.853954, -35.789437], [-57.858046, -35.788488], [-57.858339, -35.788013], [-57.863893, -35.787302], [-57.865647, -35.784929], [-57.868277, -35.783743], [-57.874124, -35.782557], [-57.878216, -35.780659], [-57.881139, -35.775202]]], [[[-57.83174, -35.734889], [-57.831153, -35.734635], [-57.826768, -35.735346], [-57.822125, -35.73723], [-57.817707, -35.74104], [-57.817122, -35.745073], [-57.821214, -35.748869], [-57.830276, -35.748869], [-57.833492, -35.74531], [-57.838461, -35.746497], [-57.841677, -35.746022], [-57.840558, -35.742651], [-57.83963, -35.739854], [-57.838169, -35.737956], [-57.835538, -35.736533], [-57.83174, -35.734889]]], [[[-57.874124, -35.72562], [-57.873247, -35.722535], [-57.870031, -35.718977], [-57.865354, -35.718028], [-57.862723, -35.718502], [-57.859216, -35.719451], [-57.857754, -35.721824], [-57.8522, -35.724671], [-57.851615, -35.728941], [-57.852492, -35.732262], [-57.854539, -35.734397], [-57.857754, -35.733448], [-57.860385, -35.72989], [-57.867108, -35.72989], [-57.867985, -35.727043], [-57.874124, -35.72562]]], [[[-57.904894, -35.570603], [-57.902524, -35.568536], [-57.896527, -35.565748], [-57.888388, -35.559474], [-57.878535, -35.558777], [-57.874252, -35.560868], [-57.86954, -35.570279], [-57.870396, -35.57969], [-57.881534, -35.586312], [-57.883245, -35.586148], [-57.896099, -35.584918], [-57.905094, -35.581781], [-57.908521, -35.57725], [-57.908521, -35.573765], [-57.904894, -35.570603]]], [[[-57.913975, -35.531673], [-57.912805, -35.528105], [-57.905951, -35.523922], [-57.897384, -35.523574], [-57.889673, -35.525665], [-57.887531, -35.528802], [-57.88796, -35.537864], [-57.890101, -35.540304], [-57.894385, -35.544835], [-57.905523, -35.553897], [-57.909378, -35.553897], [-57.909802, -35.553791], [-57.914947, -35.552503], [-57.920516, -35.548321], [-57.918374, -35.539258], [-57.914519, -35.533333], [-57.913975, -35.531673]]], [[[-57.980044, -35.586661], [-57.981758, -35.592586], [-57.980472, -35.597815], [-57.986901, -35.601649], [-57.99033, -35.606528], [-57.998902, -35.612454], [-57.999759, -35.623259], [-58.003617, -35.63023], [-58.00876, -35.631275], [-58.01176, -35.625699], [-58.012189, -35.634412], [-58.015617, -35.633367], [-58.018617, -35.628138], [-58.023332, -35.62779], [-58.021189, -35.624304], [-58.035333, -35.620122], [-58.041333, -35.615242], [-58.03919, -35.605831], [-58.037047, -35.599209], [-58.040476, -35.594329], [-58.061049, -35.594329], [-58.064049, -35.589101], [-58.072621, -35.59886], [-58.075621, -35.585964], [-58.069192, -35.57725], [-58.059763, -35.576205], [-58.058048, -35.570279], [-58.064906, -35.558777], [-58.061961, -35.556502], [-58.056334, -35.552155], [-58.052048, -35.553201], [-58.044762, -35.553201], [-58.039619, -35.557035], [-58.039619, -35.561914], [-58.031904, -35.561914], [-58.031475, -35.564354], [-58.022475, -35.560869], [-58.013474, -35.574113], [-58.007903, -35.574113], [-58.002759, -35.574113], [-57.992473, -35.581433], [-57.980044, -35.586661]]], [[[-58.147305, -35.513641], [-58.139168, -35.517127], [-58.134886, -35.516081], [-58.133173, -35.516778], [-58.131888, -35.516778], [-58.122895, -35.516778], [-58.117328, -35.51643], [-58.105765, -35.520264], [-58.097628, -35.522006], [-58.087779, -35.529326], [-58.085637, -35.529326], [-58.080927, -35.532811], [-58.077501, -35.538388], [-58.079642, -35.539782], [-58.088207, -35.541874], [-58.100626, -35.543616], [-58.105337, -35.544662], [-58.114758, -35.545708], [-58.119897, -35.541874], [-58.128462, -35.532463], [-58.134886, -35.533508], [-58.139168, -35.532811], [-58.146876, -35.532811], [-58.152015, -35.532114], [-58.153728, -35.53072], [-58.148161, -35.52584], [-58.14602, -35.51643], [-58.147305, -35.513641]]], [[[-57.484597, -35.709803], [-57.480883, -35.709501], [-57.477912, -35.708295], [-57.477541, -35.707089], [-57.476427, -35.706184], [-57.473085, -35.70724], [-57.472528, -35.706335], [-57.469928, -35.704375], [-57.467885, -35.70543], [-57.469371, -35.707089], [-57.467885, -35.708446], [-57.4677, -35.710104], [-57.464915, -35.713723], [-57.463058, -35.714628], [-57.461944, -35.716437], [-57.463986, -35.718548], [-57.466957, -35.718548], [-57.471971, -35.719151], [-57.473456, -35.717643], [-57.477727, -35.71704], [-57.479955, -35.715532], [-57.479026, -35.713271], [-57.484226, -35.714175], [-57.484226, -35.711763], [-57.479955, -35.711311], [-57.484597, -35.709803]]]]}, "properties": {"ID": 54, "AREA": 210.762955, "CIRCUNSCRI": 99}}, {"type": "Feature", "geometry": {"type": "Polygon", "coordinates": [[[-58.332752, -35.637661], [-58.274152, -35.585882], [-58.199181, -35.523935], [-58.204564, -35.519555], [-58.165408, -35.485583], [-58.161437, -35.493425], [-58.156726, -35.494471], [-58.154585, -35.502836], [-58.149018, -35.508762], [-58.147305, -35.513641], [-58.14602, -35.51643], [-58.148161, -35.52584], [-58.153728, -35.53072], [-58.152015, -35.532114], [-58.146876, -35.532811], [-58.139168, -35.532811], [-58.134886, -35.533508], [-58.128462, -35.532463], [-58.119897, -35.541874], [-58.114758, -35.545708], [-58.105337, -35.544662], [-58.100626, -35.543616], [-58.088207, -35.541874], [-58.079642, -35.539782], [-58.071487, -35.544312], [-58.071487, -35.547101], [-58.065491, -35.550935], [-58.061961, -35.556502], [-58.064906, -35.558777], [-58.058048, -35.570279], [-58.059763, -35.576205], [-58.069192, -35.57725], [-58.075621, -35.585964], [-58.072621, -35.59886], [-58.064049, -35.589101], [-58.061049, -35.594329], [-58.040476, -35.594329], [-58.037047, -35.599209], [-58.03919, -35.605831], [-58.041333, -35.615242], [-58.035333, -35.620122], [-58.021189, -35.624304], [-58.023332, -35.62779], [-58.018617, -35.628138], [-58.015617, -35.633367], [-58.012189, -35.634412], [-58.01176, -35.625699], [-58.00876, -35.631275], [-58.008979, -35.633594], [-58.004578, -35.640008], [-58.003807, -35.644075], [-58.002208, -35.647192], [-58.005575, -35.653557], [-58.009527, -35.657667000000004], [-58.01022, -35.65992], [-58.010733, -35.660336], [-58.01664, -35.661776], [-58.017904, -35.665886], [-58.018604, -35.666973], [-58.02319, -35.670866], [-58.024701, -35.670252], [-58.027072, -35.671793], [-58.028336, -35.671665], [-58.02623, -35.673445], [-58.071993, -35.712279], [-58.100584, -35.737307], [-58.127967, -35.760146], [-58.154193, -35.783924], [-58.183886, -35.763065], [-58.183205, -35.759382], [-58.181733, -35.756594], [-58.177805, -35.755399], [-58.181733, -35.754603], [-58.185169, -35.751019], [-58.186641, -35.74624], [-58.191059, -35.738674], [-58.194496, -35.743054], [-58.198423, -35.737479], [-58.198914, -35.737081], [-58.204313, -35.744249], [-58.202841, -35.748629], [-58.204804, -35.754603], [-58.217445, -35.764214], [-58.236712, -35.760178], [-58.246039, -35.765355], [-58.249367, -35.769742], [-58.251148, -35.76656], [-58.249221, -35.760929], [-58.255001, -35.7578], [-58.266176, -35.748414], [-58.276194, -35.741218], [-58.284286, -35.735274], [-58.284286, -35.733084], [-58.28313, -35.724011], [-58.282359, -35.719005], [-58.282359, -35.716815], [-58.282359, -35.714938], [-58.282745, -35.712435], [-58.285827, -35.707116], [-58.290836, -35.68897], [-58.29469, -35.681774], [-58.300032, -35.669886], [-58.306961, -35.657058], [-58.326593, -35.645169], [-58.332752, -35.637661]]]}, "properties": {"ID": 60, "AREA": 535.701843, "CIRCUNSCRI": 11}}]}