{"type":"FeatureCollection","totalFeatures":1,"features":[{"type":"Feature","id":"area_servida_agua.153","geometry":{"type":"MultiPolygon","coordinates":[[[[-57.969776,-35.575241],[-57.969622,-35.576195],[-57.971948,-35.576433],[-57.972441,-35.573506],[-57.972724,-35.572177],[-57.971981,-35.572131],[-57.971941,-35.572527],[-57.970273,-35.572412],[-57.96968,-35.57579],[-57.969776,-35.575241]]],[[[-58.028218,-35.567332],[-58.030395,-35.565621],[-58.028578,-35.564327],[-58.029586,-35.563139],[-58.029031,-35.562763],[-58.03234,-35.558938],[-58.032071,-35.55876],[-58.028199,-35.562888],[-58.026858,-35.562173],[-58.026942,-35.561835],[-58.020953,-35.5591],[-58.017745,-35.559255],[-58.0215,-35.558057],[-58.021725,-35.556184],[-58.022499,-35.554821],[-58.02205,-35.554144],[-58.022748,-35.552983],[-58.019738,-35.551489],[-58.018656,-35.550756],[-58.015745,-35.549093],[-58.013298,-35.546992],[-58.013252,-35.547069],[-58.012467,-35.547662],[-58.010181,-35.549287],[-58.010323,-35.549821],[-58.007132,-35.552275],[-58.009089,-35.554176],[-58.009199,-35.554812],[-58.013118,-35.555163],[-58.01295,-35.556918],[-58.009851,-35.556765],[-58.008371,-35.557926],[-58.006639,-35.559186],[-58.004721,-35.557805],[-58.004083,-35.562353],[-57.99946,-35.561602],[-57.999292,-35.563838],[-58.001755,-35.564431],[-58.001322,-35.566754],[-57.991042,-35.565628],[-57.99197,-35.565683],[-57.990946,-35.565647],[-57.990582,-35.567487],[-57.988782,-35.574275],[-57.984272,-35.573704],[-57.983643,-35.576725],[-57.983355,-35.577792],[-57.985499,-35.578064],[-57.984926,-35.581477],[-57.987633,-35.581855],[-57.988634,-35.581534],[-57.989098,-35.581137],[-57.990665,-35.581298],[-57.991478,-35.577715],[-57.99198,-35.577755],[-57.992109,-35.577015],[-57.993436,-35.577164],[-57.993707,-35.576064],[-57.99249,-35.575989],[-57.992626,-35.574977],[-57.989137,-35.57443],[-57.989784,-35.570849],[-57.994733,-35.571372],[-57.994401,-35.573141],[-57.996559,-35.57349],[-57.996252,-35.575345],[-57.998482,-35.575726],[-57.997543,-35.579587],[-57.992892,-35.579039],[-57.992351,-35.582508],[-57.997159,-35.582825],[-57.994287,-35.586188],[-57.993119,-35.585617],[-57.987611,-35.589317],[-57.986439,-35.589253],[-57.986105,-35.590119],[-57.986088,-35.59078],[-57.984584,-35.590619],[-57.983118,-35.5904],[-57.982748,-35.591235],[-57.977509,-35.590381],[-57.978278,-35.592994],[-57.98252,-35.593213],[-57.98338,-35.593137],[-57.983994,-35.592963],[-57.990786,-35.588612],[-57.994914,-35.586398],[-57.998206,-35.582619],[-58.000225,-35.582929],[-58.000466,-35.582289],[-58.00333,-35.582612],[-58.00315,-35.583069],[-58.005763,-35.583308],[-58.00806,-35.583719],[-58.009299,-35.584078],[-58.010059,-35.584177],[-58.017871,-35.582306],[-58.020646,-35.578603],[-58.022715,-35.573784],[-58.02709,-35.568094],[-58.028218,-35.567332]]]]},"geometry_name":"geom","properties":{"municipio":"CHASCOMUS","localidad":"CHASCOMUS","tipo":"AGUA","partido":27,"actualiza":"2021-11-29Z","origen_inf":"MUNICIPIO"}}],"crs":{"type":"name","properties":{"name":"urn:ogc:def:crs:EPSG::4326"}}}
