{"type":"FeatureCollection","totalFeatures":1,"features":[{"type":"Feature","id":"area_servida_cloaca.130","geometry":{"type":"MultiPolygon","coordinates":[[[[-58.01766863,-35.55223725],[-58.01196755,-35.55198252],[-58.01120268,-35.55215975],[-58.00933755,-35.55059569],[-58.00683721,-35.55240331],[-58.00869898,-35.55410264],[-58.0098011,-35.55416594],[-58.00994596,-35.55500261],[-58.01300302,-35.55523344],[-58.01279412,-35.55698874],[-58.00990194,-35.55678319],[-58.00989356,-35.55935353],[-58.01210968,-35.56123904],[-58.01150865,-35.56337498],[-58.00988425,-35.56314839],[-58.01029941,-35.56119072],[-58.00810728,-35.56085484],[-58.004672,-35.55806767],[-58.00419564,-35.56248827],[-57.99968837,-35.56184749],[-57.99942852,-35.56415248],[-58.00210469,-35.56452194],[-58.00169015,-35.56719683],[-57.99566787,-35.5663959],[-57.9908684,-35.56591982],[-57.9900071,-35.57097735],[-57.99466686,-35.57144982],[-57.99396086,-35.57502226],[-57.98436404,-35.57394788],[-57.98329762,-35.57780029],[-57.98574788,-35.57826792],[-57.98510461,-35.58160935],[-57.99001455,-35.58217895],[-57.98933413,-35.58551978],[-57.98205118,-35.58436189],[-57.98121895,-35.58779156],[-57.97802209,-35.58584854],[-57.97637615,-35.58899023],[-57.98031435,-35.59112857],[-57.98566776,-35.59188864],[-57.99124203,-35.58829431],[-57.99532427,-35.58616814],[-57.99164235,-35.58571065],[-57.99258142,-35.58246554],[-57.99771597,-35.58300809],[-57.99791671,-35.58093916],[-58.00244393,-35.58155281],[-58.00217546,-35.58236009],[-58.00336184,-35.58237975],[-58.00345373,-35.58312536],[-58.00692122,-35.58354354],[-58.00826367,-35.58394905],[-58.00960503,-35.58439963],[-58.01197495,-35.58354598],[-58.01297088,-35.58307991],[-58.01524898,-35.58251434],[-58.01641604,-35.58243753],[-58.01754063,-35.5760073],[-58.0188047,-35.57623102],[-58.01929535,-35.57535972],[-58.02166846,-35.57566392],[-58.02283951,-35.57377191],[-58.02327326,-35.5729673],[-58.02269503,-35.57291271],[-58.02134658,-35.57275529],[-58.01914681,-35.57242603],[-58.01953014,-35.57056257],[-58.0197603,-35.56880587],[-58.02254482,-35.56891924],[-58.02297988,-35.56581474],[-58.02257773,-35.56533463],[-58.02192512,-35.5649406],[-58.02109813,-35.56490447],[-58.02107762,-35.56573842],[-58.01868495,-35.56540598],[-58.01986271,-35.56304911],[-58.01749676,-35.56180879],[-58.01766863,-35.55223725]]]]},"geometry_name":"geom","properties":{"municipio":"CHASCOMUS","localidad":"CHASCOMUS","tipo":"CLOACA","partido":27,"actualiza":"2021-11-29Z","origen_inf":"MUNICIPIO"}}],"crs":{"type":"name","properties":{"name":"urn:ogc:def:crs:EPSG::4326"}}}
