{"type":"FeatureCollection","features":[{"type":"Feature","geometry":{"type":"Polygon","coordinates":[[[-58.01606,-35.555324,0],[-58.016016,-35.555997,0],[-58.014956,-35.555946,0],[-58.014971,-35.555682,0],[-58.015298,-35.555691,0],[-58.015591,-35.555699,0],[-58.015618,-35.555308,0],[-58.01606,-35.555324,0]]]},"properties":{"description":{"@type":"html","value":"styleUrl: #poly-7CB342-1984-219<br>fill-opacity: 0.8588235294117647<br>fill: #7cb342<br>stroke-opacity: 1<br>stroke: #7cb342<br>stroke-width: 1.984<br>Descripción: <br>addr:street: Alvear<br>addr:housenumber: 1160<br>addr:city: <br>addr:postcode: "},"styleUrl":"#poly-7CB342-1984-219","fill-opacity":0.8588235294117647,"fill":"#7cb342","stroke-opacity":1,"stroke":"#7cb342","stroke-width":1.984,"Descripción":"","addr:street":"Alvear","addr:housenumber":1160,"addr:city":"","addr:postcode":""}},{"type":"Feature","geometry":{"type":"Polygon","coordinates":[[[-58.008348,-35.576,0],[-58.008214,-35.576718,0],[-58.007759,-35.576664,0],[-58.00717,-35.576622,0],[-58.007337,-35.575884,0],[-58.008348,-35.576,0]]]},"properties":{"description":{"@type":"html","value":"styleUrl: #poly-7CB342-1984-219<br>fill-opacity: 0.8588235294117647<br>fill: #7cb342<br>stroke-opacity: 1<br>stroke: #7cb342<br>stroke-width: 1.984<br>Descripción: <br>addr:street: Avenida Hipólito Yrigoyen<br>addr:housenumber: 27<br>addr:city: Chascomús<br>addr:postcode: 7130"},"styleUrl":"#poly-7CB342-1984-219","fill-opacity":0.8588235294117647,"fill":"#7cb342","stroke-opacity":1,"stroke":"#7cb342","stroke-width":1.984,"Descripción":"","addr:street":"Avenida Hipólito Yrigoyen","addr:housenumber":27,"addr:city":"Chascomús","addr:postcode":7130}},{"type":"Feature","geometry":{"type":"Polygon","coordinates":[[[-58.016799,-35.579577,0],[-58.016755,-35.579871,0],[-58.015917,-35.579788,0],[-58.01596,-35.579494,0],[-58.016799,-35.579577,0]]]},"properties":{"description":{"@type":"html","value":"styleUrl: #poly-7CB342-1984-219<br>fill-opacity: 0.8588235294117647<br>fill: #7cb342<br>stroke-opacity: 1<br>stroke: #7cb342<br>stroke-width: 1.984<br>Descripción: <br>addr:street: <br>addr:housenumber: <br>addr:city: Chascomús<br>addr:postcode: 7130"},"styleUrl":"#poly-7CB342-1984-219","fill-opacity":0.8588235294117647,"fill":"#7cb342","stroke-opacity":1,"stroke":"#7cb342","stroke-width":1.984,"Descripción":"","addr:street":"","addr:housenumber":"","addr:city":"Chascomús","addr:postcode":7130}},{"type":"Feature","geometry":{"type":"Polygon","coordinates":[[[-58.016205,-35.554457,0],[-58.016136,-35.555262,0],[-58.014968,-35.555225,0],[-58.015049,-35.554401,0],[-58.016205,-35.554457,0]]]},"properties":{"name":"Hogar de Ancianos Municipal","description":{"@type":"html","value":"styleUrl: #poly-7CB342-1984-219<br>fill-opacity: 0.8588235294117647<br>fill: #7cb342<br>stroke-opacity: 1<br>stroke: #7cb342<br>stroke-width: 1.984<br>Descripción: <br>addr:street: Los Cedros<br>addr:housenumber: 124<br>addr:city: Chascomùs<br>addr:postcode: 7130"},"styleUrl":"#poly-7CB342-1984-219","fill-opacity":0.8588235294117647,"fill":"#7cb342","stroke-opacity":1,"stroke":"#7cb342","stroke-width":1.984,"Descripción":"","addr:street":"Los Cedros","addr:housenumber":124,"addr:city":"Chascomùs","addr:postcode":7130}},{"type":"Feature","geometry":{"type":"Polygon","coordinates":[[[-58.014199,-35.578245,0],[-58.014149,-35.57848,0],[-58.013616,-35.578414,0],[-58.013674,-35.57817,0],[-58.013698,-35.578173,0],[-58.014199,-35.578245,0]]]},"properties":{"description":{"@type":"html","value":"styleUrl: #poly-7CB342-1984-219<br>fill-opacity: 0.8588235294117647<br>fill: #7cb342<br>stroke-opacity: 1<br>stroke: #7cb342<br>stroke-width: 1.984<br>Descripción: <br>addr:street: <br>addr:housenumber: <br>addr:city: <br>addr:postcode: "},"styleUrl":"#poly-7CB342-1984-219","fill-opacity":0.8588235294117647,"fill":"#7cb342","stroke-opacity":1,"stroke":"#7cb342","stroke-width":1.984,"Descripción":"","addr:street":"","addr:housenumber":"","addr:city":"","addr:postcode":""}},{"type":"Feature","geometry":{"type":"Polygon","coordinates":[[[-58.019407,-35.570573,0],[-58.019262,-35.571397,0],[-58.018379,-35.571271,0],[-58.018511,-35.570458,0],[-58.01868,-35.570478,0],[-58.018794,-35.570492,0],[-58.018833,-35.570497,0],[-58.019407,-35.570573,0]]]},"properties":{"description":{"@type":"html","value":"styleUrl: #poly-7CB342-1984-219<br>fill-opacity: 0.8588235294117647<br>fill: #7cb342<br>stroke-opacity: 1<br>stroke: #7cb342<br>stroke-width: 1.984<br>Descripción: <br>addr:street: Juárez<br>addr:housenumber: 275<br>addr:city: Chascomús<br>addr:postcode: 7130"},"styleUrl":"#poly-7CB342-1984-219","fill-opacity":0.8588235294117647,"fill":"#7cb342","stroke-opacity":1,"stroke":"#7cb342","stroke-width":1.984,"Descripción":"","addr:street":"Juárez","addr:housenumber":275,"addr:city":"Chascomús","addr:postcode":7130}},{"type":"Feature","geometry":{"type":"Polygon","coordinates":[[[-58.018833,-35.570497,0],[-58.018812,-35.570603,0],[-58.018661,-35.570587,0],[-58.01868,-35.570478,0],[-58.018833,-35.570497,0]]]},"properties":{"name":"DIRECCIÒN DE PRODUCCIÒN","description":{"@type":"html","value":"styleUrl: #poly-7CB342-1984-219<br>fill-opacity: 0.8588235294117647<br>fill: #7cb342<br>stroke-opacity: 1<br>stroke: #7cb342<br>stroke-width: 1.984<br>Descripción: <br>addr:street: Maipú<br>addr:housenumber: 415<br>addr:city: Chascomús<br>addr:postcode: 7130"},"styleUrl":"#poly-7CB342-1984-219","fill-opacity":0.8588235294117647,"fill":"#7cb342","stroke-opacity":1,"stroke":"#7cb342","stroke-width":1.984,"Descripción":"","addr:street":"Maipú","addr:housenumber":415,"addr:city":"Chascomús","addr:postcode":7130}},{"type":"Feature","geometry":{"type":"Polygon","coordinates":[[[-58.000704,-35.568889,0],[-58.000641,-35.569165,0],[-58.000205,-35.56909,0],[-58.000284,-35.568811,0],[-58.000704,-35.568889,0]]]},"properties":{"description":{"@type":"html","value":"styleUrl: #poly-7CB342-1984-219<br>fill-opacity: 0.8588235294117647<br>fill: #7cb342<br>stroke-opacity: 1<br>stroke: #7cb342<br>stroke-width: 1.984<br>Descripción: <br>addr:street: Malvinas Argentinas<br>addr:housenumber: 396<br>addr:city: <br>addr:postcode: "},"styleUrl":"#poly-7CB342-1984-219","fill-opacity":0.8588235294117647,"fill":"#7cb342","stroke-opacity":1,"stroke":"#7cb342","stroke-width":1.984,"Descripción":"","addr:street":"Malvinas Argentinas","addr:housenumber":396,"addr:city":"","addr:postcode":""}},{"type":"Feature","geometry":{"type":"Polygon","coordinates":[[[-58.014411,-35.578939,0],[-58.014382,-35.579073,0],[-58.014288,-35.579063,0],[-58.014316,-35.578927,0],[-58.014411,-35.578939,0]]]},"properties":{"name":"Direcciòn de Cultura-Municipalidad de Chascomùs","description":{"@type":"html","value":"styleUrl: #poly-7CB342-1984-219<br>fill-opacity: 0.8588235294117647<br>fill: #7cb342<br>stroke-opacity: 1<br>stroke: #7cb342<br>stroke-width: 1.984<br>Descripción: <br>addr:street: Sarmiento<br>addr:housenumber: 90<br>addr:city: Chascomús<br>addr:postcode: 7130"},"styleUrl":"#poly-7CB342-1984-219","fill-opacity":0.8588235294117647,"fill":"#7cb342","stroke-opacity":1,"stroke":"#7cb342","stroke-width":1.984,"Descripción":"","addr:street":"Sarmiento","addr:housenumber":90,"addr:city":"Chascomús","addr:postcode":7130}},{"type":"Feature","geometry":{"type":"Polygon","coordinates":[[[-58.0147,-35.578954,0],[-58.014683,-35.579097,0],[-58.014288,-35.579063,0],[-58.014316,-35.578927,0],[-58.0147,-35.578954,0]]]},"properties":{"description":{"@type":"html","value":"styleUrl: #poly-7CB342-1984-219<br>fill-opacity: 0.8588235294117647<br>fill: #7cb342<br>stroke-opacity: 1<br>stroke: #7cb342<br>stroke-width: 1.984<br>Descripción: <br>addr:street: <br>addr:housenumber: <br>addr:city: Chascomús<br>addr:postcode: 7130"},"styleUrl":"#poly-7CB342-1984-219","fill-opacity":0.8588235294117647,"fill":"#7cb342","stroke-opacity":1,"stroke":"#7cb342","stroke-width":1.984,"Descripción":"","addr:street":"","addr:housenumber":"","addr:city":"Chascomús","addr:postcode":7130}},{"type":"Feature","geometry":{"type":"Polygon","coordinates":[[[-58.020375,-35.578124,0],[-58.020371,-35.578218,0],[-58.020291,-35.578212,0],[-58.0203,-35.57812,0],[-58.020375,-35.578124,0]]]},"properties":{"description":{"@type":"html","value":"styleUrl: #poly-7CB342-1984-219<br>fill-opacity: 0.8588235294117647<br>fill: #7cb342<br>stroke-opacity: 1<br>stroke: #7cb342<br>stroke-width: 1.984<br>Descripción: <br>addr:street: <br>addr:housenumber: <br>addr:city: Chascomús<br>addr:postcode: 7130"},"styleUrl":"#poly-7CB342-1984-219","fill-opacity":0.8588235294117647,"fill":"#7cb342","stroke-opacity":1,"stroke":"#7cb342","stroke-width":1.984,"Descripción":"","addr:street":"","addr:housenumber":"","addr:city":"Chascomús","addr:postcode":7130}},{"type":"Feature","geometry":{"type":"Polygon","coordinates":[[[-58.018283,-35.578276,0],[-58.017806,-35.579055,0],[-58.017033,-35.578978,0],[-58.017205,-35.578165,0],[-58.018283,-35.578276,0]]]},"properties":{"description":{"@type":"html","value":"styleUrl: #poly-7CB342-1984-219<br>fill-opacity: 0.8588235294117647<br>fill: #7cb342<br>stroke-opacity: 1<br>stroke: #7cb342<br>stroke-width: 1.984<br>Descripción: <br>addr:street: <br>addr:housenumber: <br>addr:city: <br>addr:postcode: "},"styleUrl":"#poly-7CB342-1984-219","fill-opacity":0.8588235294117647,"fill":"#7cb342","stroke-opacity":1,"stroke":"#7cb342","stroke-width":1.984,"Descripción":"","addr:street":"","addr:housenumber":"","addr:city":"","addr:postcode":""}},{"type":"Feature","geometry":{"type":"Polygon","coordinates":[[[-58.0101854,-35.5807301,0],[-58.0101732,-35.5807953,0],[-58.010146,-35.5807918,0],[-58.010115,-35.580791,0],[-58.0101236,-35.5807245,0],[-58.0101854,-35.5807301,0]]]},"properties":{"description":{"@type":"html","value":"styleUrl: #poly-7CB342-1984-219<br>fill-opacity: 0.8588235294117647<br>fill: #7cb342<br>stroke-opacity: 1<br>stroke: #7cb342<br>stroke-width: 1.984<br>Descripción: <br>addr:street: <br>addr:housenumber: <br>addr:city: Chascomús<br>addr:postcode: 7130"},"styleUrl":"#poly-7CB342-1984-219","fill-opacity":0.8588235294117647,"fill":"#7cb342","stroke-opacity":1,"stroke":"#7cb342","stroke-width":1.984,"Descripción":"","addr:street":"","addr:housenumber":"","addr:city":"Chascomús","addr:postcode":7130}},{"type":"Feature","geometry":{"type":"Polygon","coordinates":[[[-58.010122,-35.580731,0],[-58.010115,-35.580791,0],[-58.009984,-35.580782,0],[-58.009993,-35.580716,0],[-58.010122,-35.580731,0]]]},"properties":{"description":{"@type":"html","value":"styleUrl: #poly-7CB342-1984-219<br>fill-opacity: 0.8588235294117647<br>fill: #7cb342<br>stroke-opacity: 1<br>stroke: #7cb342<br>stroke-width: 1.984<br>Descripción: <br>addr:street: <br>addr:housenumber: <br>addr:city: <br>addr:postcode: "},"styleUrl":"#poly-7CB342-1984-219","fill-opacity":0.8588235294117647,"fill":"#7cb342","stroke-opacity":1,"stroke":"#7cb342","stroke-width":1.984,"Descripción":"","addr:street":"","addr:housenumber":"","addr:city":"","addr:postcode":""}},{"type":"Feature","geometry":{"type":"Polygon","coordinates":[[[-58.0189898,-35.5735426,0],[-58.0190998,-35.5735566,0],[-58.0190828,-35.5736316,0],[-58.0189718,-35.5736196,0],[-58.0189898,-35.5735426,0]]]},"properties":{"description":{"@type":"html","value":"styleUrl: #poly-7CB342-1984-219<br>fill-opacity: 0.8588235294117647<br>fill: #7cb342<br>stroke-opacity: 1<br>stroke: #7cb342<br>stroke-width: 1.984<br>Descripción: <br>addr:street: Dorrego<br>addr:housenumber: 229<br>addr:city: Chascomús<br>addr:postcode: 7130"},"styleUrl":"#poly-7CB342-1984-219","fill-opacity":0.8588235294117647,"fill":"#7cb342","stroke-opacity":1,"stroke":"#7cb342","stroke-width":1.984,"Descripción":"","addr:street":"Dorrego","addr:housenumber":229,"addr:city":"Chascomús","addr:postcode":7130}},{"type":"Feature","geometry":{"type":"Polygon","coordinates":[[[-58.011892,-35.575996,0],[-58.011879,-35.576085,0],[-58.011813,-35.576076,0],[-58.011678,-35.576059,0],[-58.011693,-35.575975,0],[-58.011892,-35.575996,0]]]},"properties":{"description":{"@type":"html","value":"styleUrl: #poly-7CB342-1984-219<br>fill-opacity: 0.8588235294117647<br>fill: #7cb342<br>stroke-opacity: 1<br>stroke: #7cb342<br>stroke-width: 1.984<br>Descripción: <br>addr:street: Alvear<br>addr:housenumber: <br>addr:city: Chascomús<br>addr:postcode: 7130"},"styleUrl":"#poly-7CB342-1984-219","fill-opacity":0.8588235294117647,"fill":"#7cb342","stroke-opacity":1,"stroke":"#7cb342","stroke-width":1.984,"Descripción":"","addr:street":"Alvear","addr:housenumber":"","addr:city":"Chascomús","addr:postcode":7130}},{"type":"Feature","geometry":{"type":"Polygon","coordinates":[[[-58.011879,-35.576085,0],[-58.01187,-35.576123,0],[-58.011814,-35.57612,0],[-58.011795,-35.576221,0],[-58.011654,-35.576204,0],[-58.011678,-35.576059,0],[-58.011879,-35.576085,0]]]},"properties":{"name":"Secretarìa de Seguridad Ciudadana","description":{"@type":"html","value":"styleUrl: #poly-7CB342-1984-219<br>fill-opacity: 0.8588235294117647<br>fill: #7cb342<br>stroke-opacity: 1<br>stroke: #7cb342<br>stroke-width: 1.984<br>Descripción: <br>addr:street: Arenales<br>addr:housenumber: 102<br>addr:city: Chascomús<br>addr:postcode: 7130"},"styleUrl":"#poly-7CB342-1984-219","fill-opacity":0.8588235294117647,"fill":"#7cb342","stroke-opacity":1,"stroke":"#7cb342","stroke-width":1.984,"Descripción":"","addr:street":"Arenales","addr:housenumber":102,"addr:city":"Chascomús","addr:postcode":7130}},{"type":"Feature","geometry":{"type":"Polygon","coordinates":[[[-58.018522,-35.561489,0],[-58.01814,-35.561882,0],[-58.017424,-35.561436,0],[-58.017559,-35.560632,0],[-58.01825,-35.56085,0],[-58.01799,-35.561171,0],[-58.018522,-35.561489,0]]]},"properties":{"description":{"@type":"html","value":"styleUrl: #poly-7CB342-1984-219<br>fill-opacity: 0.8588235294117647<br>fill: #7cb342<br>stroke-opacity: 1<br>stroke: #7cb342<br>stroke-width: 1.984<br>Descripción: <br>addr:street: Tucumán<br>addr:housenumber: 210<br>addr:city: Chascomùs<br>addr:postcode: 7130"},"styleUrl":"#poly-7CB342-1984-219","fill-opacity":0.8588235294117647,"fill":"#7cb342","stroke-opacity":1,"stroke":"#7cb342","stroke-width":1.984,"Descripción":"","addr:street":"Tucumán","addr:housenumber":210,"addr:city":"Chascomùs","addr:postcode":7130}},{"type":"Feature","geometry":{"type":"Polygon","coordinates":[[[-58.013812,-35.569605,0],[-58.013791,-35.569698,0],[-58.013476,-35.569669,0],[-58.01349,-35.569572,0],[-58.013812,-35.569605,0]]]},"properties":{"description":{"@type":"html","value":"styleUrl: #poly-7CB342-1984-219<br>fill-opacity: 0.8588235294117647<br>fill: #7cb342<br>stroke-opacity: 1<br>stroke: #7cb342<br>stroke-width: 1.984<br>Descripción: <br>addr:street: Alvear<br>addr:housenumber: 414<br>addr:city: Chascomús<br>addr:postcode: 7130"},"styleUrl":"#poly-7CB342-1984-219","fill-opacity":0.8588235294117647,"fill":"#7cb342","stroke-opacity":1,"stroke":"#7cb342","stroke-width":1.984,"Descripción":"","addr:street":"Alvear","addr:housenumber":414,"addr:city":"Chascomús","addr:postcode":7130}},{"type":"Feature","geometry":{"type":"Polygon","coordinates":[[[-58.017449,-35.565989,0],[-58.017419,-35.566133,0],[-58.01701,-35.56609,0],[-58.017045,-35.565945,0],[-58.017449,-35.565989,0]]]},"properties":{"description":{"@type":"html","value":"styleUrl: #poly-7CB342-1984-219<br>fill-opacity: 0.8588235294117647<br>fill: #7cb342<br>stroke-opacity: 1<br>stroke: #7cb342<br>stroke-width: 1.984<br>Descripción: <br>addr:street: Lincoln<br>addr:housenumber: 604<br>addr:city: Chascomús<br>addr:postcode: 7130"},"styleUrl":"#poly-7CB342-1984-219","fill-opacity":0.8588235294117647,"fill":"#7cb342","stroke-opacity":1,"stroke":"#7cb342","stroke-width":1.984,"Descripción":"","addr:street":"Lincoln","addr:housenumber":604,"addr:city":"Chascomús","addr:postcode":7130}},{"type":"Feature","geometry":{"type":"Polygon","coordinates":[[[-57.99467,-35.56807,0],[-57.994552,-35.568809,0],[-57.994024,-35.568748,0],[-57.99416,-35.568027,0],[-57.99467,-35.56807,0]]]},"properties":{"description":{"@type":"html","value":"styleUrl: #poly-7CB342-1984-219<br>fill-opacity: 0.8588235294117647<br>fill: #7cb342<br>stroke-opacity: 1<br>stroke: #7cb342<br>stroke-width: 1.984<br>Descripción: <br>addr:street: Inmigrantes Árabes<br>addr:housenumber: 640<br>addr:city: Chascomús<br>addr:postcode: 7130"},"styleUrl":"#poly-7CB342-1984-219","fill-opacity":0.8588235294117647,"fill":"#7cb342","stroke-opacity":1,"stroke":"#7cb342","stroke-width":1.984,"Descripción":"","addr:street":"Inmigrantes Árabes","addr:housenumber":640,"addr:city":"Chascomús","addr:postcode":7130}},{"type":"Feature","geometry":{"type":"Polygon","coordinates":[[[-58.01436,-35.579334,0],[-58.014318,-35.579574,0],[-58.014209,-35.579565,0],[-58.0141,-35.579531,0],[-58.01414,-35.579313,0],[-58.01436,-35.579334,0]]]},"properties":{"description":{"@type":"html","value":"styleUrl: #poly-7CB342-1984-219<br>fill-opacity: 0.8588235294117647<br>fill: #7cb342<br>stroke-opacity: 1<br>stroke: #7cb342<br>stroke-width: 1.984<br>Descripción: <br>addr:street: <br>addr:housenumber: <br>addr:city: Chascomús<br>addr:postcode: 7130"},"styleUrl":"#poly-7CB342-1984-219","fill-opacity":0.8588235294117647,"fill":"#7cb342","stroke-opacity":1,"stroke":"#7cb342","stroke-width":1.984,"Descripción":"","addr:street":"","addr:housenumber":"","addr:city":"Chascomús","addr:postcode":7130}},{"type":"Feature","geometry":{"type":"Polygon","coordinates":[[[-58.003845,-35.580271,0],[-58.003831,-35.580347,0],[-58.003704,-35.580334,0],[-58.003723,-35.580254,0],[-58.003845,-35.580271,0]]]},"properties":{"description":{"@type":"html","value":"styleUrl: #poly-7CB342-1984-219<br>fill-opacity: 0.8588235294117647<br>fill: #7cb342<br>stroke-opacity: 1<br>stroke: #7cb342<br>stroke-width: 1.984<br>Descripción: <br>addr:street: Díaz Vélez<br>addr:housenumber: 161<br>addr:city: Chascomús<br>addr:postcode: 7130"},"styleUrl":"#poly-7CB342-1984-219","fill-opacity":0.8588235294117647,"fill":"#7cb342","stroke-opacity":1,"stroke":"#7cb342","stroke-width":1.984,"Descripción":"","addr:street":"Díaz Vélez","addr:housenumber":161,"addr:city":"Chascomús","addr:postcode":7130}},{"type":"Feature","geometry":{"type":"Polygon","coordinates":[[[-58.00016,-35.58024,0],[-58.00009,-35.580542,0],[-57.999764,-35.58051,0],[-57.999842,-35.580193,0],[-58.00016,-35.58024,0]]]},"properties":{"description":{"@type":"html","value":"styleUrl: #poly-7CB342-1984-219<br>fill-opacity: 0.8588235294117647<br>fill: #7cb342<br>stroke-opacity: 1<br>stroke: #7cb342<br>stroke-width: 1.984<br>Descripción: <br>addr:street: <br>addr:housenumber: <br>addr:city: Chascomús<br>addr:postcode: 7130"},"styleUrl":"#poly-7CB342-1984-219","fill-opacity":0.8588235294117647,"fill":"#7cb342","stroke-opacity":1,"stroke":"#7cb342","stroke-width":1.984,"Descripción":"","addr:street":"","addr:housenumber":"","addr:city":"Chascomús","addr:postcode":7130}},{"type":"Feature","geometry":{"type":"Polygon","coordinates":[[[-58.0189031,-35.5736127,0],[-58.0190061,-35.5736257,0],[-58.0189831,-35.5737267,0],[-58.0188731,-35.5737127,0],[-58.0189031,-35.5736127,0]]]},"properties":{"description":{"@type":"html","value":"styleUrl: #poly-7CB342-1984-219<br>fill-opacity: 0.8588235294117647<br>fill: #7cb342<br>stroke-opacity: 1<br>stroke: #7cb342<br>stroke-width: 1.984<br>Descripción: <br>addr:street: Dorrego<br>addr:housenumber: 227<br>addr:city: Chascomús<br>addr:postcode: 7130"},"styleUrl":"#poly-7CB342-1984-219","fill-opacity":0.8588235294117647,"fill":"#7cb342","stroke-opacity":1,"stroke":"#7cb342","stroke-width":1.984,"Descripción":"","addr:street":"Dorrego","addr:housenumber":227,"addr:city":"Chascomús","addr:postcode":7130}},{"type":"Feature","geometry":{"type":"Polygon","coordinates":[[[-57.989918,-35.574853,0],[-57.98985,-35.575207,0],[-57.989591,-35.575172,0],[-57.989661,-35.574819,0],[-57.989918,-35.574853,0]]]},"properties":{"description":{"@type":"html","value":"styleUrl: #poly-7CB342-1984-219<br>fill-opacity: 0.8588235294117647<br>fill: #7cb342<br>stroke-opacity: 1<br>stroke: #7cb342<br>stroke-width: 1.984<br>Descripción: <br>addr:street: Avenida Raúl Alfonsín<br>addr:housenumber: 1472<br>addr:city: Chascomús<br>addr:postcode: 7130"},"styleUrl":"#poly-7CB342-1984-219","fill-opacity":0.8588235294117647,"fill":"#7cb342","stroke-opacity":1,"stroke":"#7cb342","stroke-width":1.984,"Descripción":"","addr:street":"Avenida Raúl Alfonsín","addr:housenumber":1472,"addr:city":"Chascomús","addr:postcode":7130}},{"type":"Feature","geometry":{"type":"Polygon","coordinates":[[[-58.010207,-35.58086,0],[-58.010204,-35.580986,0],[-58.010089,-35.580978,0],[-58.010093,-35.580853,0],[-58.010207,-35.58086,0]]]},"properties":{"description":{"@type":"html","value":"styleUrl: #poly-7CB342-1984-219<br>fill-opacity: 0.8588235294117647<br>fill: #7cb342<br>stroke-opacity: 1<br>stroke: #7cb342<br>stroke-width: 1.984<br>Descripción: <br>addr:street: Moreno<br>addr:housenumber: 259<br>addr:city: Chascomús<br>addr:postcode: 7130"},"styleUrl":"#poly-7CB342-1984-219","fill-opacity":0.8588235294117647,"fill":"#7cb342","stroke-opacity":1,"stroke":"#7cb342","stroke-width":1.984,"Descripción":"","addr:street":"Moreno","addr:housenumber":259,"addr:city":"Chascomús","addr:postcode":7130}},{"type":"Feature","geometry":{"type":"Polygon","coordinates":[[[-58.0194908,-35.5734381,0],[-58.019585,-35.5734494,0],[-58.019546,-35.573696,0],[-58.01949,-35.573686,0],[-58.019521,-35.5735635,0],[-58.019477,-35.5735588,0],[-58.0194908,-35.5734381,0]]]},"properties":{"name":"Archivo Municipal","description":{"@type":"html","value":"styleUrl: #poly-7CB342-1984-219<br>fill-opacity: 0.8588235294117647<br>fill: #7cb342<br>stroke-opacity: 1<br>stroke: #7cb342<br>stroke-width: 1.984<br>Descripción: <br>addr:street: Bolívar<br>addr:housenumber: 479<br>addr:city: Chascomús<br>addr:postcode: 7130"},"styleUrl":"#poly-7CB342-1984-219","fill-opacity":0.8588235294117647,"fill":"#7cb342","stroke-opacity":1,"stroke":"#7cb342","stroke-width":1.984,"Descripción":"","addr:street":"Bolívar","addr:housenumber":479,"addr:city":"Chascomús","addr:postcode":7130}},{"type":"Feature","geometry":{"type":"Polygon","coordinates":[[[-58.011029,-35.563009,0],[-58.010956,-35.56336,0],[-58.010648,-35.563325,0],[-58.01072,-35.562972,0],[-58.011029,-35.563009,0]]]},"properties":{"name":"Orquesta Escuela de Chascomùs","description":{"@type":"html","value":"styleUrl: #poly-7CB342-1984-219<br>fill-opacity: 0.8588235294117647<br>fill: #7cb342<br>stroke-opacity: 1<br>stroke: #7cb342<br>stroke-width: 1.984<br>Descripción: <br>addr:street: Av. Colombia<br>addr:housenumber: 27<br>addr:city: Chascomús<br>addr:postcode: 7130"},"styleUrl":"#poly-7CB342-1984-219","fill-opacity":0.8588235294117647,"fill":"#7cb342","stroke-opacity":1,"stroke":"#7cb342","stroke-width":1.984,"Descripción":"","addr:street":"Av. Colombia","addr:housenumber":27,"addr:city":"Chascomús","addr:postcode":7130}},{"type":"Feature","geometry":{"type":"Polygon","coordinates":[[[-58.012971,-35.559416,0],[-58.01296,-35.559526,0],[-58.012801,-35.55952,0],[-58.012817,-35.559408,0],[-58.012971,-35.559416,0]]]},"properties":{"name":"Estaciòn de Bombeo Cloacal","description":{"@type":"html","value":"styleUrl: #poly-7CB342-1984-219<br>fill-opacity: 0.8588235294117647<br>fill: #7cb342<br>stroke-opacity: 1<br>stroke: #7cb342<br>stroke-width: 1.984<br>Descripción: <br>addr:street: Neuquén<br>addr:housenumber: 7<br>addr:city: Chascomús<br>addr:postcode: 7130"},"styleUrl":"#poly-7CB342-1984-219","fill-opacity":0.8588235294117647,"fill":"#7cb342","stroke-opacity":1,"stroke":"#7cb342","stroke-width":1.984,"Descripción":"","addr:street":"Neuquén","addr:housenumber":7,"addr:city":"Chascomús","addr:postcode":7130}},{"type":"Feature","geometry":{"type":"Polygon","coordinates":[[[-58.010746,-35.551029,0],[-58.011118,-35.551341,0],[-58.010805,-35.551613,0],[-58.010445,-35.551273,0],[-58.010746,-35.551029,0]]]},"properties":{"description":{"@type":"html","value":"styleUrl: #poly-7CB342-1984-219<br>fill-opacity: 0.8588235294117647<br>fill: #7cb342<br>stroke-opacity: 1<br>stroke: #7cb342<br>stroke-width: 1.984<br>Descripción: <br>addr:street: Francisco Serantes<br>addr:housenumber: 1361<br>addr:city: Chascomús<br>addr:postcode: 7130"},"styleUrl":"#poly-7CB342-1984-219","fill-opacity":0.8588235294117647,"fill":"#7cb342","stroke-opacity":1,"stroke":"#7cb342","stroke-width":1.984,"Descripción":"","addr:street":"Francisco Serantes","addr:housenumber":1361,"addr:city":"Chascomús","addr:postcode":7130}},{"type":"Feature","geometry":{"type":"Polygon","coordinates":[[[-57.976227,-35.589209,0],[-57.976343,-35.588992,0],[-57.976573,-35.589045,0],[-57.978738,-35.590318,0],[-57.978939,-35.590685,0],[-57.978894,-35.590993,0],[-57.978804,-35.591181,0],[-57.978651,-35.591346,0],[-57.978385,-35.591325,0],[-57.975647,-35.590804,0],[-57.975792,-35.590278,0],[-57.975645,-35.590266,0],[-57.976227,-35.589209,0]]]},"properties":{"description":{"@type":"html","value":"styleUrl: #poly-7CB342-1984-219<br>fill-opacity: 0.8588235294117647<br>fill: #7cb342<br>stroke-opacity: 1<br>stroke: #7cb342<br>stroke-width: 1.984<br>Descripción: <br>addr:street: <br>addr:housenumber: <br>addr:city: <br>addr:postcode: "},"styleUrl":"#poly-7CB342-1984-219","fill-opacity":0.8588235294117647,"fill":"#7cb342","stroke-opacity":1,"stroke":"#7cb342","stroke-width":1.984,"Descripción":"","addr:street":"","addr:housenumber":"","addr:city":"","addr:postcode":""}},{"type":"Feature","geometry":{"type":"Polygon","coordinates":[[[-57.979824,-35.592396,0],[-57.977806,-35.594045,0],[-57.976455,-35.592946,0],[-57.976705,-35.591792,0],[-57.976925,-35.591625,0],[-57.977049,-35.591343,0],[-57.978201,-35.591567,0],[-57.978766,-35.591745,0],[-57.979824,-35.592396,0]]]},"properties":{"description":{"@type":"html","value":"styleUrl: #poly-7CB342-1984-219<br>fill-opacity: 0.8588235294117647<br>fill: #7cb342<br>stroke-opacity: 1<br>stroke: #7cb342<br>stroke-width: 1.984<br>Descripción: <br>addr:street: <br>addr:housenumber: <br>addr:city: <br>addr:postcode: "},"styleUrl":"#poly-7CB342-1984-219","fill-opacity":0.8588235294117647,"fill":"#7cb342","stroke-opacity":1,"stroke":"#7cb342","stroke-width":1.984,"Descripción":"","addr:street":"","addr:housenumber":"","addr:city":"","addr:postcode":""}},{"type":"Feature","geometry":{"type":"Polygon","coordinates":[[[-57.951696,-35.565188,0],[-57.950847,-35.564496,0],[-57.962772,-35.555654,0],[-57.962143,-35.562438,0],[-57.959849,-35.562079,0],[-57.959477,-35.562021,0],[-57.959367,-35.56207,0],[-57.957936,-35.56311,0],[-57.957052,-35.562677,0],[-57.954335,-35.565411,0],[-57.95297,-35.564368,0],[-57.951696,-35.565188,0]]]},"properties":{"description":{"@type":"html","value":"styleUrl: #poly-7CB342-1984-219<br>fill-opacity: 0.8588235294117647<br>fill: #7cb342<br>stroke-opacity: 1<br>stroke: #7cb342<br>stroke-width: 1.984<br>Descripción: <br>addr:street: <br>addr:housenumber: <br>addr:city: <br>addr:postcode: "},"styleUrl":"#poly-7CB342-1984-219","fill-opacity":0.8588235294117647,"fill":"#7cb342","stroke-opacity":1,"stroke":"#7cb342","stroke-width":1.984,"Descripción":"","addr:street":"","addr:housenumber":"","addr:city":"","addr:postcode":""}},{"type":"Feature","geometry":{"type":"Polygon","coordinates":[[[-57.993903,-35.582648,0],[-57.993812,-35.583311,0],[-57.992996,-35.583245,0],[-57.993087,-35.582569,0],[-57.993903,-35.582648,0]]]},"properties":{"description":{"@type":"html","value":"styleUrl: #poly-7CB342-1984-219<br>fill-opacity: 0.8588235294117647<br>fill: #7cb342<br>stroke-opacity: 1<br>stroke: #7cb342<br>stroke-width: 1.984<br>Descripción: Polideportivo<br>addr:street: <br>addr:housenumber: <br>addr:city: <br>addr:postcode: "},"styleUrl":"#poly-7CB342-1984-219","fill-opacity":0.8588235294117647,"fill":"#7cb342","stroke-opacity":1,"stroke":"#7cb342","stroke-width":1.984,"Descripción":"Polideportivo","addr:street":"","addr:housenumber":"","addr:city":"","addr:postcode":""}},{"type":"Feature","geometry":{"type":"Polygon","coordinates":[[[-58.013484,-35.57821,0],[-58.013467,-35.578326,0],[-58.013285,-35.5783,0],[-58.013296,-35.578245,0],[-58.013307,-35.578195,0],[-58.013484,-35.57821,0]]]},"properties":{"description":{"@type":"html","value":"styleUrl: #poly-7CB342-1984-219<br>fill-opacity: 0.8588235294117647<br>fill: #7cb342<br>stroke-opacity: 1<br>stroke: #7cb342<br>stroke-width: 1.984<br>Descripción: <br>addr:street: <br>addr:housenumber: <br>addr:city: <br>addr:postcode: "},"styleUrl":"#poly-7CB342-1984-219","fill-opacity":0.8588235294117647,"fill":"#7cb342","stroke-opacity":1,"stroke":"#7cb342","stroke-width":1.984,"Descripción":"","addr:street":"","addr:housenumber":"","addr:city":"","addr:postcode":""}},{"type":"Feature","geometry":{"type":"Polygon","coordinates":[[[-58.017193,-35.57074,0],[-58.017,-35.572075,0],[-58.016045,-35.571936,0],[-58.01612,-35.571648,0],[-58.015702,-35.571622,0],[-58.015895,-35.570644,0],[-58.017193,-35.57074,0]]]},"properties":{"description":{"@type":"html","value":"styleUrl: #poly-7CB342-1984-219<br>fill-opacity: 0.8588235294117647<br>fill: #7cb342<br>stroke-opacity: 1<br>stroke: #7cb342<br>stroke-width: 1.984<br>Descripción: <br>addr:street: <br>addr:housenumber: <br>addr:city: <br>addr:postcode: "},"styleUrl":"#poly-7CB342-1984-219","fill-opacity":0.8588235294117647,"fill":"#7cb342","stroke-opacity":1,"stroke":"#7cb342","stroke-width":1.984,"Descripción":"","addr:street":"","addr:housenumber":"","addr:city":"","addr:postcode":""}},{"type":"Feature","geometry":{"type":"Polygon","coordinates":[[[-57.97094,-35.575088,0],[-57.97094,-35.575341,0],[-57.970608,-35.575298,0],[-57.97065,-35.575088,0],[-57.97094,-35.575088,0]]]},"properties":{"description":{"@type":"html","value":"styleUrl: #poly-7CB342-1984-219<br>fill-opacity: 0.8588235294117647<br>fill: #7cb342<br>stroke-opacity: 1<br>stroke: #7cb342<br>stroke-width: 1.984<br>Descripción: <br>addr:street: <br>addr:housenumber: <br>addr:city: <br>addr:postcode: "},"styleUrl":"#poly-7CB342-1984-219","fill-opacity":0.8588235294117647,"fill":"#7cb342","stroke-opacity":1,"stroke":"#7cb342","stroke-width":1.984,"Descripción":"","addr:street":"","addr:housenumber":"","addr:city":"","addr:postcode":""}},{"type":"Feature","geometry":{"type":"Polygon","coordinates":[[[-57.985386,-35.576287,0],[-57.985343,-35.576461,0],[-57.985128,-35.576418,0],[-57.985182,-35.576234,0],[-57.985386,-35.576287,0]]]},"properties":{"description":{"@type":"html","value":"styleUrl: #poly-7CB342-1984-219<br>fill-opacity: 0.8588235294117647<br>fill: #7cb342<br>stroke-opacity: 1<br>stroke: #7cb342<br>stroke-width: 1.984<br>Descripción: <br>addr:street: <br>addr:housenumber: <br>addr:city: <br>addr:postcode: "},"styleUrl":"#poly-7CB342-1984-219","fill-opacity":0.8588235294117647,"fill":"#7cb342","stroke-opacity":1,"stroke":"#7cb342","stroke-width":1.984,"Descripción":"","addr:street":"","addr:housenumber":"","addr:city":"","addr:postcode":""}},{"type":"Feature","geometry":{"type":"Polygon","coordinates":[[[-58.023036,-35.563546,0],[-58.02325,-35.563634,0],[-58.023068,-35.563852,0],[-58.022875,-35.563808,0],[-58.023036,-35.563546,0]]]},"properties":{"description":{"@type":"html","value":"styleUrl: #poly-7CB342-1984-219<br>fill-opacity: 0.8588235294117647<br>fill: #7cb342<br>stroke-opacity: 1<br>stroke: #7cb342<br>stroke-width: 1.984<br>Descripción: <br>addr:street: <br>addr:housenumber: <br>addr:city: <br>addr:postcode: "},"styleUrl":"#poly-7CB342-1984-219","fill-opacity":0.8588235294117647,"fill":"#7cb342","stroke-opacity":1,"stroke":"#7cb342","stroke-width":1.984,"Descripción":"","addr:street":"","addr:housenumber":"","addr:city":"","addr:postcode":""}},{"type":"Feature","geometry":{"type":"Polygon","coordinates":[[[-58.010239,-35.580735,0],[-58.010207,-35.58086,0],[-58.0101641,-35.5808585,0],[-58.0101732,-35.5807953,0],[-58.0101891,-35.5807343,0],[-58.010239,-35.580735,0]]]},"properties":{"description":{"@type":"html","value":"styleUrl: #poly-7CB342-1984-219<br>fill-opacity: 0.8588235294117647<br>fill: #7cb342<br>stroke-opacity: 1<br>stroke: #7cb342<br>stroke-width: 1.984<br>Descripción: <br>addr:street: <br>addr:housenumber: <br>addr:city: <br>addr:postcode: "},"styleUrl":"#poly-7CB342-1984-219","fill-opacity":0.8588235294117647,"fill":"#7cb342","stroke-opacity":1,"stroke":"#7cb342","stroke-width":1.984,"Descripción":"","addr:street":"","addr:housenumber":"","addr:city":"","addr:postcode":""}},{"type":"Feature","geometry":{"type":"Polygon","coordinates":[[[-58.018093,-35.582292,0],[-58.018415,-35.582598,0],[-58.018114,-35.582799,0],[-58.017835,-35.582554,0],[-58.018093,-35.582292,0]]]},"properties":{"description":{"@type":"html","value":"styleUrl: #poly-7CB342-1984-219<br>fill-opacity: 0.8588235294117647<br>fill: #7cb342<br>stroke-opacity: 1<br>stroke: #7cb342<br>stroke-width: 1.984<br>Descripción: <br>addr:street: <br>addr:housenumber: <br>addr:city: <br>addr:postcode: "},"styleUrl":"#poly-7CB342-1984-219","fill-opacity":0.8588235294117647,"fill":"#7cb342","stroke-opacity":1,"stroke":"#7cb342","stroke-width":1.984,"Descripción":"","addr:street":"","addr:housenumber":"","addr:city":"","addr:postcode":""}},{"type":"Feature","geometry":{"type":"Polygon","coordinates":[[[-58.010199,-35.581017,0],[-58.010188,-35.581141,0],[-58.010066,-35.581131,0],[-58.010076,-35.58104,0],[-58.010091,-35.581042,0],[-58.010093,-35.581007,0],[-58.010199,-35.581017,0]]]},"properties":{"description":{"@type":"html","value":"styleUrl: #poly-7CB342-1984-219<br>fill-opacity: 0.8588235294117647<br>fill: #7cb342<br>stroke-opacity: 1<br>stroke: #7cb342<br>stroke-width: 1.984<br>Descripción: <br>addr:street: <br>addr:housenumber: <br>addr:city: <br>addr:postcode: "},"styleUrl":"#poly-7CB342-1984-219","fill-opacity":0.8588235294117647,"fill":"#7cb342","stroke-opacity":1,"stroke":"#7cb342","stroke-width":1.984,"Descripción":"","addr:street":"","addr:housenumber":"","addr:city":"","addr:postcode":""}},{"type":"Feature","geometry":{"type":"Polygon","coordinates":[[[-58.014603,-35.577259,0],[-58.014838,-35.577286,0],[-58.014829,-35.577361,0],[-58.014589,-35.577334,0],[-58.014603,-35.577259,0]]]},"properties":{"description":{"@type":"html","value":"styleUrl: #poly-7CB342-1984-219<br>fill-opacity: 0.8588235294117647<br>fill: #7cb342<br>stroke-opacity: 1<br>stroke: #7cb342<br>stroke-width: 1.984<br>Descripción: <br>addr:street: <br>addr:housenumber: <br>addr:city: <br>addr:postcode: "},"styleUrl":"#poly-7CB342-1984-219","fill-opacity":0.8588235294117647,"fill":"#7cb342","stroke-opacity":1,"stroke":"#7cb342","stroke-width":1.984,"Descripción":"","addr:street":"","addr:housenumber":"","addr:city":"","addr:postcode":""}},{"type":"Feature","geometry":{"type":"Point","coordinates":[-58.0158051,-35.5548719,0]},"properties":{"name":"Hogar de Ancianos Municipal","description":{"@type":"html","value":"styleUrl: <br>fill-opacity: <br>fill: <br>stroke-opacity: <br>stroke: <br>stroke-width: <br>Descripción: <br>addr:street: Los Cedros<br>addr:housenumber: 124<br>addr:city: <br>addr:postcode: "},"styleUrl":"","icon-opacity":1,"icon-color":"#0288d1","icon-scale":1,"icon-offset":[32,64],"icon-offset-units":["pixels","insetPixels"],"icon":"https://www.gstatic.com/mapspro/images/stock/503-wht-blank_maps.png","fill-opacity":"","fill":"","stroke-opacity":"","stroke":"","stroke-width":"","Descripción":"","addr:street":"Los Cedros","addr:housenumber":124,"addr:city":"","addr:postcode":""}},{"type":"Feature","geometry":{"type":"Point","coordinates":[-58.0157212,-35.5557682,0]},"properties":{"name":"Escuela Municipal Nº 2 Hipólito Bouchard","description":{"@type":"html","value":"styleUrl: <br>fill-opacity: <br>fill: <br>stroke-opacity: <br>stroke: <br>stroke-width: <br>Descripción: <br>addr:street: Alvear<br>addr:housenumber: 1160<br>addr:city: <br>addr:postcode: "},"styleUrl":"","icon-opacity":1,"icon-color":"#0288d1","icon-scale":1,"icon-offset":[32,64],"icon-offset-units":["pixels","insetPixels"],"icon":"https://www.gstatic.com/mapspro/images/stock/503-wht-blank_maps.png","fill-opacity":"","fill":"","stroke-opacity":"","stroke":"","stroke-width":"","Descripción":"","addr:street":"Alvear","addr:housenumber":1160,"addr:city":"","addr:postcode":""}},{"type":"Feature","geometry":{"type":"Point","coordinates":[-58.0105889,-35.5512781,0]},"properties":{"name":"Centro Integrador Comunitario","description":{"@type":"html","value":"styleUrl: <br>fill-opacity: <br>fill: <br>stroke-opacity: <br>stroke: <br>stroke-width: <br>Descripción: <br>addr:street: Francisco Serantes<br>addr:housenumber: 1361<br>addr:city: <br>addr:postcode: "},"styleUrl":"","icon-opacity":1,"icon-color":"#0288d1","icon-scale":1,"icon-offset":[32,64],"icon-offset-units":["pixels","insetPixels"],"icon":"https://www.gstatic.com/mapspro/images/stock/503-wht-blank_maps.png","fill-opacity":"","fill":"","stroke-opacity":"","stroke":"","stroke-width":"","Descripción":"","addr:street":"Francisco Serantes","addr:housenumber":1361,"addr:city":"","addr:postcode":""}},{"type":"Feature","geometry":{"type":"Point","coordinates":[-58.0111502,-35.5507685,0]},"properties":{"name":"CENTRO UNIVERSITARIO CHASCOMUS","description":{"@type":"html","value":"styleUrl: <br>fill-opacity: <br>fill: <br>stroke-opacity: <br>stroke: <br>stroke-width: <br>Descripción: <br>addr:street: Francisco Serantes<br>addr:housenumber: <br>addr:city: <br>addr:postcode: "},"styleUrl":"","icon-opacity":1,"icon-color":"#0288d1","icon-scale":1,"icon-offset":[32,64],"icon-offset-units":["pixels","insetPixels"],"icon":"https://www.gstatic.com/mapspro/images/stock/503-wht-blank_maps.png","fill-opacity":"","fill":"","stroke-opacity":"","stroke":"","stroke-width":"","Descripción":"","addr:street":"Francisco Serantes","addr:housenumber":"","addr:city":"","addr:postcode":""}},{"type":"Feature","geometry":{"type":"Polygon","coordinates":[[[-58.0112943,-35.5507115,0],[-58.0114244,-35.5508283,0],[-58.0113413,-35.5508938,0],[-58.0112098,-35.5507737,0],[-58.0111495,-35.5508174,0],[-58.0112702,-35.5509287,0],[-58.0111911,-35.5509898,0],[-58.0110543,-35.5508687,0],[-58.0111347,-35.5508054,0],[-58.0110972,-35.5507672,0],[-58.0111602,-35.5507236,0],[-58.0112098,-35.5507716,0],[-58.0112943,-35.5507115,0]]]},"properties":{"description":{"@type":"html","value":"styleUrl: <br>fill-opacity: <br>fill: <br>stroke-opacity: <br>stroke: <br>stroke-width: <br>Descripción: <br>addr:street: Francisco Serantes<br>addr:housenumber: <br>addr:city: <br>addr:postcode: "},"styleUrl":"","fill-opacity":"","fill":"","stroke-opacity":"","stroke":"","stroke-width":"","Descripción":"","addr:street":"Francisco Serantes","addr:housenumber":"","addr:city":"","addr:postcode":""}},{"type":"Feature","geometry":{"type":"Point","coordinates":[-58.0176159,-35.5613895,0]},"properties":{"name":"Servicios Sanitarios","description":{"@type":"html","value":"styleUrl: <br>fill-opacity: <br>fill: <br>stroke-opacity: <br>stroke: <br>stroke-width: <br>Descripción: <br>addr:street: Tucuman<br>addr:housenumber: 210<br>addr:city: <br>addr:postcode: "},"styleUrl":"","icon-opacity":1,"icon-color":"#0288d1","icon-scale":1,"icon-offset":[32,64],"icon-offset-units":["pixels","insetPixels"],"icon":"https://www.gstatic.com/mapspro/images/stock/503-wht-blank_maps.png","fill-opacity":"","fill":"","stroke-opacity":"","stroke":"","stroke-width":"","Descripción":"","addr:street":"Tucuman","addr:housenumber":210,"addr:city":"","addr:postcode":""}},{"type":"Feature","geometry":{"type":"Point","coordinates":[-58.0107992,-35.5633156,0]},"properties":{"name":"Orquesta Escuela de Chascomùs","description":{"@type":"html","value":"styleUrl: <br>fill-opacity: <br>fill: <br>stroke-opacity: <br>stroke: <br>stroke-width: <br>Descripción: <br>addr:street: Av Colombia<br>addr:housenumber: 27<br>addr:city: <br>addr:postcode: "},"styleUrl":"","icon-opacity":1,"icon-color":"#0288d1","icon-scale":1,"icon-offset":[32,64],"icon-offset-units":["pixels","insetPixels"],"icon":"https://www.gstatic.com/mapspro/images/stock/503-wht-blank_maps.png","fill-opacity":"","fill":"","stroke-opacity":"","stroke":"","stroke-width":"","Descripción":"","addr:street":"Av Colombia","addr:housenumber":27,"addr:city":"","addr:postcode":""}},{"type":"Feature","geometry":{"type":"Point","coordinates":[-58.0229956,-35.5636882,0]},"properties":{"name":"Caps San Luis","description":{"@type":"html","value":"styleUrl: <br>fill-opacity: <br>fill: <br>stroke-opacity: <br>stroke: <br>stroke-width: <br>Descripción: <br>addr:street: <br>addr:housenumber: <br>addr:city: <br>addr:postcode: "},"styleUrl":"","icon-opacity":1,"icon-color":"#0288d1","icon-scale":1,"icon-offset":[32,64],"icon-offset-units":["pixels","insetPixels"],"icon":"https://www.gstatic.com/mapspro/images/stock/503-wht-blank_maps.png","fill-opacity":"","fill":"","stroke-opacity":"","stroke":"","stroke-width":"","Descripción":"","addr:street":"","addr:housenumber":"","addr:city":"","addr:postcode":""}},{"type":"Feature","geometry":{"type":"Point","coordinates":[-58.0173302,-35.566036,0]},"properties":{"name":"Hogar La Casita","description":{"@type":"html","value":"styleUrl: <br>fill-opacity: <br>fill: <br>stroke-opacity: <br>stroke: <br>stroke-width: <br>Descripción: <br>addr:street: Lincoln<br>addr:housenumber: 604<br>addr:city: <br>addr:postcode: "},"styleUrl":"","icon-opacity":1,"icon-color":"#0288d1","icon-scale":1,"icon-offset":[32,64],"icon-offset-units":["pixels","insetPixels"],"icon":"https://www.gstatic.com/mapspro/images/stock/503-wht-blank_maps.png","fill-opacity":"","fill":"","stroke-opacity":"","stroke":"","stroke-width":"","Descripción":"","addr:street":"Lincoln","addr:housenumber":604,"addr:city":"","addr:postcode":""}},{"type":"Feature","geometry":{"type":"Point","coordinates":[-58.0186379,-35.5709473,0]},"properties":{"name":"Secretaria de Obras y Sevicios","description":{"@type":"html","value":"styleUrl: <br>fill-opacity: <br>fill: <br>stroke-opacity: <br>stroke: <br>stroke-width: <br>Descripción: <br>addr:street: Juarez<br>addr:housenumber: 275<br>addr:city: <br>addr:postcode: "},"styleUrl":"","icon-opacity":1,"icon-color":"#0288d1","icon-scale":1,"icon-offset":[32,64],"icon-offset-units":["pixels","insetPixels"],"icon":"https://www.gstatic.com/mapspro/images/stock/503-wht-blank_maps.png","fill-opacity":"","fill":"","stroke-opacity":"","stroke":"","stroke-width":"","Descripción":"","addr:street":"Juarez","addr:housenumber":275,"addr:city":"","addr:postcode":""}},{"type":"Feature","geometry":{"type":"Point","coordinates":[-58.0160844,-35.5712964,0]},"properties":{"name":"Centro Cultural Vieja Estacion","description":{"@type":"html","value":"styleUrl: <br>fill-opacity: <br>fill: <br>stroke-opacity: <br>stroke: <br>stroke-width: <br>Descripción: <br>addr:street: Belgrano<br>addr:housenumber: <br>addr:city: <br>addr:postcode: "},"styleUrl":"","icon-opacity":1,"icon-color":"#0288d1","icon-scale":1,"icon-offset":[32,64],"icon-offset-units":["pixels","insetPixels"],"icon":"https://www.gstatic.com/mapspro/images/stock/503-wht-blank_maps.png","fill-opacity":"","fill":"","stroke-opacity":"","stroke":"","stroke-width":"","Descripción":"","addr:street":"Belgrano","addr:housenumber":"","addr:city":"","addr:postcode":""}},{"type":"Feature","geometry":{"type":"Point","coordinates":[-58.0137796,-35.5696383,0]},"properties":{"name":"Casa Pre Egreso","description":{"@type":"html","value":"styleUrl: <br>fill-opacity: <br>fill: <br>stroke-opacity: <br>stroke: <br>stroke-width: <br>Descripción: <br>addr:street: Alvear <br>addr:housenumber: 414<br>addr:city: <br>addr:postcode: "},"styleUrl":"","icon-opacity":1,"icon-color":"#0288d1","icon-scale":1,"icon-offset":[32,64],"icon-offset-units":["pixels","insetPixels"],"icon":"https://www.gstatic.com/mapspro/images/stock/503-wht-blank_maps.png","fill-opacity":"","fill":"","stroke-opacity":"","stroke":"","stroke-width":"","Descripción":"","addr:street":"Alvear ","addr:housenumber":414,"addr:city":"","addr:postcode":""}},{"type":"Feature","geometry":{"type":"Point","coordinates":[-58.0195326,-35.5736367,0]},"properties":{"name":"Archivo Municipal","description":{"@type":"html","value":"styleUrl: <br>fill-opacity: <br>fill: <br>stroke-opacity: <br>stroke: <br>stroke-width: <br>Descripción: <br>addr:street: Bolivar<br>addr:housenumber: 477<br>addr:city: <br>addr:postcode: "},"styleUrl":"","icon-opacity":1,"icon-color":"#0288d1","icon-scale":1,"icon-offset":[32,64],"icon-offset-units":["pixels","insetPixels"],"icon":"https://www.gstatic.com/mapspro/images/stock/503-wht-blank_maps.png","fill-opacity":"","fill":"","stroke-opacity":"","stroke":"","stroke-width":"","Descripción":"","addr:street":"Bolivar","addr:housenumber":477,"addr:city":"","addr:postcode":""}},{"type":"Feature","geometry":{"type":"Point","coordinates":[-58.0195232,-35.5734578,0]},"properties":{"name":"Cuadrilla de Monitoreo","description":{"@type":"html","value":"styleUrl: <br>fill-opacity: <br>fill: <br>stroke-opacity: <br>stroke: <br>stroke-width: <br>Descripción: <br>addr:street: Bolivar<br>addr:housenumber: 477<br>addr:city: <br>addr:postcode: "},"styleUrl":"","icon-opacity":1,"icon-color":"#0288d1","icon-scale":1,"icon-offset":[32,64],"icon-offset-units":["pixels","insetPixels"],"icon":"https://www.gstatic.com/mapspro/images/stock/503-wht-blank_maps.png","fill-opacity":"","fill":"","stroke-opacity":"","stroke":"","stroke-width":"","Descripción":"","addr:street":"Bolivar","addr:housenumber":477,"addr:city":"","addr:postcode":""}},{"type":"Feature","geometry":{"type":"Polygon","coordinates":[[[-58.0190847,-35.5735506,0],[-58.0190257,-35.573544,0],[-58.0190337,-35.573508,0],[-58.0189962,-35.5735026,0],[-58.0190055,-35.5734633,0],[-58.0190981,-35.5734753,0],[-58.0190847,-35.5735506,0]]]},"properties":{"description":{"@type":"html","value":"styleUrl: <br>fill-opacity: <br>fill: <br>stroke-opacity: <br>stroke: <br>stroke-width: <br>Descripción: <br>addr:street: <br>addr:housenumber: <br>addr:city: <br>addr:postcode: "},"styleUrl":"","fill-opacity":"","fill":"","stroke-opacity":"","stroke":"","stroke-width":"","Descripción":"","addr:street":"","addr:housenumber":"","addr:city":"","addr:postcode":""}},{"type":"Feature","geometry":{"type":"Polygon","coordinates":[[[-58.0190981,-35.5734753,0],[-58.0190552,-35.5734688,0],[-58.0190592,-35.5734437,0],[-58.0189935,-35.5734371,0],[-58.0189988,-35.5733935,0],[-58.0191115,-35.5734055,0],[-58.0190981,-35.5734753,0]]]},"properties":{"description":{"@type":"html","value":"styleUrl: <br>fill-opacity: <br>fill: <br>stroke-opacity: <br>stroke: <br>stroke-width: <br>Descripción: <br>addr:street: <br>addr:housenumber: <br>addr:city: <br>addr:postcode: "},"styleUrl":"","fill-opacity":"","fill":"","stroke-opacity":"","stroke":"","stroke-width":"","Descripción":"","addr:street":"","addr:housenumber":"","addr:city":"","addr:postcode":""}},{"type":"Feature","geometry":{"type":"Point","coordinates":[-58.0190233,-35.5734141,0]},"properties":{"name":"Medicina Laboral","description":{"@type":"html","value":"styleUrl: <br>fill-opacity: <br>fill: <br>stroke-opacity: <br>stroke: <br>stroke-width: <br>Descripción: <br>addr:street: Dorrego<br>addr:housenumber: 229<br>addr:city: <br>addr:postcode: "},"styleUrl":"","icon-opacity":1,"icon-color":"#0288d1","icon-scale":1,"icon-offset":[32,64],"icon-offset-units":["pixels","insetPixels"],"icon":"https://www.gstatic.com/mapspro/images/stock/503-wht-blank_maps.png","fill-opacity":"","fill":"","stroke-opacity":"","stroke":"","stroke-width":"","Descripción":"","addr:street":"Dorrego","addr:housenumber":229,"addr:city":"","addr:postcode":""}},{"type":"Feature","geometry":{"type":"Point","coordinates":[-58.019026,-35.5734861,0]},"properties":{"name":"Viviendas","description":{"@type":"html","value":"styleUrl: <br>fill-opacity: <br>fill: <br>stroke-opacity: <br>stroke: <br>stroke-width: <br>Descripción: <br>addr:street: Dorrego<br>addr:housenumber: 229<br>addr:city: <br>addr:postcode: "},"styleUrl":"","icon-opacity":1,"icon-color":"#0288d1","icon-scale":1,"icon-offset":[32,64],"icon-offset-units":["pixels","insetPixels"],"icon":"https://www.gstatic.com/mapspro/images/stock/503-wht-blank_maps.png","fill-opacity":"","fill":"","stroke-opacity":"","stroke":"","stroke-width":"","Descripción":"","addr:street":"Dorrego","addr:housenumber":229,"addr:city":"","addr:postcode":""}},{"type":"Feature","geometry":{"type":"Point","coordinates":[-58.0190077,-35.5735805,0]},"properties":{"name":"Oficina Municipla de Informaciòn al Consumidor - O.M.I.C.","description":{"@type":"html","value":"styleUrl: <br>fill-opacity: <br>fill: <br>stroke-opacity: <br>stroke: <br>stroke-width: <br>Descripción: <br>addr:street: Dorrego<br>addr:housenumber: 229<br>addr:city: <br>addr:postcode: "},"styleUrl":"","icon-opacity":1,"icon-color":"#0288d1","icon-scale":1,"icon-offset":[32,64],"icon-offset-units":["pixels","insetPixels"],"icon":"https://www.gstatic.com/mapspro/images/stock/503-wht-blank_maps.png","fill-opacity":"","fill":"","stroke-opacity":"","stroke":"","stroke-width":"","Descripción":"","addr:street":"Dorrego","addr:housenumber":229,"addr:city":"","addr:postcode":""}},{"type":"Feature","geometry":{"type":"Point","coordinates":[-58.0189386,-35.5736421,0]},"properties":{"name":"Licencias de Conducir","description":{"@type":"html","value":"styleUrl: <br>fill-opacity: <br>fill: <br>stroke-opacity: <br>stroke: <br>stroke-width: <br>Descripción: <br>addr:street: Dorrego<br>addr:housenumber: 227<br>addr:city: <br>addr:postcode: "},"styleUrl":"","icon-opacity":1,"icon-color":"#0288d1","icon-scale":1,"icon-offset":[32,64],"icon-offset-units":["pixels","insetPixels"],"icon":"https://www.gstatic.com/mapspro/images/stock/503-wht-blank_maps.png","fill-opacity":"","fill":"","stroke-opacity":"","stroke":"","stroke-width":"","Descripción":"","addr:street":"Dorrego","addr:housenumber":227,"addr:city":"","addr:postcode":""}},{"type":"Feature","geometry":{"type":"Point","coordinates":[-58.000454,-35.5690237,0]},"properties":{"name":"Escuela Municipal Nº3- \"Federico Gàndara\"","description":{"@type":"html","value":"styleUrl: <br>fill-opacity: <br>fill: <br>stroke-opacity: <br>stroke: <br>stroke-width: <br>Descripción: <br>addr:street: Malvinas Argentinas<br>addr:housenumber: 396<br>addr:city: <br>addr:postcode: "},"styleUrl":"","icon-opacity":1,"icon-color":"#0288d1","icon-scale":1,"icon-offset":[32,64],"icon-offset-units":["pixels","insetPixels"],"icon":"https://www.gstatic.com/mapspro/images/stock/503-wht-blank_maps.png","fill-opacity":"","fill":"","stroke-opacity":"","stroke":"","stroke-width":"","Descripción":"","addr:street":"Malvinas Argentinas","addr:housenumber":396,"addr:city":"","addr:postcode":""}},{"type":"Feature","geometry":{"type":"Point","coordinates":[-57.9943493,-35.5684485,0]},"properties":{"name":"Jardìn Maternal y de Infantes Clarisa Amezaga","description":{"@type":"html","value":"styleUrl: <br>fill-opacity: <br>fill: <br>stroke-opacity: <br>stroke: <br>stroke-width: <br>Descripción: <br>addr:street: Inmigrantes Arabes<br>addr:housenumber: 640<br>addr:city: <br>addr:postcode: "},"styleUrl":"","icon-opacity":1,"icon-color":"#0288d1","icon-scale":1,"icon-offset":[32,64],"icon-offset-units":["pixels","insetPixels"],"icon":"https://www.gstatic.com/mapspro/images/stock/503-wht-blank_maps.png","fill-opacity":"","fill":"","stroke-opacity":"","stroke":"","stroke-width":"","Descripción":"","addr:street":"Inmigrantes Arabes","addr:housenumber":640,"addr:city":"","addr:postcode":""}},{"type":"Feature","geometry":{"type":"Point","coordinates":[-58.0117269,-35.5760106,0]},"properties":{"name":"Secretaria de Seguridad Ciudadana","description":{"@type":"html","value":"styleUrl: <br>fill-opacity: <br>fill: <br>stroke-opacity: <br>stroke: <br>stroke-width: <br>Descripción: <br>addr:street: Alvear<br>addr:housenumber: <br>addr:city: <br>addr:postcode: "},"styleUrl":"","icon-opacity":1,"icon-color":"#0288d1","icon-scale":1,"icon-offset":[32,64],"icon-offset-units":["pixels","insetPixels"],"icon":"https://www.gstatic.com/mapspro/images/stock/503-wht-blank_maps.png","fill-opacity":"","fill":"","stroke-opacity":"","stroke":"","stroke-width":"","Descripción":"","addr:street":"Alvear","addr:housenumber":"","addr:city":"","addr:postcode":""}},{"type":"Feature","geometry":{"type":"Point","coordinates":[-58.0117001,-35.5761459,0]},"properties":{"name":"Monitoreo","description":{"@type":"html","value":"styleUrl: <br>fill-opacity: <br>fill: <br>stroke-opacity: <br>stroke: <br>stroke-width: <br>Descripción: <br>addr:street: Arenales<br>addr:housenumber: 102<br>addr:city: <br>addr:postcode: "},"styleUrl":"","icon-opacity":1,"icon-color":"#0288d1","icon-scale":1,"icon-offset":[32,64],"icon-offset-units":["pixels","insetPixels"],"icon":"https://www.gstatic.com/mapspro/images/stock/503-wht-blank_maps.png","fill-opacity":"","fill":"","stroke-opacity":"","stroke":"","stroke-width":"","Descripción":"","addr:street":"Arenales","addr:housenumber":102,"addr:city":"","addr:postcode":""}},{"type":"Feature","geometry":{"type":"Polygon","coordinates":[[[-58.0108346,-35.5750279,0],[-58.0108158,-35.5751294,0],[-58.0107394,-35.5751195,0],[-58.0107555,-35.5750159,0],[-58.0108346,-35.5750279,0]]]},"properties":{"description":{"@type":"html","value":"styleUrl: <br>fill-opacity: <br>fill: <br>stroke-opacity: <br>stroke: <br>stroke-width: <br>Descripción: <br>addr:street: Soler<br>addr:housenumber: <br>addr:city: <br>addr:postcode: "},"styleUrl":"","fill-opacity":"","fill":"","stroke-opacity":"","stroke":"","stroke-width":"","Descripción":"","addr:street":"Soler","addr:housenumber":"","addr:city":"","addr:postcode":""}},{"type":"Feature","geometry":{"type":"Point","coordinates":[-58.010781,-35.575107,0]},"properties":{"name":"Juzgado de Faltas","description":{"@type":"html","value":"styleUrl: <br>fill-opacity: <br>fill: <br>stroke-opacity: <br>stroke: <br>stroke-width: <br>Descripción: <br>addr:street: Soler<br>addr:housenumber: <br>addr:city: <br>addr:postcode: "},"styleUrl":"","icon-opacity":1,"icon-color":"#0288d1","icon-scale":1,"icon-offset":[32,64],"icon-offset-units":["pixels","insetPixels"],"icon":"https://www.gstatic.com/mapspro/images/stock/503-wht-blank_maps.png","fill-opacity":"","fill":"","stroke-opacity":"","stroke":"","stroke-width":"","Descripción":"","addr:street":"Soler","addr:housenumber":"","addr:city":"","addr:postcode":""}},{"type":"Feature","geometry":{"type":"Point","coordinates":[-57.9588321,-35.5607622,0]},"properties":{"name":"Disposicion Final","description":{"@type":"html","value":"styleUrl: <br>fill-opacity: <br>fill: <br>stroke-opacity: <br>stroke: <br>stroke-width: <br>Descripción: <br>addr:street: Campaña del Desierto<br>addr:housenumber: <br>addr:city: <br>addr:postcode: "},"styleUrl":"","icon-opacity":1,"icon-color":"#0288d1","icon-scale":1,"icon-offset":[32,64],"icon-offset-units":["pixels","insetPixels"],"icon":"https://www.gstatic.com/mapspro/images/stock/503-wht-blank_maps.png","fill-opacity":"","fill":"","stroke-opacity":"","stroke":"","stroke-width":"","Descripción":"","addr:street":"Campaña del Desierto","addr:housenumber":"","addr:city":"","addr:postcode":""}},{"type":"Feature","geometry":{"type":"Point","coordinates":[-57.9897836,-35.5748552,0]},"properties":{"name":"Taller de Reparaciones de Rodados Municipales","description":{"@type":"html","value":"styleUrl: <br>fill-opacity: <br>fill: <br>stroke-opacity: <br>stroke: <br>stroke-width: <br>Descripción: <br>addr:street: Avenida Raúl Alfonsín<br>addr:housenumber: 1472<br>addr:city: <br>addr:postcode: "},"styleUrl":"","icon-opacity":1,"icon-color":"#0288d1","icon-scale":1,"icon-offset":[32,64],"icon-offset-units":["pixels","insetPixels"],"icon":"https://www.gstatic.com/mapspro/images/stock/503-wht-blank_maps.png","fill-opacity":"","fill":"","stroke-opacity":"","stroke":"","stroke-width":"","Descripción":"","addr:street":"Avenida Raúl Alfonsín","addr:housenumber":1472,"addr:city":"","addr:postcode":""}},{"type":"Feature","geometry":{"type":"Point","coordinates":[-57.9708835,-35.575143,0]},"properties":{"name":"CAPs El Porteño","description":{"@type":"html","value":"styleUrl: <br>fill-opacity: <br>fill: <br>stroke-opacity: <br>stroke: <br>stroke-width: <br>Descripción: <br>addr:street: Lucio v Mansilla<br>addr:housenumber: <br>addr:city: <br>addr:postcode: "},"styleUrl":"","icon-opacity":1,"icon-color":"#0288d1","icon-scale":1,"icon-offset":[32,64],"icon-offset-units":["pixels","insetPixels"],"icon":"https://www.gstatic.com/mapspro/images/stock/503-wht-blank_maps.png","fill-opacity":"","fill":"","stroke-opacity":"","stroke":"","stroke-width":"","Descripción":"","addr:street":"Lucio v Mansilla","addr:housenumber":"","addr:city":"","addr:postcode":""}},{"type":"Feature","geometry":{"type":"Point","coordinates":[-57.9852868,-35.5763107,0]},"properties":{"name":"CAPs Gallo Blanco","description":{"@type":"html","value":"styleUrl: <br>fill-opacity: <br>fill: <br>stroke-opacity: <br>stroke: <br>stroke-width: <br>Descripción: <br>addr:street: EeUu y Las Flores<br>addr:housenumber: <br>addr:city: <br>addr:postcode: "},"styleUrl":"","icon-opacity":1,"icon-color":"#0288d1","icon-scale":1,"icon-offset":[32,64],"icon-offset-units":["pixels","insetPixels"],"icon":"https://www.gstatic.com/mapspro/images/stock/503-wht-blank_maps.png","fill-opacity":"","fill":"","stroke-opacity":"","stroke":"","stroke-width":"","Descripción":"","addr:street":"EeUu y Las Flores","addr:housenumber":"","addr:city":"","addr:postcode":""}},{"type":"Feature","geometry":{"type":"Point","coordinates":[-57.9934854,-35.5827228,0]},"properties":{"name":"Polideportivo Municipal","description":{"@type":"html","value":"styleUrl: <br>fill-opacity: <br>fill: <br>stroke-opacity: <br>stroke: <br>stroke-width: <br>Descripción: <br>addr:street: Gonzales Chavez<br>addr:housenumber: <br>addr:city: <br>addr:postcode: "},"styleUrl":"","icon-opacity":1,"icon-color":"#0288d1","icon-scale":1,"icon-offset":[32,64],"icon-offset-units":["pixels","insetPixels"],"icon":"https://www.gstatic.com/mapspro/images/stock/503-wht-blank_maps.png","fill-opacity":"","fill":"","stroke-opacity":"","stroke":"","stroke-width":"","Descripción":"","addr:street":"Gonzales Chavez","addr:housenumber":"","addr:city":"","addr:postcode":""}},{"type":"Feature","geometry":{"type":"Point","coordinates":[-57.9772359,-35.5900401,0]},"properties":{"name":"Cementerio Municipal","description":{"@type":"html","value":"styleUrl: <br>fill-opacity: <br>fill: <br>stroke-opacity: <br>stroke: <br>stroke-width: <br>Descripción: <br>addr:street: Av Costanera España<br>addr:housenumber: <br>addr:city: <br>addr:postcode: "},"styleUrl":"","icon-opacity":1,"icon-color":"#0288d1","icon-scale":1,"icon-offset":[32,64],"icon-offset-units":["pixels","insetPixels"],"icon":"https://www.gstatic.com/mapspro/images/stock/503-wht-blank_maps.png","fill-opacity":"","fill":"","stroke-opacity":"","stroke":"","stroke-width":"","Descripción":"","addr:street":"Av Costanera España","addr:housenumber":"","addr:city":"","addr:postcode":""}},{"type":"Feature","geometry":{"type":"Point","coordinates":[-57.9779367,-35.5922086,0]},"properties":{"name":"Planta Depuradora","description":{"@type":"html","value":"styleUrl: <br>fill-opacity: <br>fill: <br>stroke-opacity: <br>stroke: <br>stroke-width: <br>Descripción: <br>addr:street: Av Int Marino<br>addr:housenumber: Av Costanera España<br>addr:city: <br>addr:postcode: "},"styleUrl":"","icon-opacity":1,"icon-color":"#0288d1","icon-scale":1,"icon-offset":[32,64],"icon-offset-units":["pixels","insetPixels"],"icon":"https://www.gstatic.com/mapspro/images/stock/503-wht-blank_maps.png","fill-opacity":"","fill":"","stroke-opacity":"","stroke":"","stroke-width":"","Descripción":"","addr:street":"Av Int Marino","addr:housenumber":"Av Costanera España","addr:city":"","addr:postcode":""}},{"type":"Feature","geometry":{"type":"Point","coordinates":[-57.9999801,-35.5802927,0]},"properties":{"name":"Estaciòn de Bombeo cloacal","description":{"@type":"html","value":"styleUrl: <br>fill-opacity: <br>fill: <br>stroke-opacity: <br>stroke: <br>stroke-width: <br>Descripción: <br>addr:street: Díaz Vélez<br>addr:housenumber: 320<br>addr:city: <br>addr:postcode: "},"styleUrl":"","icon-opacity":1,"icon-color":"#0288d1","icon-scale":1,"icon-offset":[32,64],"icon-offset-units":["pixels","insetPixels"],"icon":"https://www.gstatic.com/mapspro/images/stock/503-wht-blank_maps.png","fill-opacity":"","fill":"","stroke-opacity":"","stroke":"","stroke-width":"","Descripción":"","addr:street":"Díaz Vélez","addr:housenumber":320,"addr:city":"","addr:postcode":""}},{"type":"Feature","geometry":{"type":"Point","coordinates":[-58.0037687,-35.580308,0]},"properties":{"name":"Estaciòn de Bombeo Cloacal","description":{"@type":"html","value":"styleUrl: <br>fill-opacity: <br>fill: <br>stroke-opacity: <br>stroke: <br>stroke-width: <br>Descripción: <br>addr:street: Díaz Vélez<br>addr:housenumber: 161<br>addr:city: <br>addr:postcode: "},"styleUrl":"","icon-opacity":1,"icon-color":"#0288d1","icon-scale":1,"icon-offset":[32,64],"icon-offset-units":["pixels","insetPixels"],"icon":"https://www.gstatic.com/mapspro/images/stock/503-wht-blank_maps.png","fill-opacity":"","fill":"","stroke-opacity":"","stroke":"","stroke-width":"","Descripción":"","addr:street":"Díaz Vélez","addr:housenumber":161,"addr:city":"","addr:postcode":""}},{"type":"Feature","geometry":{"type":"Polygon","coordinates":[[[-58.0078316,-35.5839141,0],[-58.0078208,-35.5840189,0],[-58.0076438,-35.5840014,0],[-58.007676,-35.5838836,0],[-58.0078316,-35.5839141,0]]]},"properties":{"description":{"@type":"html","value":"styleUrl: <br>fill-opacity: <br>fill: <br>stroke-opacity: <br>stroke: <br>stroke-width: <br>Descripción: <br>addr:street: <br>addr:housenumber: <br>addr:city: <br>addr:postcode: "},"styleUrl":"","fill-opacity":"","fill":"","stroke-opacity":"","stroke":"","stroke-width":"","Descripción":"","addr:street":"","addr:housenumber":"","addr:city":"","addr:postcode":""}},{"type":"Feature","geometry":{"type":"Point","coordinates":[-58.0077296,-35.5839403,0]},"properties":{"name":"Informe Turistico","description":{"@type":"html","value":"styleUrl: <br>fill-opacity: <br>fill: <br>stroke-opacity: <br>stroke: <br>stroke-width: <br>Descripción: <br>addr:street: <br>addr:housenumber: <br>addr:city: <br>addr:postcode: "},"styleUrl":"","icon-opacity":1,"icon-color":"#0288d1","icon-scale":1,"icon-offset":[32,64],"icon-offset-units":["pixels","insetPixels"],"icon":"https://www.gstatic.com/mapspro/images/stock/503-wht-blank_maps.png","fill-opacity":"","fill":"","stroke-opacity":"","stroke":"","stroke-width":"","Descripción":"","addr:street":"","addr:housenumber":"","addr:city":"","addr:postcode":""}},{"type":"Feature","geometry":{"type":"Polygon","coordinates":[[[-57.9955751,-35.5833385,0],[-57.9955644,-35.5834541,0],[-57.9954571,-35.5834432,0],[-57.9954705,-35.5833276,0],[-57.9955751,-35.5833385,0]]]},"properties":{"description":{"@type":"html","value":"styleUrl: <br>fill-opacity: <br>fill: <br>stroke-opacity: <br>stroke: <br>stroke-width: <br>Descripción: <br>addr:street: <br>addr:housenumber: <br>addr:city: <br>addr:postcode: "},"styleUrl":"","fill-opacity":"","fill":"","stroke-opacity":"","stroke":"","stroke-width":"","Descripción":"","addr:street":"","addr:housenumber":"","addr:city":"","addr:postcode":""}},{"type":"Feature","geometry":{"type":"Point","coordinates":[-57.9955134,-35.5833908,0]},"properties":{"name":"Direccion de Turismo","description":{"@type":"html","value":"styleUrl: <br>fill-opacity: <br>fill: <br>stroke-opacity: <br>stroke: <br>stroke-width: <br>Descripción: <br>addr:street: <br>addr:housenumber: <br>addr:city: <br>addr:postcode: "},"styleUrl":"","icon-opacity":1,"icon-color":"#0288d1","icon-scale":1,"icon-offset":[32,64],"icon-offset-units":["pixels","insetPixels"],"icon":"https://www.gstatic.com/mapspro/images/stock/503-wht-blank_maps.png","fill-opacity":"","fill":"","stroke-opacity":"","stroke":"","stroke-width":"","Descripción":"","addr:street":"","addr:housenumber":"","addr:city":"","addr:postcode":""}},{"type":"Feature","geometry":{"type":"Polygon","coordinates":[[[-57.9952137,-35.5828141,0],[-57.9952097,-35.5828425,0],[-57.9951949,-35.5828414,0],[-57.9951895,-35.5828763,0],[-57.9951399,-35.582873,0],[-57.9951466,-35.5828108,0],[-57.9952137,-35.5828141,0]]]},"properties":{"description":{"@type":"html","value":"styleUrl: <br>fill-opacity: <br>fill: <br>stroke-opacity: <br>stroke: <br>stroke-width: <br>Descripción: <br>addr:street: <br>addr:housenumber: <br>addr:city: <br>addr:postcode: "},"styleUrl":"","fill-opacity":"","fill":"","stroke-opacity":"","stroke":"","stroke-width":"","Descripción":"","addr:street":"","addr:housenumber":"","addr:city":"","addr:postcode":""}},{"type":"Feature","geometry":{"type":"Point","coordinates":[-57.9951667,-35.5828474,0]},"properties":{"name":"Direccion de Ambiente","description":{"@type":"html","value":"styleUrl: <br>fill-opacity: <br>fill: <br>stroke-opacity: <br>stroke: <br>stroke-width: <br>Descripción: <br>addr:street: <br>addr:housenumber: <br>addr:city: <br>addr:postcode: "},"styleUrl":"","icon-opacity":1,"icon-color":"#0288d1","icon-scale":1,"icon-offset":[32,64],"icon-offset-units":["pixels","insetPixels"],"icon":"https://www.gstatic.com/mapspro/images/stock/503-wht-blank_maps.png","fill-opacity":"","fill":"","stroke-opacity":"","stroke":"","stroke-width":"","Descripción":"","addr:street":"","addr:housenumber":"","addr:city":"","addr:postcode":""}},{"type":"Feature","geometry":{"type":"Polygon","coordinates":[[[-57.9920145,-35.5849428,0],[-57.9922452,-35.5849646,0],[-57.9922237,-35.5852962,0],[-57.9919126,-35.5852744,0],[-57.9920145,-35.5849428,0]]]},"properties":{"description":{"@type":"html","value":"styleUrl: <br>fill-opacity: <br>fill: <br>stroke-opacity: <br>stroke: <br>stroke-width: <br>Descripción: <br>addr:street: <br>addr:housenumber: <br>addr:city: <br>addr:postcode: "},"styleUrl":"","fill-opacity":"","fill":"","stroke-opacity":"","stroke":"","stroke-width":"","Descripción":"","addr:street":"","addr:housenumber":"","addr:city":"","addr:postcode":""}},{"type":"Feature","geometry":{"type":"Point","coordinates":[-57.9920843,-35.5851151,0]},"properties":{"name":"Seguridad Vial","description":{"@type":"html","value":"styleUrl: <br>fill-opacity: <br>fill: <br>stroke-opacity: <br>stroke: <br>stroke-width: <br>Descripción: <br>addr:street: <br>addr:housenumber: <br>addr:city: <br>addr:postcode: "},"styleUrl":"","icon-opacity":1,"icon-color":"#0288d1","icon-scale":1,"icon-offset":[32,64],"icon-offset-units":["pixels","insetPixels"],"icon":"https://www.gstatic.com/mapspro/images/stock/503-wht-blank_maps.png","fill-opacity":"","fill":"","stroke-opacity":"","stroke":"","stroke-width":"","Descripción":"","addr:street":"","addr:housenumber":"","addr:city":"","addr:postcode":""}},{"type":"Feature","geometry":{"type":"Point","coordinates":[-58.0101803,-35.5810753,0]},"properties":{"name":"Secretarìa de Desarrollo Humano","description":{"@type":"html","value":"styleUrl: <br>fill-opacity: <br>fill: <br>stroke-opacity: <br>stroke: <br>stroke-width: <br>Descripción: <br>addr:street: Moreno<br>addr:housenumber: <br>addr:city: <br>addr:postcode: "},"styleUrl":"","icon-opacity":1,"icon-color":"#0288d1","icon-scale":1,"icon-offset":[32,64],"icon-offset-units":["pixels","insetPixels"],"icon":"https://www.gstatic.com/mapspro/images/stock/503-wht-blank_maps.png","fill-opacity":"","fill":"","stroke-opacity":"","stroke":"","stroke-width":"","Descripción":"","addr:street":"Moreno","addr:housenumber":"","addr:city":"","addr:postcode":""}},{"type":"Feature","geometry":{"type":"Point","coordinates":[-58.0101789,-35.5809193,0]},"properties":{"name":"Servicio Local Promociòn y Protecciòn Derechos de Niños, Niñas y Adolescentes","description":{"@type":"html","value":"styleUrl: <br>fill-opacity: <br>fill: <br>stroke-opacity: <br>stroke: <br>stroke-width: <br>Descripción: <br>addr:street: Moreno<br>addr:housenumber: 259<br>addr:city: <br>addr:postcode: "},"styleUrl":"","icon-opacity":1,"icon-color":"#0288d1","icon-scale":1,"icon-offset":[32,64],"icon-offset-units":["pixels","insetPixels"],"icon":"https://www.gstatic.com/mapspro/images/stock/503-wht-blank_maps.png","fill-opacity":"","fill":"","stroke-opacity":"","stroke":"","stroke-width":"","Descripción":"","addr:street":"Moreno","addr:housenumber":259,"addr:city":"","addr:postcode":""}},{"type":"Feature","geometry":{"type":"Point","coordinates":[-58.0100582,-35.5807436,0]},"properties":{"name":"Bromatologia - Municipalidad de Chascomùs","description":{"@type":"html","value":"styleUrl: <br>fill-opacity: <br>fill: <br>stroke-opacity: <br>stroke: <br>stroke-width: <br>Descripción: <br>addr:street: Mendoza<br>addr:housenumber: 95<br>addr:city: <br>addr:postcode: "},"styleUrl":"","icon-opacity":1,"icon-color":"#0288d1","icon-scale":1,"icon-offset":[32,64],"icon-offset-units":["pixels","insetPixels"],"icon":"https://www.gstatic.com/mapspro/images/stock/503-wht-blank_maps.png","fill-opacity":"","fill":"","stroke-opacity":"","stroke":"","stroke-width":"","Descripción":"","addr:street":"Mendoza","addr:housenumber":95,"addr:city":"","addr:postcode":""}},{"type":"Feature","geometry":{"type":"Point","coordinates":[-58.0102084,-35.5807775,0]},"properties":{"name":"Niñes y Adolecencia","description":{"@type":"html","value":"styleUrl: <br>fill-opacity: <br>fill: <br>stroke-opacity: <br>stroke: <br>stroke-width: <br>Descripción: <br>addr:street: <br>addr:housenumber: <br>addr:city: <br>addr:postcode: "},"styleUrl":"","icon-opacity":1,"icon-color":"#0288d1","icon-scale":1,"icon-offset":[32,64],"icon-offset-units":["pixels","insetPixels"],"icon":"https://www.gstatic.com/mapspro/images/stock/503-wht-blank_maps.png","fill-opacity":"","fill":"","stroke-opacity":"","stroke":"","stroke-width":"","Descripción":"","addr:street":"","addr:housenumber":"","addr:city":"","addr:postcode":""}},{"type":"Feature","geometry":{"type":"Point","coordinates":[-58.0101458,-35.580768,0]},"properties":{"name":"Direcciòn de Educaciòn","description":{"@type":"html","value":"styleUrl: <br>fill-opacity: <br>fill: <br>stroke-opacity: <br>stroke: <br>stroke-width: <br>Descripción: <br>addr:street: Mendoza<br>addr:housenumber: 95<br>addr:city: <br>addr:postcode: "},"styleUrl":"","icon-opacity":1,"icon-color":"#0288d1","icon-scale":1,"icon-offset":[32,64],"icon-offset-units":["pixels","insetPixels"],"icon":"https://www.gstatic.com/mapspro/images/stock/503-wht-blank_maps.png","fill-opacity":"","fill":"","stroke-opacity":"","stroke":"","stroke-width":"","Descripción":"","addr:street":"Mendoza","addr:housenumber":95,"addr:city":"","addr:postcode":""}},{"type":"Feature","geometry":{"type":"Point","coordinates":[-58.0181009,-35.5825689,0]},"properties":{"name":"Edificio del Turista","description":{"@type":"html","value":"styleUrl: <br>fill-opacity: <br>fill: <br>stroke-opacity: <br>stroke: <br>stroke-width: <br>Descripción: <br>addr:street: <br>addr:housenumber: <br>addr:city: <br>addr:postcode: "},"styleUrl":"","icon-opacity":1,"icon-color":"#0288d1","icon-scale":1,"icon-offset":[32,64],"icon-offset-units":["pixels","insetPixels"],"icon":"https://www.gstatic.com/mapspro/images/stock/503-wht-blank_maps.png","fill-opacity":"","fill":"","stroke-opacity":"","stroke":"","stroke-width":"","Descripción":"","addr:street":"","addr:housenumber":"","addr:city":"","addr:postcode":""}},{"type":"Feature","geometry":{"type":"Point","coordinates":[-58.0164594,-35.5797174,0]},"properties":{"name":"Escuela Municipal N°1 ¨JUAN GALO DE LAVALLE","description":{"@type":"html","value":"styleUrl: <br>fill-opacity: <br>fill: <br>stroke-opacity: <br>stroke: <br>stroke-width: <br>Descripción: <br>addr:street: San Martin<br>addr:housenumber: 405<br>addr:city: <br>addr:postcode: "},"styleUrl":"","icon-opacity":1,"icon-color":"#0288d1","icon-scale":1,"icon-offset":[32,64],"icon-offset-units":["pixels","insetPixels"],"icon":"https://www.gstatic.com/mapspro/images/stock/503-wht-blank_maps.png","fill-opacity":"","fill":"","stroke-opacity":"","stroke":"","stroke-width":"","Descripción":"","addr:street":"San Martin","addr:housenumber":405,"addr:city":"","addr:postcode":""}},{"type":"Feature","geometry":{"type":"Point","coordinates":[-58.017661,-35.5785487,0]},"properties":{"name":"Museo Pampeano","description":{"@type":"html","value":"styleUrl: <br>fill-opacity: <br>fill: <br>stroke-opacity: <br>stroke: <br>stroke-width: <br>Descripción: <br>addr:street: Muñis<br>addr:housenumber: <br>addr:city: <br>addr:postcode: "},"styleUrl":"","icon-opacity":1,"icon-color":"#0288d1","icon-scale":1,"icon-offset":[32,64],"icon-offset-units":["pixels","insetPixels"],"icon":"https://www.gstatic.com/mapspro/images/stock/503-wht-blank_maps.png","fill-opacity":"","fill":"","stroke-opacity":"","stroke":"","stroke-width":"","Descripción":"","addr:street":"Muñis","addr:housenumber":"","addr:city":"","addr:postcode":""}},{"type":"Feature","geometry":{"type":"Point","coordinates":[-58.0142171,-35.5794737,0]},"properties":{"name":"Casa de Casco","description":{"@type":"html","value":"styleUrl: <br>fill-opacity: <br>fill: <br>stroke-opacity: <br>stroke: <br>stroke-width: <br>Descripción: <br>addr:street: Sarmiento<br>addr:housenumber: 146<br>addr:city: <br>addr:postcode: "},"styleUrl":"","icon-opacity":1,"icon-color":"#0288d1","icon-scale":1,"icon-offset":[32,64],"icon-offset-units":["pixels","insetPixels"],"icon":"https://www.gstatic.com/mapspro/images/stock/503-wht-blank_maps.png","fill-opacity":"","fill":"","stroke-opacity":"","stroke":"","stroke-width":"","Descripción":"","addr:street":"Sarmiento","addr:housenumber":146,"addr:city":"","addr:postcode":""}},{"type":"Feature","geometry":{"type":"Point","coordinates":[-58.0143673,-35.5790025,0]},"properties":{"name":"Teatro Municipal Brazzola","description":{"@type":"html","value":"styleUrl: <br>fill-opacity: <br>fill: <br>stroke-opacity: <br>stroke: <br>stroke-width: <br>Descripción: <br>addr:street: Sarmiento<br>addr:housenumber: 90<br>addr:city: <br>addr:postcode: "},"styleUrl":"","icon-opacity":1,"icon-color":"#0288d1","icon-scale":1,"icon-offset":[32,64],"icon-offset-units":["pixels","insetPixels"],"icon":"https://www.gstatic.com/mapspro/images/stock/503-wht-blank_maps.png","fill-opacity":"","fill":"","stroke-opacity":"","stroke":"","stroke-width":"","Descripción":"","addr:street":"Sarmiento","addr:housenumber":90,"addr:city":"","addr:postcode":""}},{"type":"Feature","geometry":{"type":"Point","coordinates":[-58.0138986,-35.5783924,0]},"properties":{"name":"Palacio Municipal-Municipalidad de Chascomùs","description":{"@type":"html","value":"styleUrl: <br>fill-opacity: <br>fill: <br>stroke-opacity: <br>stroke: <br>stroke-width: <br>Descripción: <br>addr:street: Cramer<br>addr:housenumber: 270<br>addr:city: <br>addr:postcode: "},"styleUrl":"","icon-opacity":1,"icon-color":"#0288d1","icon-scale":1,"icon-offset":[32,64],"icon-offset-units":["pixels","insetPixels"],"icon":"https://www.gstatic.com/mapspro/images/stock/503-wht-blank_maps.png","fill-opacity":"","fill":"","stroke-opacity":"","stroke":"","stroke-width":"","Descripción":"","addr:street":"Cramer","addr:housenumber":270,"addr:city":"","addr:postcode":""}},{"type":"Feature","geometry":{"type":"Point","coordinates":[-58.0133862,-35.5782659,0]},"properties":{"name":"Secretaria de Salud","description":{"@type":"html","value":"styleUrl: <br>fill-opacity: <br>fill: <br>stroke-opacity: <br>stroke: <br>stroke-width: <br>Descripción: <br>addr:street: Mitre<br>addr:housenumber: <br>addr:city: <br>addr:postcode: "},"styleUrl":"","icon-opacity":1,"icon-color":"#0288d1","icon-scale":1,"icon-offset":[32,64],"icon-offset-units":["pixels","insetPixels"],"icon":"https://www.gstatic.com/mapspro/images/stock/503-wht-blank_maps.png","fill-opacity":"","fill":"","stroke-opacity":"","stroke":"","stroke-width":"","Descripción":"","addr:street":"Mitre","addr:housenumber":"","addr:city":"","addr:postcode":""}},{"type":"Feature","geometry":{"type":"Point","coordinates":[-58.0146215,-35.5772969,0]},"properties":{"name":"Presidencia HCD","description":{"@type":"html","value":"styleUrl: <br>fill-opacity: <br>fill: <br>stroke-opacity: <br>stroke: <br>stroke-width: <br>Descripción: <br>addr:street: Belgrano<br>addr:housenumber: <br>addr:city: <br>addr:postcode: "},"styleUrl":"","icon-opacity":1,"icon-color":"#0288d1","icon-scale":1,"icon-offset":[32,64],"icon-offset-units":["pixels","insetPixels"],"icon":"https://www.gstatic.com/mapspro/images/stock/503-wht-blank_maps.png","fill-opacity":"","fill":"","stroke-opacity":"","stroke":"","stroke-width":"","Descripción":"","addr:street":"Belgrano","addr:housenumber":"","addr:city":"","addr:postcode":""}},{"type":"Feature","geometry":{"type":"Point","coordinates":[-58.0077057,-35.5765048,0]},"properties":{"name":"Hospital Municipal de Chascomús- San Vicente de Paul","description":{"@type":"html","value":"styleUrl: <br>fill-opacity: <br>fill: <br>stroke-opacity: <br>stroke: <br>stroke-width: <br>Descripción: <br>addr:street: Avenida Hipólito Yrigoyen<br>addr:housenumber: 27<br>addr:city: <br>addr:postcode: "},"styleUrl":"","icon-opacity":1,"icon-color":"#0288d1","icon-scale":1,"icon-offset":[32,64],"icon-offset-units":["pixels","insetPixels"],"icon":"https://www.gstatic.com/mapspro/images/stock/503-wht-blank_maps.png","fill-opacity":"","fill":"","stroke-opacity":"","stroke":"","stroke-width":"","Descripción":"","addr:street":"Avenida Hipólito Yrigoyen","addr:housenumber":27,"addr:city":"","addr:postcode":""}},{"type":"Feature","geometry":{"type":"Polygon","coordinates":[[[-58.0131169,-35.53183,0],[-58.0131866,-35.5318977,0],[-58.0130042,-35.5320243,0],[-58.0129399,-35.5319544,0],[-58.0131169,-35.53183,0]]]},"properties":{"description":{"@type":"html","value":"styleUrl: <br>fill-opacity: <br>fill: <br>stroke-opacity: <br>stroke: <br>stroke-width: <br>Descripción: <br>addr:street: <br>addr:housenumber: <br>addr:city: <br>addr:postcode: "},"styleUrl":"","fill-opacity":"","fill":"","stroke-opacity":"","stroke":"","stroke-width":"","Descripción":"","addr:street":"","addr:housenumber":"","addr:city":"","addr:postcode":""}},{"type":"Feature","geometry":{"type":"Point","coordinates":[-58.0130364,-35.531907,0]},"properties":{"name":"Caps San Cayetano","description":{"@type":"html","value":"styleUrl: <br>fill-opacity: <br>fill: <br>stroke-opacity: <br>stroke: <br>stroke-width: <br>Descripción: <br>addr:street: Gabino Ezeiza<br>addr:housenumber: <br>addr:city: <br>addr:postcode: "},"styleUrl":"","icon-opacity":1,"icon-color":"#0288d1","icon-scale":1,"icon-offset":[32,64],"icon-offset-units":["pixels","insetPixels"],"icon":"https://www.gstatic.com/mapspro/images/stock/503-wht-blank_maps.png","fill-opacity":"","fill":"","stroke-opacity":"","stroke":"","stroke-width":"","Descripción":"","addr:street":"Gabino Ezeiza","addr:housenumber":"","addr:city":"","addr:postcode":""}},{"type":"Feature","geometry":{"type":"Point","coordinates":[-58.020331,-35.5782099,0]},"properties":{"name":"Direcciòn de Deporte","description":{"@type":"html","value":"styleUrl: <br>fill-opacity: <br>fill: <br>stroke-opacity: <br>stroke: <br>stroke-width: <br>Descripción: <br>addr:street: Av Lastra <br>addr:housenumber: 1<br>addr:city: <br>addr:postcode: "},"styleUrl":"","icon-opacity":1,"icon-color":"#0288d1","icon-scale":1,"icon-offset":[32,64],"icon-offset-units":["pixels","insetPixels"],"icon":"https://www.gstatic.com/mapspro/images/stock/503-wht-blank_maps.png","fill-opacity":"","fill":"","stroke-opacity":"","stroke":"","stroke-width":"","Descripción":"","addr:street":"Av Lastra ","addr:housenumber":1,"addr:city":"","addr:postcode":""}}]}