{"type":"FeatureCollection","features":[{"type":"Feature","properties":{"description":{"@type":"html","value":"Descripción: <br>nombre: Calesita El Reloj<br>direccion: Belgrano  \"Ferroautomotor\"<br>contacto: 11-54575364<br>actividades: Calesita, cama elástica, actividades para niños."},"styleUrl":"#icon-1899-0288D1","icon-opacity":1,"icon-color":"#0288d1","icon-scale":1,"icon-offset":[32,64],"icon-offset-units":["pixels","insetPixels"],"icon":"https://www.gstatic.com/mapspro/images/stock/503-wht-blank_maps.png","Descripción":"","nombre":"Calesita El Reloj","direccion":"Belgrano  \"Ferroautomotor\"","contacto":"11-54575364","actividades":"Calesita, cama elástica, actividades para niños."},"geometry":{"coordinates":[-58.015739,-35.5713986,0],"type":"Point"}},{"type":"Feature","properties":{"description":{"@type":"html","value":"Descripción: <br>nombre: Club de aeromodelismo<br>direccion: Camino de Circunvalación Km 8,5<br>contacto: 2241- 692881 / 695294<br>actividades: "},"styleUrl":"#icon-1899-0288D1","icon-opacity":1,"icon-color":"#0288d1","icon-scale":1,"icon-offset":[32,64],"icon-offset-units":["pixels","insetPixels"],"icon":"https://www.gstatic.com/mapspro/images/stock/503-wht-blank_maps.png","Descripción":"","nombre":"Club de aeromodelismo","direccion":"Camino de Circunvalación Km 8,5","contacto":"2241- 692881 / 695294","actividades":""},"geometry":{"coordinates":[-57.994506401895066,-35.61238434033584],"type":"Point"}},{"type":"Feature","properties":{"description":{"@type":"html","value":"Descripción: <br>nombre: Videojuegos Play Chas<br>direccion: Belgrano 75<br>contacto: 221-4638491<br>actividades: "},"styleUrl":"#icon-1899-0288D1","icon-opacity":1,"icon-color":"#0288d1","icon-scale":1,"icon-offset":[32,64],"icon-offset-units":["pixels","insetPixels"],"icon":"https://www.gstatic.com/mapspro/images/stock/503-wht-blank_maps.png","Descripción":"","nombre":"Videojuegos Play Chas","direccion":"Belgrano 75","contacto":"221-4638491","actividades":""},"geometry":{"coordinates":[-58.0148033,-35.5763155,0],"type":"Point"}},{"type":"Feature","properties":{"description":"{\"@type\":\"html\",\"value\":\"Descripción: <br>nombre: Pedaleando Chascomús<br>direccion: Parque de la Esperanza<br>contacto: 11- 44708124<br>actividades: Visitas guiadas temáticas\"}","styleUrl":"#icon-1899-0288D1","icon-opacity":1,"icon-color":"#0288d1","icon-scale":1,"icon-offset":"[32,64]","icon-offset-units":"[\"pixels\",\"insetPixels\"]","icon":"https://www.gstatic.com/mapspro/images/stock/503-wht-blank_maps.png","Descripción":"","nombre":"Pedaleando Chascomús","direccion":"Parque de la Esperanza","contacto":"11- 44708124","actividades":"Visitas guiadas temáticas"},"geometry":{"coordinates":[-58.001478039381055,-35.582711491947016],"type":"Point"}},{"type":"Feature","properties":{"description":{"@type":"html","value":"Descripción: <br>nombre: Puerto Aventura<br>direccion: Av. Costanera P. Gastón y Ayacucho<br>contacto: 2241 409396<br>actividades: Parque Acuático Recreativo."},"styleUrl":"#icon-1899-0288D1","icon-opacity":1,"icon-color":"#0288d1","icon-scale":1,"icon-offset":[32,64],"icon-offset-units":["pixels","insetPixels"],"icon":"https://www.gstatic.com/mapspro/images/stock/503-wht-blank_maps.png","Descripción":"","nombre":"Puerto Aventura","direccion":"Av. Costanera P. Gastón y Ayacucho","contacto":"2241 409396","actividades":"Parque Acuático Recreativo."},"geometry":{"coordinates":[-57.9962396,-35.5845762,0],"type":"Point"}},{"type":"Feature","properties":{"description":{"@type":"html","value":"Descripción: <br>nombre: Aeroclub Chascomús<br>direccion: Ruta 20<br>contacto: 2241 676620<br>actividades: Paseos, vuelos de bautismo, paracaidismo."},"styleUrl":"#icon-1899-0288D1","icon-opacity":1,"icon-color":"#0288d1","icon-scale":1,"icon-offset":[32,64],"icon-offset-units":["pixels","insetPixels"],"icon":"https://www.gstatic.com/mapspro/images/stock/503-wht-blank_maps.png","Descripción":"","nombre":"Aeroclub Chascomús","direccion":"Ruta 20","contacto":"2241 676620","actividades":"Paseos, vuelos de bautismo, paracaidismo."},"geometry":{"coordinates":[-58.0492308,-35.5398717,0],"type":"Point"}},{"type":"Feature","properties":{"description":{"@type":"html","value":"Descripción: <br>nombre: Chasco a Pedal<br>direccion: Máximo Echavarria 811<br>contacto: 2241 584809 / 2241 555338<br>actividades: Alquiler de bicis"},"styleUrl":"#icon-1899-0288D1","icon-opacity":1,"icon-color":"#0288d1","icon-scale":1,"icon-offset":[32,64],"icon-offset-units":["pixels","insetPixels"],"icon":"https://www.gstatic.com/mapspro/images/stock/503-wht-blank_maps.png","Descripción":"","nombre":"Chasco a Pedal","direccion":"Máximo Echavarria 811","contacto":"2241 584809 / 2241 555338","actividades":"Alquiler de bicis"},"geometry":{"coordinates":[-58.0235075,-35.5641575,0],"type":"Point"}},{"type":"Feature","properties":{"description":{"@type":"html","value":"Descripción: <br>nombre: Club de Pesca y Náutica<br>direccion: Av. Costanera España y Av. Lastra<br>contacto: 2241- 42 32 31<br>actividades: Alquiler de botes/ Alquiler de Kayaks"},"styleUrl":"#icon-1899-0288D1","icon-opacity":1,"icon-color":"#0288d1","icon-scale":1,"icon-offset":[32,64],"icon-offset-units":["pixels","insetPixels"],"icon":"https://www.gstatic.com/mapspro/images/stock/503-wht-blank_maps.png","Descripción":"","nombre":"Club de Pesca y Náutica","direccion":"Av. Costanera España y Av. Lastra","contacto":"2241- 42 32 31","actividades":"Alquiler de botes/ Alquiler de Kayaks"},"geometry":{"coordinates":[-58.0206516,-35.5786375,0],"type":"Point"}},{"type":"Feature","properties":{"description":{"@type":"html","value":"Descripción: <br>nombre: Coffate<br>direccion: Av. Costanera Alem 255<br>contacto: 2241 69 00 85<br>actividades: Alquiler de botes eléctricos o pedal"},"styleUrl":"#icon-1899-0288D1","icon-opacity":1,"icon-color":"#0288d1","icon-scale":1,"icon-offset":[32,64],"icon-offset-units":["pixels","insetPixels"],"icon":"https://www.gstatic.com/mapspro/images/stock/503-wht-blank_maps.png","Descripción":"","nombre":"Coffate","direccion":"Av. Costanera Alem 255","contacto":"2241 69 00 85","actividades":"Alquiler de botes eléctricos o pedal"},"geometry":{"coordinates":[-58.0229572,-35.5735188,0],"type":"Point"}},{"type":"Feature","properties":{"description":{"@type":"html","value":"Descripción: <br>nombre: Paracaidismo Chascomús<br>direccion: Ruta 20 Km 81<br>contacto: 11 5796-0214<br>actividades: "},"styleUrl":"#icon-1899-0288D1","icon-opacity":1,"icon-color":"#0288d1","icon-scale":1,"icon-offset":[32,64],"icon-offset-units":["pixels","insetPixels"],"icon":"https://www.gstatic.com/mapspro/images/stock/503-wht-blank_maps.png","Descripción":"","nombre":"Paracaidismo Chascomús","direccion":"Ruta 20 Km 81","contacto":"11 5796-0214","actividades":""},"geometry":{"coordinates":[-58.0523192,-35.53851,0],"type":"Point"}},{"type":"Feature","properties":{"description":{"@type":"html","value":"Descripción: <br>nombre: Escuela de SUP<br>direccion: Av. Costanera España y Av. Lastra<br>contacto: 2241 572841<br>actividades: Stand up paddle"},"styleUrl":"#icon-1899-0288D1","icon-opacity":1,"icon-color":"#0288d1","icon-scale":1,"icon-offset":[32,64],"icon-offset-units":["pixels","insetPixels"],"icon":"https://www.gstatic.com/mapspro/images/stock/503-wht-blank_maps.png","Descripción":"","nombre":"Escuela de SUP","direccion":"Av. Costanera España y Av. Lastra","contacto":"2241 572841","actividades":"Stand up paddle"},"geometry":{"coordinates":[-58.0204526,-35.5783708,0],"type":"Point"}},{"type":"Feature","properties":{"description":{"@type":"html","value":"Descripción: <br>nombre: Golf Country Club Chascomús<br>direccion: Av. Juan Manuel de Rosas 2250<br>contacto: 2241 509520<br>actividades: "},"styleUrl":"#icon-1899-0288D1","icon-opacity":1,"icon-color":"#0288d1","icon-scale":1,"icon-offset":[32,64],"icon-offset-units":["pixels","insetPixels"],"icon":"https://www.gstatic.com/mapspro/images/stock/503-wht-blank_maps.png","Descripción":"","nombre":"Golf Country Club Chascomús","direccion":"Av. Juan Manuel de Rosas 2250","contacto":"2241 509520","actividades":""},"geometry":{"coordinates":[-58.0165025,-35.5382146,0],"type":"Point"}},{"type":"Feature","properties":{"description":{"@type":"html","value":"Descripción: <br>nombre: Granja La Grulla<br>direccion: Pellegrini 120 - Ruta 2 km 119<br>contacto: 02241-562175 / 422639<br>actividades: Todos los días de 10 a 17 hs"},"styleUrl":"#icon-1899-0288D1","icon-opacity":1,"icon-color":"#0288d1","icon-scale":1,"icon-offset":[32,64],"icon-offset-units":["pixels","insetPixels"],"icon":"https://www.gstatic.com/mapspro/images/stock/503-wht-blank_maps.png","Descripción":"","nombre":"Granja La Grulla","direccion":"Pellegrini 120 - Ruta 2 km 119","contacto":"02241-562175 / 422639","actividades":"Todos los días de 10 a 17 hs"},"geometry":{"coordinates":[-57.979357,-35.572913,0],"type":"Point"}},{"type":"Feature","properties":{"description":{"@type":"html","value":"Descripción: <br>nombre: Kitesurf Cultura Extrema<br>direccion: Belgrano 525<br>contacto: 2241 431907<br>actividades: "},"styleUrl":"#icon-1899-0288D1","icon-opacity":1,"icon-color":"#0288d1","icon-scale":1,"icon-offset":[32,64],"icon-offset-units":["pixels","insetPixels"],"icon":"https://www.gstatic.com/mapspro/images/stock/503-wht-blank_maps.png","Descripción":"","nombre":"Kitesurf Cultura Extrema","direccion":"Belgrano 525","contacto":"2241 431907","actividades":""},"geometry":{"coordinates":[-58.02433,-35.51073,0],"type":"Point"}},{"type":"Feature","properties":{"description":{"@type":"html","value":"Descripción: <br>nombre: Los carritos de Seba<br>direccion: Av. Costanera y Junín<br>contacto: 2241493395<br>actividades: bicicletas y carritos de cuatro ruedas"},"styleUrl":"#icon-1899-0288D1","icon-opacity":1,"icon-color":"#0288d1","icon-scale":1,"icon-offset":[32,64],"icon-offset-units":["pixels","insetPixels"],"icon":"https://www.gstatic.com/mapspro/images/stock/503-wht-blank_maps.png","Descripción":"","nombre":"Los carritos de Seba","direccion":"Av. Costanera y Junín","contacto":2241493395,"actividades":"bicicletas y carritos de cuatro ruedas"},"geometry":{"coordinates":[-57.9888389,-35.5900315,0],"type":"Point"}},{"type":"Feature","properties":{"description":{"@type":"html","value":"Descripción: <br>nombre: Náutica Lomas Altas<br>direccion: Av. Costanera Urruty y Calle 2<br>contacto: 2241 58-8367 / 2241611848<br>actividades: "},"styleUrl":"#icon-1899-0288D1","icon-opacity":1,"icon-color":"#0288d1","icon-scale":1,"icon-offset":[32,64],"icon-offset-units":["pixels","insetPixels"],"icon":"https://www.gstatic.com/mapspro/images/stock/503-wht-blank_maps.png","Descripción":"","nombre":"Náutica Lomas Altas","direccion":"Av. Costanera Urruty y Calle 2","contacto":"2241 58-8367 / 2241611848","actividades":""},"geometry":{"coordinates":[-58.0597908,-35.5773928,0],"type":"Point"}},{"type":"Feature","properties":{"description":{"@type":"html","value":"Descripción: <br>nombre: Descubrí Chascomús de Noche<br>direccion: <br>contacto: 2241- 613985<br>actividades: Recorrido guiado por las calles de la ciudad,"},"styleUrl":"#icon-1899-0288D1","icon-opacity":1,"icon-color":"#0288d1","icon-scale":1,"icon-offset":[32,64],"icon-offset-units":["pixels","insetPixels"],"icon":"https://www.gstatic.com/mapspro/images/stock/503-wht-blank_maps.png","Descripción":"","nombre":"Descubrí Chascomús de Noche","direccion":"","contacto":"2241- 613985","actividades":"Recorrido guiado por las calles de la ciudad,"},"geometry":{"coordinates":[-58.0179346,-35.5804377,0],"type":"Point"}}]}