{
    "type": "FeatureCollection",
    "features": [
        {
            "type": "Feature",
            "geometry": {
                "type": "Polygon",
                "coordinates": [
                    [
                        [
                            -58.016338,
                            -35.572063,
                            0
                        ],
                        [
                            -58.015257,
                            -35.577949,
                            0
                        ],
                        [
                            -58.014441,
                            -35.577836,
                            0
                        ],
                        [
                            -58.01427,
                            -35.578647,
                            0
                        ],
                        [
                            -58.012596,
                            -35.578394,
                            0
                        ],
                        [
                            -58.012693,
                            -35.577635,
                            0
                        ],
                        [
                            -58.011276,
                            -35.577452,
                            0
                        ],
                        [
                            -58.012253,
                            -35.571474,
                            0
                        ],
                        [
                            -58.016338,
                            -35.572063,
                            0
                        ]
                    ]
                ]
            },
            "properties": {
                "name": "Zona de Est Medido",
                "description": "Horarios de Lunes a Viernes de 09:00 a 20:00 hs\nSabados de 10:00 a 13:00 hs",
                "styleUrl": "#poly-FFD600-3479-61",
                "fill": "#ffd600",
                "stroke-opacity": 1,
                "stroke": "rgba(80, 255, 0, 1)",
                "stroke-width": 3.479,
                "fill-opacity": 0.23921568627450981
            }
        },
        {
            "type": "Feature",
            "geometry": {
                "type": "Polygon",
                "coordinates": [
                    [
                        [
                            -58.020056,
                            -35.578771,
                            0
                        ],
                        [
                            -58.020249,
                            -35.578562,
                            0
                        ],
                        [
                            -58.020142,
                            -35.578387,
                            0
                        ],
                        [
                            -58.019949,
                            -35.578282,
                            0
                        ],
                        [
                            -58.019756,
                            -35.578282,
                            0
                        ],
                        [
                            -58.01997,
                            -35.575979,
                            0
                        ],
                        [
                            -58.01997,
                            -35.575822,
                            0
                        ],
                        [
                            -58.020228,
                            -35.575612,
                            0
                        ],
                        [
                            -58.020614,
                            -35.575612,
                            0
                        ],
                        [
                            -58.020936,
                            -35.57563,
                            0
                        ],
                        [
                            -58.021236,
                            -35.575647,
                            0
                        ],
                        [
                            -58.021515,
                            -35.575507,
                            0
                        ],
                        [
                            -58.022223,
                            -35.574388,
                            0
                        ],
                        [
                            -58.023124,
                            -35.573306,
                            0
                        ],
                        [
                            -58.023639,
                            -35.571875,
                            0
                        ],
                        [
                            -58.024455,
                            -35.569327,
                            0
                        ],
                        [
                            -58.025571,
                            -35.568489,
                            0
                        ],
                        [
                            -58.026558,
                            -35.567616,
                            0
                        ],
                        [
                            -58.02703,
                            -35.567232,
                            0
                        ],
                        [
                            -58.027588,
                            -35.567477,
                            0
                        ],
                        [
                            -58.028103,
                            -35.567407,
                            0
                        ],
                        [
                            -58.03145,
                            -35.564509,
                            0
                        ],
                        [
                            -58.036042,
                            -35.561612,
                            0
                        ],
                        [
                            -58.03763,
                            -35.560704,
                            0
                        ],
                        [
                            -58.039003,
                            -35.559308,
                            0
                        ],
                        [
                            -58.038942,
                            -35.558308,
                            0
                        ],
                        [
                            -58.039028,
                            -35.557505,
                            0
                        ],
                        [
                            -58.039414,
                            -35.556283,
                            0
                        ],
                        [
                            -58.039672,
                            -35.555235,
                            0
                        ],
                        [
                            -58.040315,
                            -35.554747,
                            0
                        ],
                        [
                            -58.04126,
                            -35.554502,
                            0
                        ],
                        [
                            -58.042247,
                            -35.554153,
                            0
                        ],
                        [
                            -58.043019,
                            -35.554048,
                            0
                        ],
                        [
                            -58.043749,
                            -35.553769,
                            0
                        ],
                        [
                            -58.044221,
                            -35.55342,
                            0
                        ],
                        [
                            -58.044864,
                            -35.552687,
                            0
                        ],
                        [
                            -58.045337,
                            -35.552477,
                            0
                        ],
                        [
                            -58.04671,
                            -35.552652,
                            0
                        ],
                        [
                            -58.05083,
                            -35.552722,
                            0
                        ],
                        [
                            -58.053962,
                            -35.55321,
                            0
                        ],
                        [
                            -58.05937,
                            -35.553071,
                            0
                        ],
                        [
                            -58.063366,
                            -35.553406,
                            0
                        ],
                        [
                            -58.063624,
                            -35.554454,
                            0
                        ],
                        [
                            -58.063881,
                            -35.556758,
                            0
                        ],
                        [
                            -58.063366,
                            -35.558504,
                            0
                        ],
                        [
                            -58.058216,
                            -35.567511,
                            0
                        ],
                        [
                            -58.057959,
                            -35.569256,
                            0
                        ],
                        [
                            -58.057959,
                            -35.57142,
                            0
                        ],
                        [
                            -58.057787,
                            -35.573934,
                            0
                        ],
                        [
                            -58.059332,
                            -35.578192,
                            0
                        ],
                        [
                            -58.061134,
                            -35.580566,
                            0
                        ],
                        [
                            -58.063194,
                            -35.582799,
                            0
                        ],
                        [
                            -58.064568,
                            -35.584126,
                            0
                        ],
                        [
                            -58.064825,
                            -35.585382,
                            0
                        ],
                        [
                            -58.06534,
                            -35.587406,
                            0
                        ],
                        [
                            -58.06523,
                            -35.588936,
                            0
                        ],
                        [
                            -58.065144,
                            -35.59096,
                            0
                        ],
                        [
                            -58.064758,
                            -35.591553,
                            0
                        ],
                        [
                            -58.062526,
                            -35.593437,
                            0
                        ],
                        [
                            -58.061839,
                            -35.593786,
                            0
                        ],
                        [
                            -58.061153,
                            -35.593752,
                            0
                        ],
                        [
                            -58.059608,
                            -35.593368,
                            0
                        ],
                        [
                            -58.05832,
                            -35.593228,
                            0
                        ],
                        [
                            -58.057033,
                            -35.593263,
                            0
                        ],
                        [
                            -58.051325,
                            -35.594066,
                            0
                        ],
                        [
                            -58.047677,
                            -35.594484,
                            0
                        ],
                        [
                            -58.041197,
                            -35.594554,
                            0
                        ],
                        [
                            -58.039352,
                            -35.594554,
                            0
                        ],
                        [
                            -58.038579,
                            -35.594694,
                            0
                        ],
                        [
                            -58.037978,
                            -35.595182,
                            0
                        ],
                        [
                            -58.035661,
                            -35.599405,
                            0
                        ],
                        [
                            -58.035641,
                            -35.599769,
                            0
                        ],
                        [
                            -58.035749,
                            -35.600048,
                            0
                        ],
                        [
                            -58.037401,
                            -35.602665,
                            0
                        ],
                        [
                            -58.037766,
                            -35.603328,
                            0
                        ],
                        [
                            -58.040276,
                            -35.609155,
                            0
                        ],
                        [
                            -58.040384,
                            -35.609696,
                            0
                        ],
                        [
                            -58.040427,
                            -35.610446,
                            0
                        ],
                        [
                            -58.04004,
                            -35.61294,
                            0
                        ],
                        [
                            -58.039976,
                            -35.613324,
                            0
                        ],
                        [
                            -58.040019,
                            -35.613725,
                            0
                        ],
                        [
                            -58.040212,
                            -35.614057,
                            0
                        ],
                        [
                            -58.041328,
                            -35.614912,
                            0
                        ],
                        [
                            -58.041542,
                            -35.615208,
                            0
                        ],
                        [
                            -58.041456,
                            -35.615487,
                            0
                        ],
                        [
                            -58.038882,
                            -35.616918,
                            0
                        ],
                        [
                            -58.034161,
                            -35.618976,
                            0
                        ],
                        [
                            -58.033603,
                            -35.619203,
                            0
                        ],
                        [
                            -58.033195,
                            -35.619395,
                            0
                        ],
                        [
                            -58.032873,
                            -35.619656,
                            0
                        ],
                        [
                            -58.031178,
                            -35.62072,
                            0
                        ],
                        [
                            -58.030835,
                            -35.620895,
                            0
                        ],
                        [
                            -58.030513,
                            -35.620982,
                            0
                        ],
                        [
                            -58.029912,
                            -35.620877,
                            0
                        ],
                        [
                            -58.029269,
                            -35.62079,
                            0
                        ],
                        [
                            -58.028861,
                            -35.620703,
                            0
                        ],
                        [
                            -58.028453,
                            -35.620877,
                            0
                        ],
                        [
                            -58.028024,
                            -35.621191,
                            0
                        ],
                        [
                            -58.027509,
                            -35.62147,
                            0
                        ],
                        [
                            -58.026758,
                            -35.62168,
                            0
                        ],
                        [
                            -58.024762,
                            -35.622133,
                            0
                        ],
                        [
                            -58.024076,
                            -35.622325,
                            0
                        ],
                        [
                            -58.023067,
                            -35.622499,
                            0
                        ],
                        [
                            -58.022466,
                            -35.622621,
                            0
                        ],
                        [
                            -58.02163,
                            -35.622744,
                            0
                        ],
                        [
                            -58.020052,
                            -35.623023,
                            0
                        ],
                        [
                            -58.016212,
                            -35.623659,
                            0
                        ],
                        [
                            -58.015804,
                            -35.623746,
                            0
                        ],
                        [
                            -58.014924,
                            -35.623982,
                            0
                        ],
                        [
                            -58.014538,
                            -35.624078,
                            0
                        ],
                        [
                            -58.013336,
                            -35.624549,
                            0
                        ],
                        [
                            -58.01295,
                            -35.624793,
                            0
                        ],
                        [
                            -58.012617,
                            -35.625098,
                            0
                        ],
                        [
                            -58.012242,
                            -35.625438,
                            0
                        ],
                        [
                            -58.011823,
                            -35.625857,
                            0
                        ],
                        [
                            -58.011491,
                            -35.626275,
                            0
                        ],
                        [
                            -58.009645,
                            -35.629729,
                            0
                        ],
                        [
                            -58.009324,
                            -35.630121,
                            0
                        ],
                        [
                            -58.009045,
                            -35.630339,
                            0
                        ],
                        [
                            -58.008648,
                            -35.630549,
                            0
                        ],
                        [
                            -58.00706,
                            -35.631133,
                            0
                        ],
                        [
                            -58.006727,
                            -35.631246,
                            0
                        ],
                        [
                            -58.006459,
                            -35.631264,
                            0
                        ],
                        [
                            -58.005944,
                            -35.631176,
                            0
                        ],
                        [
                            -58.004603,
                            -35.630836,
                            0
                        ],
                        [
                            -58.004045,
                            -35.630601,
                            0
                        ],
                        [
                            -58.003755,
                            -35.630365,
                            0
                        ],
                        [
                            -58.002092,
                            -35.628787,
                            0
                        ],
                        [
                            -58.001331,
                            -35.628028,
                            0
                        ],
                        [
                            -58.00118,
                            -35.627802,
                            0
                        ],
                        [
                            -58.001095,
                            -35.627575,
                            0
                        ],
                        [
                            -58.001052,
                            -35.627313,
                            0
                        ],
                        [
                            -58.001138,
                            -35.625761,
                            0
                        ],
                        [
                            -58.001148,
                            -35.625517,
                            0
                        ],
                        [
                            -58.001073,
                            -35.62529,
                            0
                        ],
                        [
                            -58.000751,
                            -35.624435,
                            0
                        ],
                        [
                            -58.000515,
                            -35.623982,
                            0
                        ],
                        [
                            -58.000268,
                            -35.623633,
                            0
                        ],
                        [
                            -57.996921,
                            -35.621741,
                            0
                        ],
                        [
                            -57.996245,
                            -35.621357,
                            0
                        ],
                        [
                            -57.995795,
                            -35.621025,
                            0
                        ],
                        [
                            -57.995537,
                            -35.62072,
                            0
                        ],
                        [
                            -57.995365,
                            -35.620371,
                            0
                        ],
                        [
                            -57.995333,
                            -35.619412,
                            0
                        ],
                        [
                            -57.995344,
                            -35.619019,
                            0
                        ],
                        [
                            -57.995333,
                            -35.618383,
                            0
                        ],
                        [
                            -57.995322,
                            -35.617746,
                            0
                        ],
                        [
                            -57.995408,
                            -35.617336,
                            0
                        ],
                        [
                            -57.99558,
                            -35.616865,
                            0
                        ],
                        [
                            -57.995719,
                            -35.616499,
                            0
                        ],
                        [
                            -57.995816,
                            -35.616237,
                            0
                        ],
                        [
                            -57.996588,
                            -35.614685,
                            0
                        ],
                        [
                            -57.996631,
                            -35.614441,
                            0
                        ],
                        [
                            -57.996642,
                            -35.614109,
                            0
                        ],
                        [
                            -57.996578,
                            -35.613874,
                            0
                        ],
                        [
                            -57.996503,
                            -35.613595,
                            0
                        ],
                        [
                            -57.996395,
                            -35.613202,
                            0
                        ],
                        [
                            -57.996138,
                            -35.612539,
                            0
                        ],
                        [
                            -57.995913,
                            -35.612077,
                            0
                        ],
                        [
                            -57.995719,
                            -35.611754,
                            0
                        ],
                        [
                            -57.995462,
                            -35.611501,
                            0
                        ],
                        [
                            -57.991267,
                            -35.608143,
                            0
                        ],
                        [
                            -57.990677,
                            -35.607707,
                            0
                        ],
                        [
                            -57.990334,
                            -35.607532,
                            0
                        ],
                        [
                            -57.990076,
                            -35.607428,
                            0
                        ],
                        [
                            -57.989743,
                            -35.607314,
                            0
                        ],
                        [
                            -57.989411,
                            -35.607262,
                            0
                        ],
                        [
                            -57.98896,
                            -35.607122,
                            0
                        ],
                        [
                            -57.983843,
                            -35.604881,
                            0
                        ],
                        [
                            -57.983521,
                            -35.604758,
                            0
                        ],
                        [
                            -57.983049,
                            -35.604601,
                            0
                        ],
                        [
                            -57.981289,
                            -35.604104,
                            0
                        ],
                        [
                            -57.980796,
                            -35.603973,
                            0
                        ],
                        [
                            -57.980206,
                            -35.603563,
                            0
                        ],
                        [
                            -57.976161,
                            -35.60051,
                            0
                        ],
                        [
                            -57.975919,
                            -35.600231,
                            0
                        ],
                        [
                            -57.975737,
                            -35.6,
                            0
                        ],
                        [
                            -57.975716,
                            -35.599865,
                            0
                        ],
                        [
                            -57.975748,
                            -35.59962,
                            0
                        ],
                        [
                            -57.975796,
                            -35.599568,
                            0
                        ],
                        [
                            -57.976654,
                            -35.597762,
                            0
                        ],
                        [
                            -57.977169,
                            -35.596724,
                            0
                        ],
                        [
                            -57.978435,
                            -35.594037,
                            0
                        ],
                        [
                            -57.978704,
                            -35.593636,
                            0
                        ],
                        [
                            -57.978982,
                            -35.593357,
                            0
                        ],
                        [
                            -57.979358,
                            -35.59306,
                            0
                        ],
                        [
                            -57.979578,
                            -35.592957,
                            0
                        ],
                        [
                            -57.979774,
                            -35.592933,
                            0
                        ],
                        [
                            -57.979884,
                            -35.592929,
                            0
                        ],
                        [
                            -57.980324,
                            -35.592859,
                            0
                        ],
                        [
                            -57.980624,
                            -35.592859,
                            0
                        ],
                        [
                            -57.980806,
                            -35.592894,
                            0
                        ],
                        [
                            -57.981278,
                            -35.593095,
                            0
                        ],
                        [
                            -57.981869,
                            -35.593208,
                            0
                        ],
                        [
                            -57.982276,
                            -35.593252,
                            0
                        ],
                        [
                            -57.982566,
                            -35.593287,
                            0
                        ],
                        [
                            -57.982866,
                            -35.593287,
                            0
                        ],
                        [
                            -57.983231,
                            -35.593261,
                            0
                        ],
                        [
                            -57.983703,
                            -35.593234,
                            0
                        ],
                        [
                            -57.984079,
                            -35.593121,
                            0
                        ],
                        [
                            -57.984454,
                            -35.593034,
                            0
                        ],
                        [
                            -57.984787,
                            -35.592912,
                            0
                        ],
                        [
                            -57.985098,
                            -35.592772,
                            0
                        ],
                        [
                            -57.98542,
                            -35.592563,
                            0
                        ],
                        [
                            -57.985752,
                            -35.592345,
                            0
                        ],
                        [
                            -57.986847,
                            -35.591245,
                            0
                        ],
                        [
                            -57.987147,
                            -35.590992,
                            0
                        ],
                        [
                            -57.987318,
                            -35.590844,
                            0
                        ],
                        [
                            -57.987587,
                            -35.590678,
                            0
                        ],
                        [
                            -57.991235,
                            -35.588488,
                            0
                        ],
                        [
                            -57.992093,
                            -35.587939,
                            0
                        ],
                        [
                            -57.994958,
                            -35.586447,
                            0
                        ],
                        [
                            -57.995183,
                            -35.586237,
                            0
                        ],
                        [
                            -57.995398,
                            -35.585941,
                            0
                        ],
                        [
                            -57.995837,
                            -35.585277,
                            0
                        ],
                        [
                            -57.99602,
                            -35.584946,
                            0
                        ],
                        [
                            -57.996299,
                            -35.584571,
                            0
                        ],
                        [
                            -57.99647,
                            -35.584387,
                            0
                        ],
                        [
                            -57.9975,
                            -35.583218,
                            0
                        ],
                        [
                            -57.99779,
                            -35.582974,
                            0
                        ],
                        [
                            -57.998101,
                            -35.582869,
                            0
                        ],
                        [
                            -57.998595,
                            -35.582904,
                            0
                        ],
                        [
                            -57.999174,
                            -35.582948,
                            0
                        ],
                        [
                            -58.004324,
                            -35.583262,
                            0
                        ],
                        [
                            -58.004474,
                            -35.58334,
                            0
                        ],
                        [
                            -58.004635,
                            -35.58334,
                            0
                        ],
                        [
                            -58.004807,
                            -35.583288,
                            0
                        ],
                        [
                            -58.009527,
                            -35.584204,
                            0
                        ],
                        [
                            -58.009828,
                            -35.584257,
                            0
                        ],
                        [
                            -58.010107,
                            -35.584265,
                            0
                        ],
                        [
                            -58.010311,
                            -35.584187,
                            0
                        ],
                        [
                            -58.01427,
                            -35.582581,
                            0
                        ],
                        [
                            -58.014731,
                            -35.582503,
                            0
                        ],
                        [
                            -58.015289,
                            -35.582477,
                            0
                        ],
                        [
                            -58.015911,
                            -35.58245,
                            0
                        ],
                        [
                            -58.016576,
                            -35.582442,
                            0
                        ],
                        [
                            -58.01707,
                            -35.582442,
                            0
                        ],
                        [
                            -58.017445,
                            -35.582477,
                            0
                        ],
                        [
                            -58.017821,
                            -35.582442,
                            0
                        ],
                        [
                            -58.018486,
                            -35.581674,
                            0
                        ],
                        [
                            -58.018658,
                            -35.581325,
                            0
                        ],
                        [
                            -58.01898,
                            -35.580758,
                            0
                        ],
                        [
                            -58.01913,
                            -35.580348,
                            0
                        ],
                        [
                            -58.019216,
                            -35.57999,
                            0
                        ],
                        [
                            -58.019377,
                            -35.579588,
                            0
                        ],
                        [
                            -58.019548,
                            -35.57937,
                            0
                        ],
                        [
                            -58.019859,
                            -35.579004,
                            0
                        ],
                        [
                            -58.020056,
                            -35.578771,
                            0
                        ]
                    ]
                ]
            },
            "properties": {
                "name": "Costanera",
                "description": "Todos los dias de  09:00 a 20:00 hs",
                "styleUrl": "#poly-E65100-3181-0",
                "fill-opacity": 0,
                "fill": "rgba(255, 255, 255, 1)",
                "stroke-opacity": 1,
                "stroke": "rgba(7, 68, 232, 1)",
                "stroke-width": 3.181
            }
        }
    ]
}