{
    "type": "FeatureCollection",
    "features": [
        {
            "type": "Feature",
            "geometry": {
                "type": "LineString",
                "coordinates": [
                    [
                        -58.017608,
                        -35.561684,
                        0
                    ],
                    [
                        -58.019113,
                        -35.562652,
                        0
                    ],
                    [
                        -58.019634,
                        -35.563004,
                        0
                    ],
                    [
                        -58.020058,
                        -35.563292,
                        0
                    ],
                    [
                        -58.020599,
                        -35.563753,
                        0
                    ],
                    [
                        -58.020391,
                        -35.564731,
                        0
                    ],
                    [
                        -58.019489,
                        -35.564581,
                        0
                    ],
                    [
                        -58.019362,
                        -35.564637,
                        0
                    ],
                    [
                        -58.019292,
                        -35.564797,
                        0
                    ],
                    [
                        -58.018657,
                        -35.568467,
                        0
                    ],
                    [
                        -58.01663,
                        -35.568273,
                        0
                    ],
                    [
                        -58.014287,
                        -35.567999,
                        0
                    ],
                    [
                        -58.010381,
                        -35.567563,
                        0
                    ]
                ]
            },
            "properties": {
                "name": "Macromalla Etapa II",
                "styleUrl": "#line-FF5500-10000-nodesc",
                "stroke-opacity": 1,
                "stroke": "#ff5500",
                "stroke-width": 10
            }
        },
        {
            "type": "Feature",
            "geometry": {
                "type": "LineString",
                "coordinates": [
                    [
                        -58.010374,
                        -35.567564,
                        0
                    ],
                    [
                        -58.009571,
                        -35.571638,
                        0
                    ],
                    [
                        -58.008491,
                        -35.577086,
                        0
                    ],
                    [
                        -58.002405,
                        -35.576324,
                        0
                    ],
                    [
                        -57.994124,
                        -35.57524,
                        0
                    ]
                ]
            },
            "properties": {
                "name": "Macromalla Etapa III",
                "styleUrl": "#line-55AA00-10000-nodesc",
                "stroke-opacity": 1,
                "stroke": "#55aa00",
                "stroke-width": 10
            }
        },
        {
            "type": "Feature",
            "geometry": {
                "type": "LineString",
                "coordinates": [
                    [
                        -58.016715,
                        -35.561548,
                        0
                    ],
                    [
                        -58.016419,
                        -35.564134,
                        0
                    ],
                    [
                        -58.009825,
                        -35.563264,
                        0
                    ],
                    [
                        -58.004089,
                        -35.562716,
                        0
                    ],
                    [
                        -58.003703,
                        -35.567385,
                        0
                    ],
                    [
                        -58.008699,
                        -35.568005,
                        0
                    ],
                    [
                        -58.008933,
                        -35.567548,
                        0
                    ],
                    [
                        -58.009176,
                        -35.56745,
                        0
                    ],
                    [
                        -58.010309,
                        -35.567613,
                        0
                    ]
                ]
            },
            "properties": {
                "name": "Macromalla Etapa I A",
                "styleUrl": "#line-FFFF00-10000-nodesc",
                "stroke-opacity": 1,
                "stroke": "#ffff00",
                "stroke-width": 10
            }
        },
        {
            "type": "Feature",
            "geometry": {
                "type": "LineString",
                "coordinates": [
                    [
                        -58.003623,
                        -35.567402,
                        0
                    ],
                    [
                        -57.995724,
                        -35.566338,
                        0
                    ],
                    [
                        -57.995427,
                        -35.568033,
                        0
                    ]
                ]
            },
            "properties": {
                "name": "Macromalla Etapa IB",
                "styleUrl": "#line-FFFF00-10000-nodesc",
                "stroke-opacity": 1,
                "stroke": "#ffff00",
                "stroke-width": 10
            }
        },
        {
            "type": "Feature",
            "geometry": {
                "type": "LineString",
                "coordinates": [
                    [
                        -58.003493,
                        -35.567415,
                        0
                    ],
                    [
                        -58.001944,
                        -35.572118,
                        0
                    ],
                    [
                        -58.001574,
                        -35.573975,
                        0
                    ],
                    [
                        -58.001188,
                        -35.576021,
                        0
                    ]
                ]
            },
            "properties": {
                "name": "Macromalla Etapa IC",
                "styleUrl": "#line-FFFF00-10000-nodesc",
                "stroke-opacity": 1,
                "stroke": "#ffff00",
                "stroke-width": 10
            }
        },
        {
            "type": "Feature",
            "geometry": {
                "type": "LineString",
                "coordinates": [
                    [
                        -57.995338,
                        -35.568234,
                        0
                    ],
                    [
                        -57.994053,
                        -35.575351,
                        0
                    ],
                    [
                        -57.994139,
                        -35.575258,
                        0
                    ],
                    [
                        -57.984255,
                        -35.574049,
                        0
                    ],
                    [
                        -57.981093,
                        -35.58891,
                        0
                    ],
                    [
                        -57.98424,
                        -35.589692,
                        0
                    ],
                    [
                        -57.986199,
                        -35.590221,
                        0
                    ],
                    [
                        -57.987361,
                        -35.590831,
                        0
                    ],
                    [
                        -57.991157,
                        -35.588405,
                        0
                    ],
                    [
                        -57.991185,
                        -35.588138,
                        0
                    ],
                    [
                        -57.992356,
                        -35.582467,
                        0
                    ],
                    [
                        -57.993943,
                        -35.575328,
                        0
                    ]
                ]
            },
            "properties": {
                "name": "Macromalla Etapa IV (sin ejecutar)",
                "styleUrl": "#line-FF007F-10000-nodesc",
                "stroke-opacity": 1,
                "stroke": "#ff007f",
                "stroke-width": 10
            }
        }
    ]
}