{
  "type": "FeatureCollection",
  "features": [
    { "type": "Feature", "properties": { "nombre": "Asociación Muchas Manos", "categoria": "SOCIAL", "presidente": "EBER GUSTAVO LOPEZ", "contacto": "", "direccion": "Díaz Vélez y Las Flores", "ciudad": "Chascomús, Buenos Aires" }, "geometry": { "type": "Point", "coordinates": [-58.0033432, -35.5804021] } },
    { "type": "Feature", "properties": { "nombre": "Club De Leones Chascomús", "categoria": "SOCIAL", "presidente": "BRAZZOLA OSCAR TOLEDO", "contacto": "2241 43-1321", "direccion": "HIPOLITO YRIGOYEN N°232", "ciudad": "Chascomús, Buenos Aires" }, "geometry": { "type": "Point", "coordinates": [-58.0123147, -35.5610455] } },
    { "type": "Feature", "properties": { "nombre": "Viajero Solidario simple Asociación", "categoria": "SOCIAL", "presidente": "DONADIO ALBERTO DANIEL", "contacto": "11-59497012", "direccion": "PERU N°680", "ciudad": "Chascomús, Buenos Aires" }, "geometry": { "type": "Point", "coordinates": [-58.0016828, -35.5699647] } },
    { "type": "Feature", "properties": { "nombre": "Asociacion Baldomero Fernandez Moreno y Biblioteca Popular", "categoria": "VECINAL", "presidente": "DORA MUSCAGORRY", "contacto": "2241-411321", "direccion": "EE UU N°922", "ciudad": "Chascomús, Buenos Aires" }, "geometry": { "type": "Point", "coordinates": [-57.9910232, -35.5768078] } },
    { "type": "Feature", "properties": { "nombre": "Centro Vasco Argentino de Chascomús", "categoria": "SOCIAL", "presidente": "ARMENDARIZ GUSTAVO", "contacto": "2241-681742", "direccion": "FRANKLIN N°454", "ciudad": "Chascomús, Buenos Aires" }, "geometry": { "type": "Point", "coordinates": [-58.0134086, -35.5736096] } },
    { "type": "Feature", "properties": { "nombre": "Club Recreativo La Limpia", "categoria": "SOCIAL", "presidente": "GUSAVO VILLAR - HERNAN RODRIGUEZ", "contacto": "2231-692224", "direccion": "MORENO N°221", "ciudad": "Chascomús, Buenos Aires" }, "geometry": { "type": "Point", "coordinates": [-58.0103269, -35.5808016] } },
    { "type": "Feature", "properties": { "nombre": "Bomberos Voluntarios de Chascomús", "categoria": "SOCIAL", "presidente": "COSTANZO ALEJANDRO", "contacto": "2241 42-2033", "direccion": "SOLER N°347", "ciudad": "Chascomús, Buenos Aires" }, "geometry": { "type": "Point", "coordinates": [-58.0161493, -35.5759493] } },
    { "type": "Feature", "properties": { "nombre": "Asociación Civil Las Luciernagas", "categoria": "SOCIAL", "presidente": "NUÑEZ MARIANO LUIS", "contacto": "", "direccion": "COLOMBIA N°394", "ciudad": "Chascomús, Buenos Aires" }, "geometry": { "type": "Point", "coordinates": [-57.9958638, -35.5614216] } },
    { "type": "Feature", "properties": { "nombre": "Asociación Civll Poco a Poco", "categoria": "SOCIAL", "presidente": "MONTEROS CRISTIAN", "contacto": "", "direccion": "GARAY N°690", "ciudad": "Chascomús, Buenos Aires" }, "geometry": { "type": "Point", "coordinates": [-57.9873282, -35.5705837] } },
    { "type": "Feature", "properties": { "nombre": "Agrupación Virá Virá", "categoria": "SOCIAL", "presidente": "MONTENEGRO MARCELA", "contacto": "2241-539929", "direccion": "GRITO DE DOLORES N°346", "ciudad": "Chascomús, Buenos Aires" }, "geometry": { "type": "Point", "coordinates": [-58.0028617, -35.569262] } },
    { "type": "Feature", "properties": { "nombre": "ASID Asociación para la Integración del Discapacitado", "categoria": "SOCIAL", "presidente": "Luciana D'Alto", "contacto": "2241-582120", "direccion": "MACHADO N°538", "ciudad": "Chascomús, Buenos Aires" }, "geometry": { "type": "Point", "coordinates": [-58.0088141, -35.5679617] } },
    { "type": "Feature", "properties": { "nombre": "Centro de Jubilados y Pensionados \"Rincón de los Abuelos\"", "categoria": "SOCIAL", "presidente": "CIMINELLI LIDIA ESTER", "contacto": "2241-425700", "direccion": "JULIAN QUINTANA Y TUCUMAN", "ciudad": "Chascomús, Buenos Aires" }, "geometry": { "type": "Point", "coordinates": [-58.0148161, -35.5571651] } },
    { "type": "Feature", "properties": { "nombre": "Club Bochistico Independiente", "categoria": "SOCIAL", "presidente": "RIZZI CARLOS", "contacto": "2241-537043", "direccion": "GARAY 77", "ciudad": "Chascomús, Buenos Aires" }, "geometry": { "type": "Point", "coordinates": [-57.9873282, -35.5705837] } },
    { "type": "Feature", "properties": { "nombre": "Club Social", "categoria": "SOCIAL", "presidente": "SEILLANT JUAN", "contacto": "2241-423394", "direccion": "LIBRES DEL SUR N°14", "ciudad": "Chascomús, Buenos Aires" }, "geometry": { "type": "Point", "coordinates": [-58.014514, -35.5727514] } },
    { "type": "Feature", "properties": { "nombre": "Peña Laguna y Cielo", "categoria": "SOCIAL", "presidente": "GONZALEZ JOSE ANGEL", "contacto": "2241-539397", "direccion": "HIPOLITO YRIGOYEN N°146", "ciudad": "Chascomús, Buenos Aires" }, "geometry": { "type": "Point", "coordinates": [-58.0107442, -35.5654933] } },
    { "type": "Feature", "properties": { "nombre": "Taller Protegido de Chascomus Union y Patria", "categoria": "SOCIAL", "presidente": "ECHAIDE DANIEL", "contacto": "2241-423369", "direccion": "ALVEAR N°237", "ciudad": "Chascomús, Buenos Aires" }, "geometry": { "type": "Point", "coordinates": [-58.0159692, -35.5578221] } },
    { "type": "Feature", "properties": { "nombre": "Comisión de Fomento Barrio La Esmeralda", "categoria": "ASOCIACION CIVIL", "presidente": "LARRALDE LAURA", "contacto": "2241-498479", "direccion": "DE LOS SANTOS VAZQUEZ N°917", "ciudad": "Chascomús, Buenos Aires" }, "geometry": { "type": "Point", "coordinates": [-57.9885348, -35.5573041] } },
    { "type": "Feature", "properties": { "nombre": "Junta Vecinal Acceso Norte Sociedad de Fomento", "categoria": "VECINAL", "presidente": "PANTANO NOELIA INES", "contacto": "2241474074", "direccion": "JULIAN QUINTANA N°1083", "ciudad": "Chascomús, Buenos Aires" }, "geometry": { "type": "Point", "coordinates": [-58.0148161, -35.5571651] } },
    { "type": "Feature", "properties": { "nombre": "Junta Vecinal Barrio Los Sauces", "categoria": "VECINAL", "presidente": "MENDEZ FRANCISCO GABRIEL", "contacto": "11-64600009", "direccion": "SAN AGUSTIN N°337", "ciudad": "Chascomús, Buenos Aires" }, "geometry": { "type": "Point", "coordinates": [-58.021575, -35.5524198] } },
    { "type": "Feature", "properties": { "nombre": "Sociedad de Fomento Barrio El Hueco", "categoria": "VECINAL", "presidente": "JORQUERA DAMIAN", "contacto": "2241-612979", "direccion": "BETBEZE Y MALVINAS", "ciudad": "Chascomús, Buenos Aires" }, "geometry": { "type": "Point", "coordinates": [-57.9937353, -35.5702372] } },
    { "type": "Feature", "properties": { "nombre": "Sociedad De Fomento Barrio Iporá", "categoria": "VECINAL", "presidente": "ORONO GUILLERMO", "contacto": "2241 462258", "direccion": "Reconquista 405", "ciudad": "Chascomús, Buenos Aires" }, "geometry": { "type": "Point", "coordinates": [-57.9916454, -35.5684567] } },
    { "type": "Feature", "properties": { "nombre": "Sociedad De Fomento Barrio Jardin", "categoria": "VECINAL", "presidente": "PIETRANTUONO STELLA MARIS", "contacto": "2241-436534", "direccion": "JULIAN QUINTANA N°866", "ciudad": "Chascomús, Buenos Aires" }, "geometry": { "type": "Point", "coordinates": [-58.0148161, -35.5571651] } },
    { "type": "Feature", "properties": { "nombre": "Sociedad de Fomento Barrio Parque Girado", "categoria": "VECINAL", "presidente": "LIBRE DIEGO", "contacto": "", "direccion": "ESCUELA N°31", "ciudad": "Chascomús, Buenos Aires" }, "geometry": { "type": "Point", "coordinates": [-58.0176484, -35.6271473] } },
    { "type": "Feature", "properties": { "nombre": "Sociedad de Fomento Barrio Pedro Nicolás Escribano", "categoria": "VECINAL", "presidente": "CASALI ANDRES MARCIA", "contacto": "", "direccion": "11 DE SEPTIEMBRE N°484", "ciudad": "Chascomús, Buenos Aires" }, "geometry": { "type": "Point", "coordinates": [-58.0210901, -35.5674484] } },
    { "type": "Feature", "properties": { "nombre": "Sociedad de Fomento Biblioteca Popular Villa Luján", "categoria": "VECINAL", "presidente": "OLIVERA MARIA ISABEL", "contacto": "2241-575751", "direccion": "H.YRIGOYEN N°578", "ciudad": "Chascomús, Buenos Aires" }, "geometry": { "type": "Point", "coordinates": [-58.0123147, -35.5610455] } },
    { "type": "Feature", "properties": { "nombre": "Sociedad de Fomento y Biblioteca Barrio San Cayetano", "categoria": "BIBLIOTECA", "presidente": "YESICA WRISGHT", "contacto": "2241-511735", "direccion": "JOSE HERNANDEZ N°166", "ciudad": "Chascomús, Buenos Aires" }, "geometry": { "type": "Point", "coordinates": [-58.0171374, -35.5329017] } },
    { "type": "Feature", "properties": { "nombre": "Sociedad de Fomento Barrio Anahí", "categoria": "VECINAL", "presidente": "MANTI ANA MARIA / ESEVICH GUSTAVO", "contacto": "2241-424540", "direccion": "SOLIS N°1110", "ciudad": "Chascomús, Buenos Aires" }, "geometry": { "type": "Point", "coordinates": [-58.0091248, -35.5739947] } },
    { "type": "Feature", "properties": { "nombre": "Unión Vecinal Sociedad de Fomento La Noria", "categoria": "VECINAL", "presidente": "DE LA CANAL CLAUDIO", "contacto": "2241-530757", "direccion": "BRASIL Y GRITO DE DOLORES", "ciudad": "Chascomús, Buenos Aires" }, "geometry": { "type": "Point", "coordinates": [-58.004349, -35.5647115] } },
    { "type": "Feature", "properties": { "nombre": "Sociedad De Fomento Barrio Parque La Liberata", "categoria": "VECINAL", "presidente": "MONTANARI FERNANDO", "contacto": "1163027000", "direccion": "DE LAS GARZAS N°35", "ciudad": "Chascomús, Buenos Aires" }, "geometry": { "type": "Point", "coordinates": [-57.9728252, -35.6053589] } },
    { "type": "Feature", "properties": { "nombre": "Junta Vecinal Barrio Los Antiguos", "categoria": "VECINAL", "presidente": "SCORIANS FEDERICO ANDRES", "contacto": "2215582080", "direccion": "PELLEGRINI N°1200", "ciudad": "Chascomús, Buenos Aires" }, "geometry": { "type": "Point", "coordinates": [-57.9912445, -35.5636144] } }
  ]
}
