{"type":"FeatureCollection","features":[{"type":"Feature","geometry":{"type":"Point","coordinates":[-58.01065585693956,-35.55145277210126,0]},"properties":{"name":"CIC 30 de MAYO ( a FF)","styleUrl":"#msn_parking_lot20","label-scale":0.7,"icon-opacity":1,"icon-color":"#ffff00","icon-scale":1.2,"icon-offset":[0.5,0],"icon-offset-units":["fraction","fraction"],"icon":"http://maps.google.com/mapfiles/kml/shapes/parking_lot.png"}},{"type":"Feature","geometry":{"type":"Point","coordinates":[-58.01376820876003,-35.5789443721762,0]},"properties":{"name":"Plaza Independencia ( a FF)","styleUrl":"#msn_parking_lot10","label-scale":0.7,"icon-opacity":1,"icon-color":"#ffff00","icon-scale":1.2,"icon-offset":[0.5,0],"icon-offset-units":["fraction","fraction"],"icon":"http://maps.google.com/mapfiles/kml/shapes/parking_lot.png"}},{"type":"Feature","geometry":{"type":"Point","coordinates":[-58.02267123198877,-35.56356088955977,0]},"properties":{"name":"Plaza Barrio San Luis ( a FF)","styleUrl":"#msn_parking_lot4","label-scale":0.7,"icon-opacity":1,"icon-color":"#ffff00","icon-scale":1.2,"icon-offset":[0.5,0],"icon-offset-units":["fraction","fraction"],"icon":"http://maps.google.com/mapfiles/kml/shapes/parking_lot.png"}},{"type":"Feature","geometry":{"type":"Point","coordinates":[-58.03042268018012,-35.56567536756175,0]},"properties":{"name":"WIFI COSTANERA \"La Puerta\" ( a FF)","styleUrl":"#msn_parking_lot4","label-scale":0.7,"icon-opacity":1,"icon-color":"#ffff00","icon-scale":1.2,"icon-offset":[0.5,0],"icon-offset-units":["fraction","fraction"],"icon":"http://maps.google.com/mapfiles/kml/shapes/parking_lot.png"}},{"type":"Feature","geometry":{"type":"Point","coordinates":[-58.01213468981721,-35.5771424573743,0]},"properties":{"name":"Plaza Libertad (a MV)","styleUrl":"#msn_parking_lot6","label-scale":0.7,"icon-opacity":1,"icon-color":"#ff0000","icon-scale":1.2,"icon-offset":[0.5,0],"icon-offset-units":["fraction","fraction"],"icon":"http://maps.google.com/mapfiles/kml/shapes/parking_lot.png"}},{"type":"Feature","geometry":{"type":"Point","coordinates":[-57.99839864754153,-35.56859463173409,0]},"properties":{"name":"Plaza La Barraca (a MV)","styleUrl":"#msn_parking_lot2","label-scale":0.7,"icon-opacity":1,"icon-color":"#ff0000","icon-scale":1.2,"icon-offset":[0.5,0],"icon-offset-units":["fraction","fraction"],"icon":"http://maps.google.com/mapfiles/kml/shapes/parking_lot.png"}},{"type":"Feature","geometry":{"type":"Point","coordinates":[-58.01626463970749,-35.58225239794297,0]},"properties":{"name":"Paseo \"Estacion del Sol\" (a MV)","styleUrl":"#msn_parking_lot6","label-scale":0.7,"icon-opacity":1,"icon-color":"#ff0000","icon-scale":1.2,"icon-offset":[0.5,0],"icon-offset-units":["fraction","fraction"],"icon":"http://maps.google.com/mapfiles/kml/shapes/parking_lot.png"}},{"type":"Feature","geometry":{"type":"Point","coordinates":[-58.01259230539495,-35.58359010002394,0]},"properties":{"name":"Paseo \"La Bajadita\" (a MV)","styleUrl":"#msn_parking_lot6","label-scale":0.7,"icon-opacity":1,"icon-color":"#ff0000","icon-scale":1.2,"icon-offset":[0.5,0],"icon-offset-units":["fraction","fraction"],"icon":"http://maps.google.com/mapfiles/kml/shapes/parking_lot.png"}},{"type":"Feature","geometry":{"type":"Point","coordinates":[-57.97097836955714,-35.57449178895046,0]},"properties":{"name":"SUM EL PORTEÑO (a MV)","styleUrl":"#msn_parking_lot","label-scale":0.7,"icon-opacity":1,"icon-color":"#ff0000","icon-scale":1.4,"icon-offset":[0.5,0],"icon-offset-units":["fraction","fraction"],"icon":"http://maps.google.com/mapfiles/kml/shapes/parking_lot.png"}},{"type":"Feature","geometry":{"type":"Point","coordinates":[-58.01537968527182,-35.57145150893121,0]},"properties":{"name":"Plaza Sarmiento / Vieja Estacion (a MV)","styleUrl":"#msn_parking_lot6","label-scale":0.7,"icon-opacity":1,"icon-color":"#ff0000","icon-scale":1.2,"icon-offset":[0.5,0],"icon-offset-units":["fraction","fraction"],"icon":"http://maps.google.com/mapfiles/kml/shapes/parking_lot.png"}},{"type":"Feature","geometry":{"type":"Point","coordinates":[-58.00736896491632,-35.5836556905688,0]},"properties":{"name":"Paseo de Los Artesanos (a MV)","styleUrl":"#msn_parking_lot6","label-scale":0.7,"icon-opacity":1,"icon-color":"#ff0000","icon-scale":1.2,"icon-offset":[0.5,0],"icon-offset-units":["fraction","fraction"],"icon":"http://maps.google.com/mapfiles/kml/shapes/parking_lot.png"}}]}