{"type":"FeatureCollection","features":[{"type":"Feature","properties":{"CCA":"027030B00000000006000","ARA1":54408.51,"SAG":"ARBA","PARTIDO":"027","CIRC":3,"SECC":"B","CHACRA":null,"CHACRA_L":null,"QUINTA":6,"QUINTA_L":null,"NOMENCLA":"Circ. III - Secc. B - Qta. 6"},"geometry":{"type":"Polygon","coordinates":[[[-57.97207442256846,-35.5945248604731],[-57.971531534577394,-35.594030111791035],[-57.97125671768776,-35.593776597258696],[-57.97097760854317,-35.59353148026951],[-57.97069323633897,-35.5932720364424],[-57.97054524668166,-35.59313843185172],[-57.97039725751458,-35.59300482709268],[-57.970176999282565,-35.59280602564024],[-57.97013005377135,-35.592803973094675],[-57.969908105428786,-35.59296477607566],[-57.96966064347069,-35.593144162083576],[-57.96934836541707,-35.59336940291614],[-57.96903572724885,-35.59360445893829],[-57.96872161977659,-35.593832100229164],[-57.96841434771252,-35.59405985593494],[-57.967923772617226,-35.59442058668864],[-57.96819435144289,-35.59467556908525],[-57.96846657051125,-35.594922468558096],[-57.96874625805147,-35.595179495687375],[-57.96894431810332,-35.59535747027889],[-57.96964399187489,-35.59517020917992],[-57.97007413067284,-35.595053104614955],[-57.970502684542474,-35.59494191912059],[-57.97095556677354,-35.594819697731914],[-57.97138189569181,-35.594704777032845],[-57.97207442256846,-35.5945248604731]]]}},{"type":"Feature","properties":{"CCA":"027030B00000000004000","ARA1":56189.28,"SAG":"ARBA","PARTIDO":"027","CIRC":3,"SECC":"B","CHACRA":null,"CHACRA_L":null,"QUINTA":4,"QUINTA_L":null,"NOMENCLA":"Circ. III - Secc. B - Qta. 4"},"geometry":{"type":"Polygon","coordinates":[[[-57.96857332716899,-35.59132730528235],[-57.96822444113715,-35.59159562990844],[-57.96790855017324,-35.59182423037628],[-57.967609402217924,-35.592049417881846],[-57.967293309554066,-35.59228585292145],[-57.96698276568081,-35.59251219818223],[-57.96668091129541,-35.59273950026616],[-57.96632460247782,-35.593012920284686],[-57.96662135745089,-35.59327943164613],[-57.966926283485286,-35.59355446051891],[-57.967232404139345,-35.59383031979853],[-57.967549036042676,-35.59410941943328],[-57.967810994831396,-35.594343081143855],[-57.96785772969113,-35.59434477060984],[-57.96849193454172,-35.59387102999111],[-57.968792536697336,-35.593645234161826],[-57.96910086230794,-35.59341497208417],[-57.96940712381787,-35.593187738165746],[-57.969720220845424,-35.59295187785381],[-57.97007900568989,-35.592684797083656],[-57.96980172183733,-35.59243322020341],[-57.9694916340663,-35.592157030151185],[-57.9691776197196,-35.59187041035674],[-57.968876278485055,-35.591597520093934],[-57.96857332716899,-35.59132730528235]]]}},{"type":"Feature","properties":{"CCA":"027030B00000000003000","ARA1":52705.99,"SAG":"ARBA","PARTIDO":"027","CIRC":3,"SECC":"B","CHACRA":null,"CHACRA_L":null,"QUINTA":3,"QUINTA_L":null,"NOMENCLA":"Circ. III - Secc. B - Qta. 3"},"geometry":{"type":"Polygon","coordinates":[[[-57.969959477584645,-35.5922717862737],[-57.970224451643766,-35.5925127926175],[-57.97027117643922,-35.59251484140501],[-57.97041067078566,-35.592412482425246],[-57.97057478119461,-35.59229206517052],[-57.97085047225125,-35.59209116554213],[-57.97115769126009,-35.5918649343125],[-57.97146490627283,-35.59163879230692],[-57.97177212183629,-35.591412559379734],[-57.972104141218,-35.59116511646979],[-57.97242684124917,-35.59092841921007],[-57.972122133778484,-35.59065746271028],[-57.971827367679985,-35.59039045749085],[-57.971532605805436,-35.590123361530516],[-57.97123795615389,-35.589856266759156],[-57.97096163733636,-35.58960164501874],[-57.97063355698889,-35.58984176211693],[-57.9703127265062,-35.590078666308834],[-57.970005512303636,-35.59030489559268],[-57.969698298653434,-35.590531033954946],[-57.96939108100572,-35.59075726154119],[-57.969103881654654,-35.59096832665685],[-57.96894773106093,-35.59108373979688],[-57.96880866931333,-35.591186464845556],[-57.96880638094113,-35.591224633369194],[-57.969077094754255,-35.59146961371438],[-57.96922376021032,-35.59160301751038],[-57.96937118214005,-35.591737064661324],[-57.969665384024914,-35.59200442672924],[-57.969959477584645,-35.5922717862737]]]}},{"type":"Feature","properties":{"CCA":"027020E00000000003000","ARA1":48331.92,"SAG":"ARBA","PARTIDO":"027","CIRC":2,"SECC":"E","CHACRA":null,"CHACRA_L":null,"QUINTA":3,"QUINTA_L":null,"NOMENCLA":"Circ. II - Secc. E - Qta. 3"},"geometry":{"type":"Polygon","coordinates":[[[-57.965552444271786,-35.571895670633786],[-57.965128550601236,-35.571840393792414],[-57.96473672415632,-35.57179061320464],[-57.96434190793331,-35.57174132150942],[-57.96394643534032,-35.57169183721368],[-57.963527524221625,-35.57164024340464],[-57.96347750250604,-35.572008493730735],[-57.96343304883781,-35.572370259992795],[-57.96337756476946,-35.5727799591869],[-57.963328224988416,-35.573169126699455],[-57.96327334332038,-35.57356369727575],[-57.96322644455638,-35.573917402123755],[-57.963648642772114,-35.57397031426053],[-57.96406175784993,-35.57402478357013],[-57.964499017563725,-35.574088400123166],[-57.96492386229437,-35.57414576797028],[-57.96533232151984,-35.57420123564866],[-57.965369389118095,-35.573843398951645],[-57.965406293954445,-35.57344401817621],[-57.96544132955013,-35.57304875091814],[-57.96548287348267,-35.57264034714959],[-57.96551802563204,-35.572257877581805],[-57.965552444271786,-35.571895670633786]]]}},{"type":"Feature","properties":{"CCA":"027020E00000000004000","ARA1":25524.01,"SAG":"ARBA","PARTIDO":"027","CIRC":2,"SECC":"E","CHACRA":null,"CHACRA_L":null,"QUINTA":4,"QUINTA_L":null,"NOMENCLA":"Circ. II - Secc. E - Qta. 4"},"geometry":{"type":"Polygon","coordinates":[[[-57.96312401235169,-35.57409030622389],[-57.963036258748225,-35.57467220282045],[-57.96295765384456,-35.57522379636004],[-57.963410192902366,-35.57528533236087],[-57.96384400451858,-35.57535033488592],[-57.964284725445566,-35.57541256902773],[-57.96474110966393,-35.575474795796175],[-57.96515872717371,-35.57553474418885],[-57.9652228201407,-35.57496325968947],[-57.965281796333066,-35.574389075466016],[-57.964864368652286,-35.574330572571576],[-57.964588436383636,-35.574290137769374],[-57.96407014497841,-35.57421632154318],[-57.96356340651868,-35.57414801490885],[-57.96312401235169,-35.57409030622389]]]}},{"type":"Feature","properties":{"CCA":"027030B00000000002000","ARA1":53681.5,"SAG":"ARBA","PARTIDO":"027","CIRC":3,"SECC":"B","CHACRA":null,"CHACRA_L":null,"QUINTA":2,"QUINTA_L":null,"NOMENCLA":"Circ. III - Secc. B - Qta. 2"},"geometry":{"type":"Polygon","coordinates":[[[-57.96706637100829,-35.58995688774994],[-57.96639781621105,-35.59044626166275],[-57.96608628712511,-35.590672498003165],[-57.965765548389484,-35.59090948143154],[-57.96545443031308,-35.59114112966521],[-57.9647971472811,-35.59164203862609],[-57.96507311033527,-35.59189711879096],[-57.965361146848636,-35.59215907046421],[-57.96563687382085,-35.59241054094648],[-57.965916745949286,-35.59266829846451],[-57.966170192725016,-35.592902270478774],[-57.966242745320216,-35.592895114980315],[-57.96643558769842,-35.59275563444012],[-57.96665326047957,-35.592598370240886],[-57.966870822138,-35.59244110375515],[-57.96719602747128,-35.59220212029264],[-57.967514592597816,-35.59196825032744],[-57.967825159227,-35.5917364973374],[-57.96803808608722,-35.59157473502279],[-57.968250901819104,-35.591412970439585],[-57.968439417317775,-35.591269809128974],[-57.968460671141465,-35.591214568988065],[-57.968200141014805,-35.59098579881324],[-57.96791414856034,-35.5907256905093],[-57.96764061605584,-35.59047462262622],[-57.96734966176842,-35.59021019409536],[-57.96706637100829,-35.58995688774994]]]}},{"type":"Feature","properties":{"CCA":"027110B00000000043000","ARA1":62019.85,"SAG":"ARBA","PARTIDO":"027","CIRC":11,"SECC":"B","CHACRA":null,"CHACRA_L":null,"QUINTA":43,"QUINTA_L":null,"NOMENCLA":"Circ. XI - Secc. B - Qta. 43"},"geometry":{"type":"Polygon","coordinates":[[[-58.054705418690375,-35.618179486829014],[-58.05161370292722,-35.620544788338776],[-58.05256786308361,-35.62174285300635],[-58.055879833579674,-35.61920166969527],[-58.054705418690375,-35.618179486829014]]]}},{"type":"Feature","properties":{"CCA":"027110B00000000044000","ARA1":55355.98,"SAG":"ARBA","PARTIDO":"027","CIRC":11,"SECC":"B","CHACRA":null,"CHACRA_L":null,"QUINTA":44,"QUINTA_L":null,"NOMENCLA":"Circ. XI - Secc. B - Qta. 44"},"geometry":{"type":"Polygon","coordinates":[[[-58.05147806043542,-35.62063604020883],[-58.048624025035984,-35.622886428726304],[-58.04956639417851,-35.62407387247299],[-58.052428008908414,-35.621802949113054],[-58.05147806043542,-35.62063604020883]]]}},{"type":"Feature","properties":{"CCA":"027030B00000000012000","ARA1":51110.51,"SAG":"ARBA","PARTIDO":"027","CIRC":3,"SECC":"B","CHACRA":null,"CHACRA_L":null,"QUINTA":12,"QUINTA_L":null,"NOMENCLA":"Circ. III - Secc. B - Qta. 12"},"geometry":{"type":"Polygon","coordinates":[[[-57.96901604391661,-35.60789302468093],[-57.96888442488473,-35.60793586074752],[-57.96873145696088,-35.60821640957548],[-57.96853607956522,-35.60857256682733],[-57.96838863614734,-35.60883527626795],[-57.96845964798547,-35.60897686672005],[-57.96886699117233,-35.60911845218528],[-57.969257669756864,-35.609251465130384],[-57.96964663045134,-35.609382645649724],[-57.970047320315075,-35.60952132158661],[-57.97042130585755,-35.60965134614682],[-57.970810176173394,-35.60978189065914],[-57.97118416426123,-35.6099119129251],[-57.97156146258438,-35.61004198979261],[-57.97193545546913,-35.61017191972698],[-57.97226621320857,-35.6102792237074],[-57.97240185992294,-35.6102430298865],[-57.97263285179892,-35.6097869019066],[-57.97287706636137,-35.6093182903043],[-57.97281572795466,-35.60921281940598],[-57.97251188417092,-35.60910606012848],[-57.97214797659985,-35.60897891504194],[-57.97177256972124,-35.60884400591898],[-57.97139044510869,-35.60870862205871],[-57.97100548022304,-35.60857652326158],[-57.97063134958354,-35.6084480300033],[-57.97023645498421,-35.60831161638071],[-57.96984397009202,-35.60817596298289],[-57.96944760243021,-35.608036818653794],[-57.96901604391661,-35.60789302468093]]]}},{"type":"Feature","properties":{"CCA":"027110B00000000050000","ARA1":59337.78,"SAG":"ARBA","PARTIDO":"027","CIRC":11,"SECC":"B","CHACRA":null,"CHACRA_L":null,"QUINTA":50,"QUINTA_L":null,"NOMENCLA":"Circ. XI - Secc. B - Qta. 50"},"geometry":{"type":"Polygon","coordinates":[[[-58.05256994878068,-35.62196627482272],[-58.049636783587836,-35.624220273135215],[-58.05054637646118,-35.625417901967516],[-58.05374666337819,-35.62304033007169],[-58.05256994878068,-35.62196627482272]]]}},{"type":"Feature","properties":{"CCA":"027030B00000000007000","ARA1":34236.64,"SAG":"ARBA","PARTIDO":"027","CIRC":3,"SECC":"B","CHACRA":null,"CHACRA_L":null,"QUINTA":7,"QUINTA_L":null,"NOMENCLA":"Circ. III - Secc. B - Qta. 7"},"geometry":{"type":"Polygon","coordinates":[[[-57.97211074964911,-35.60200847505819],[-57.97202751289374,-35.60203644995632],[-57.971905318948906,-35.602252731692566],[-57.97173464288064,-35.60256254318015],[-57.97161060989637,-35.6027904179278],[-57.97167065285776,-35.60292073825632],[-57.97215952632831,-35.603087924977366],[-57.97251137125859,-35.60321108201335],[-57.97289601572523,-35.60334623410283],[-57.97328134372765,-35.60348058548221],[-57.973685975386616,-35.603628326469824],[-57.9740652891372,-35.60376500720212],[-57.974444677879234,-35.60389438902382],[-57.974862897903066,-35.604041633720755],[-57.97497961192665,-35.60395501673092],[-57.975011211580075,-35.60353743270326],[-57.97504599748334,-35.603111611982165],[-57.97495834760523,-35.602999482137214],[-57.97454309594164,-35.60285724385389],[-57.97416577654104,-35.60272474331442],[-57.97375957152271,-35.60258265450997],[-57.97337321111056,-35.60244999944131],[-57.97299389232475,-35.60231818253055],[-57.97262944906792,-35.602191570909696],[-57.97211074964911,-35.60200847505819]]]}},{"type":"Feature","properties":{"CCA":"027030B00000000009000","ARA1":48861.79,"SAG":"ARBA","PARTIDO":"027","CIRC":3,"SECC":"B","CHACRA":null,"CHACRA_L":null,"QUINTA":9,"QUINTA_L":null,"NOMENCLA":"Circ. III - Secc. B - Qta. 9"},"geometry":{"type":"Polygon","coordinates":[[[-57.97100551684743,-35.60417577595338],[-57.97083073987883,-35.60424573160285],[-57.970698334987695,-35.60449905575133],[-57.970519692882675,-35.60483990944718],[-57.97035562114116,-35.60513243854789],[-57.97042621997139,-35.60525545810509],[-57.970840242136326,-35.60539850091753],[-57.97124237582193,-35.60553611565835],[-57.97161038713205,-35.60566612581867],[-57.97200506000845,-35.605802170634966],[-57.972373335375075,-35.605930560944195],[-57.972775289258585,-35.60607114127108],[-57.973176797669296,-35.60620756767383],[-57.973547804733045,-35.606337171848374],[-57.97413974986686,-35.606544201782626],[-57.97426426559587,-35.6065071877407],[-57.97436773701655,-35.606202009779025],[-57.97450922937183,-35.60579798849576],[-57.9746022439921,-35.605500474093446],[-57.974546814694165,-35.605414477257405],[-57.974110541135296,-35.60526530575151],[-57.9737454129884,-35.60513463080776],[-57.97333894213611,-35.60499388764198],[-57.97294613656597,-35.60485823908082],[-57.972574410697156,-35.6047268188302],[-57.972188920077166,-35.60459435472679],[-57.97179604692099,-35.60445716944091],[-57.971407460601846,-35.60432068586237],[-57.97100551684743,-35.60417577595338]]]}},{"type":"Feature","properties":{"CCA":"027030B00000000010000","ARA1":51724.43,"SAG":"ARBA","PARTIDO":"027","CIRC":3,"SECC":"B","CHACRA":null,"CHACRA_L":null,"QUINTA":10,"QUINTA_L":null,"NOMENCLA":"Circ. III - Secc. B - Qta. 10"},"geometry":{"type":"Polygon","coordinates":[[[-57.97031920124304,-35.605429731642104],[-57.97014867964218,-35.60547524776387],[-57.969953277840226,-35.60584600522712],[-57.96977898337949,-35.60617611761927],[-57.969657256056315,-35.60640835423954],[-57.96971538496266,-35.60652269357288],[-57.97027206765246,-35.60671004450815],[-57.97066220627373,-35.60684223269001],[-57.971067549837564,-35.60697972195504],[-57.97146482509841,-35.60711779488292],[-57.97184329469767,-35.6072403211217],[-57.97222874943228,-35.60737467820272],[-57.97262650972164,-35.60750680819244],[-57.9730282205045,-35.60764422980082],[-57.97355796697656,-35.60781957825504],[-57.973692352340954,-35.60777633301355],[-57.973813138496574,-35.60751542108022],[-57.97400969104052,-35.60712476204424],[-57.974158057412,-35.60680709312118],[-57.97408854207748,-35.60672833838747],[-57.973588424176505,-35.6065597084507],[-57.97320116972636,-35.606426767229365],[-57.97279402263308,-35.60628637122416],[-57.972407523619125,-35.606149835760306],[-57.97203461259311,-35.60602145760736],[-57.97031920124304,-35.605429731642104]]]}},{"type":"Feature","properties":{"CCA":"027030B00000000011000","ARA1":51648.08,"SAG":"ARBA","PARTIDO":"027","CIRC":3,"SECC":"B","CHACRA":null,"CHACRA_L":null,"QUINTA":11,"QUINTA_L":null,"NOMENCLA":"Circ. III - Secc. B - Qta. 11"},"geometry":{"type":"Polygon","coordinates":[[[-57.96964368916124,-35.60664827113741],[-57.969503396429644,-35.60670258602924],[-57.96936272601541,-35.60698136064565],[-57.969168037616015,-35.60734978577835],[-57.96902542109233,-35.60760942361712],[-57.96909150522526,-35.60774516353703],[-57.969510259646405,-35.607889101831546],[-57.96990790164398,-35.60801709367378],[-57.970295189520975,-35.60814878451188],[-57.970691133000486,-35.60828296283214],[-57.971081232117,-35.60841704142272],[-57.97146750630591,-35.60854970268611],[-57.97185772865024,-35.608679004991565],[-57.972256486184854,-35.60881556850112],[-57.972632380399745,-35.608939941348815],[-57.97291639045565,-35.60903681476989],[-57.97305018257545,-35.609008428613166],[-57.9732851338448,-35.60853064907232],[-57.97352935688899,-35.60803076757616],[-57.973467860844735,-35.60794466819758],[-57.97320110114004,-35.60785520514921],[-57.97282412390162,-35.607730185122655],[-57.97243390438208,-35.60760088603078],[-57.97203527296415,-35.607459549420795],[-57.97164511526756,-35.60732790596334],[-57.97126750754504,-35.60719746385514],[-57.970865781786316,-35.60706084718902],[-57.97047849804196,-35.6069291583061],[-57.97008267181078,-35.60679498134877],[-57.96964368916124,-35.60664827113741]]]}},{"type":"Feature","properties":{"CCA":"027030B00000000014000","ARA1":51115.7,"SAG":"ARBA","PARTIDO":"027","CIRC":3,"SECC":"B","CHACRA":null,"CHACRA_L":null,"QUINTA":14,"QUINTA_L":null,"NOMENCLA":"Circ. III - Secc. B - Qta. 14"},"geometry":{"type":"Polygon","coordinates":[[[-57.96772659836481,-35.61028210124412],[-57.967571423094704,-35.610322465775134],[-57.96742494942901,-35.61057275493572],[-57.96721416769975,-35.61093540808854],[-57.967067154775826,-35.61118947230773],[-57.967126241373904,-35.61132698744998],[-57.967506060396694,-35.611470816398594],[-57.967891932351264,-35.61161970238467],[-57.96826177282836,-35.61175678254064],[-57.96864407604233,-35.611902902628096],[-57.96901391919862,-35.61203998055288],[-57.96938059678592,-35.612175742437046],[-57.96975529457909,-35.6123173153948],[-57.97011366236021,-35.61245014157043],[-57.97046812753055,-35.61258461304046],[-57.9708583751593,-35.61272671496874],[-57.9710213226761,-35.612684584862365],[-57.97125807688934,-35.612245587948145],[-57.97153297270644,-35.61174685857494],[-57.971476233983616,-35.61165588223495],[-57.97110142561928,-35.61151431276229],[-57.97073971699358,-35.61138278492896],[-57.970382504616495,-35.61125241312073],[-57.970010180199026,-35.61111313492915],[-57.969640178989884,-35.61097803986474],[-57.9692764251899,-35.610844671006305],[-57.968878527821786,-35.61070009221836],[-57.96850441301737,-35.61056636611869],[-57.968119364321836,-35.61042434444912],[-57.96772659836481,-35.61028210124412]]]}},{"type":"Feature","properties":{"CCA":"027030B00000000020000","ARA1":23692.67,"SAG":"ARBA","PARTIDO":"027","CIRC":3,"SECC":"B","CHACRA":null,"CHACRA_L":null,"QUINTA":20,"QUINTA_L":null,"NOMENCLA":"Circ. III - Secc. B - Qta. 20"},"geometry":{"type":"Polygon","coordinates":[[[-57.97346704472889,-35.59957397169709],[-57.97333659657947,-35.599606019313576],[-57.97321290967034,-35.59983804688931],[-57.97304463757166,-35.600153577951765],[-57.9728825024056,-35.60045758768983],[-57.972754761854894,-35.60069711583656],[-57.972826359343394,-35.60083303674699],[-57.97328732821619,-35.600995063398784],[-57.97364735578668,-35.601121598698676],[-57.97402870887276,-35.60125570048899],[-57.97478748724703,-35.60152230257325],[-57.97487802773516,-35.60146714487181],[-57.974637396890714,-35.600727071996644],[-57.97451093584726,-35.60033827904679],[-57.9743943072348,-35.5999796582884],[-57.97429489500906,-35.59986597852463],[-57.973958176383086,-35.59974722635458],[-57.97346704472889,-35.59957397169709]]]}},{"type":"Feature","properties":{"CCA":"027030B00000000021000","ARA1":28231.37,"SAG":"ARBA","PARTIDO":"027","CIRC":3,"SECC":"B","CHACRA":null,"CHACRA_L":null,"QUINTA":21,"QUINTA_L":null,"NOMENCLA":"Circ. III - Secc. B - Qta. 21"},"geometry":{"type":"Polygon","coordinates":[[[-57.9727140164896,-35.600947659710116],[-57.97260363910898,-35.60097562882236],[-57.972478286688784,-35.601207897830335],[-57.97230629411578,-35.60152633874708],[-57.97218071024387,-35.60175896394678],[-57.97223428950187,-35.601869981558124],[-57.97274042216752,-35.60204385427717],[-57.97310369495625,-35.60216873375219],[-57.973477470306776,-35.60229721305464],[-57.97387050102501,-35.602432232754055],[-57.97428398913772,-35.60257426343398],[-57.974953883544416,-35.60280449687715],[-57.97505844938973,-35.60275326940738],[-57.97500149457751,-35.60232509542233],[-57.974930075416104,-35.60178791417013],[-57.97483446302197,-35.60168970770641],[-57.97474510696049,-35.6016584687682],[-57.974349078858815,-35.60151988721265],[-57.973957209033095,-35.6013827259775],[-57.973584369300255,-35.60125228150065],[-57.97322214006449,-35.60112552874118],[-57.9727140164896,-35.600947659710116]]]}},{"type":"Feature","properties":{"CCA":"027030B00000000008000","ARA1":40883.65,"SAG":"ARBA","PARTIDO":"027","CIRC":3,"SECC":"B","CHACRA":null,"CHACRA_L":null,"QUINTA":8,"QUINTA_L":null,"NOMENCLA":"Circ. III - Secc. B - Qta. 8"},"geometry":{"type":"Polygon","coordinates":[[[-57.971575363842426,-35.60304582975042],[-57.97146035554594,-35.60309102108086],[-57.97132289160038,-35.60333948494349],[-57.971145186232015,-35.60366530695281],[-57.97101955570143,-35.60388639576972],[-57.971085453919486,-35.60403826140501],[-57.971475584647855,-35.60417468189592],[-57.97185995998885,-35.60430748990749],[-57.972231206237865,-35.60443593058703],[-57.97260409445942,-35.60456493843981],[-57.97295946902049,-35.60468842399455],[-57.973348091784246,-35.60482364168307],[-57.97372915571094,-35.604956748539394],[-57.97408189492656,-35.60508424149139],[-57.97444911091256,-35.60521089553313],[-57.97460797056785,-35.60516391562167],[-57.97475614365823,-35.60474423684104],[-57.97491407384299,-35.60428759611544],[-57.97485520062047,-35.60419379196652],[-57.97460511356542,-35.604108667458895],[-57.974247144005446,-35.60398307056087],[-57.973859732239255,-35.60384805639274],[-57.97347825707493,-35.60371395187],[-57.973118641359086,-35.60358814374723],[-57.97274513358584,-35.60345759521665],[-57.972378971045146,-35.60332897140401],[-57.97200035035586,-35.60319563120086],[-57.971575363842426,-35.60304582975042]]]}},{"type":"Feature","properties":{"CCA":"027050A00000000001000","ARA1":19954.92,"SAG":"ARBA","PARTIDO":"027","CIRC":5,"SECC":"A","CHACRA":null,"CHACRA_L":null,"QUINTA":1,"QUINTA_L":null,"NOMENCLA":"Circ. V - Secc. A - Qta. 1"},"geometry":{"type":"Polygon","coordinates":[[[-58.02061095322271,-35.513057591322536],[-58.02055971765945,-35.51305702064777],[-58.020153048367014,-35.51336132466131],[-58.01993691309511,-35.51352304320719],[-58.019727178383235,-35.51367991024032],[-58.01951744064459,-35.51383686695497],[-58.019144110747504,-35.51411621297085],[-58.019142111567305,-35.51416168720345],[-58.01932633933054,-35.51432980039115],[-58.01951951735229,-35.51450599024809],[-58.01972530750433,-35.51469374116286],[-58.01989401586927,-35.514847631127175],[-58.01995854530688,-35.51485445796424],[-58.02033236319008,-35.5145732251012],[-58.02054234385868,-35.514415369847036],[-58.02075367451602,-35.514256364898515],[-58.020967699313736,-35.514095331177494],[-58.02137328548088,-35.51379028577937],[-58.021371313193754,-35.51374042089539],[-58.02119726325865,-35.51358410237456],[-58.02100272391505,-35.51340942474257],[-58.02079761875515,-35.51322520163186],[-58.02061095322271,-35.513057591322536]]]}},{"type":"Feature","properties":{"CCA":"027050A00000000002000","ARA1":24480.67,"SAG":"ARBA","PARTIDO":"027","CIRC":5,"SECC":"A","CHACRA":null,"CHACRA_L":null,"QUINTA":2,"QUINTA_L":null,"NOMENCLA":"Circ. V - Secc. A - Qta. 2"},"geometry":{"type":"Polygon","coordinates":[[[-58.01896124625412,-35.51425144230989],[-58.0185876877503,-35.514530962993135],[-58.018330225722046,-35.51472362911911],[-58.0180787167552,-35.51491170663793],[-58.01784146430847,-35.515089204397086],[-58.01758837963726,-35.51527851652595],[-58.017205829410074,-35.51556473349025],[-58.0172042675382,-35.51561030496673],[-58.017381391231424,-35.51577145568286],[-58.01758309684353,-35.515954907728656],[-58.01779040835672,-35.51614349792487],[-58.01796570351109,-35.51630290560172],[-58.01801563169483,-35.51630742089392],[-58.01840315668869,-35.51601614671136],[-58.01865413313555,-35.515827429047434],[-58.01889601170223,-35.51564559017955],[-58.01914485271802,-35.51545845839669],[-58.019403683866834,-35.51526392067098],[-58.01977244823965,-35.514986661706246],[-58.01977303384349,-35.514949364534374],[-58.019595688793316,-35.51478812352026],[-58.01938686481898,-35.514598249958084],[-58.01918774255313,-35.51441727637209],[-58.01900824289666,-35.5142541067519],[-58.01896124625412,-35.51425144230989]]]}},{"type":"Feature","properties":{"CCA":"027050A00000000003000","ARA1":25578.89,"SAG":"ARBA","PARTIDO":"027","CIRC":5,"SECC":"A","CHACRA":null,"CHACRA_L":null,"QUINTA":3,"QUINTA_L":null,"NOMENCLA":"Circ. V - Secc. A - Qta. 3"},"geometry":{"type":"Polygon","coordinates":[[[-58.02534910765663,-35.51540432080886],[-58.0252752474391,-35.51540491354506],[-58.025083883808875,-35.515554431184015],[-58.02487128169508,-35.515720541890644],[-58.024662277116605,-35.515883737404614],[-58.02446664070898,-35.5160366083194],[-58.024278196019885,-35.51618382949781],[-58.024280923430304,-35.516238933276924],[-58.024594569098596,-35.516505760220504],[-58.02476515746282,-35.51665093335824],[-58.02493110602845,-35.51679206528876],[-58.025102019508125,-35.516937513627006],[-58.02528027547402,-35.51708920966345],[-58.02572122605185,-35.51746427170877],[-58.025785970027265,-35.51746244811819],[-58.0259248597555,-35.51733144472441],[-58.026080110563036,-35.51718493919819],[-58.0262372801089,-35.51703657249151],[-58.02639749659236,-35.51688528170448],[-58.02656662141102,-35.5167257559636],[-58.02668757176479,-35.51661157953637],[-58.02668268578201,-35.516541031120894],[-58.026340002405895,-35.516248953126066],[-58.026162616516956,-35.51609772344506],[-58.025995701989025,-35.515955496014996],[-58.02583094960953,-35.51581501590715],[-58.02565831398316,-35.51566791836352],[-58.02534910765663,-35.51540432080886]]]}},{"type":"Feature","properties":{"CCA":"027050A00000000004000","ARA1":29717.02,"SAG":"ARBA","PARTIDO":"027","CIRC":5,"SECC":"A","CHACRA":null,"CHACRA_L":null,"QUINTA":4,"QUINTA_L":null,"NOMENCLA":"Circ. V - Secc. A - Qta. 4"},"geometry":{"type":"Polygon","coordinates":[[[-58.02324446691251,-35.51357217182452],[-58.0231906741099,-35.513585978438634],[-58.02309631062214,-35.513833954638756],[-58.023022677621775,-35.51402757197407],[-58.022953169776265,-35.5142102630902],[-58.022883657178845,-35.51439313430452],[-58.0228168593753,-35.51456866070963],[-58.02274605468719,-35.51475475470999],[-58.02271754362407,-35.514829711849245],[-58.02273851438834,-35.514886917058455],[-58.023101015253175,-35.51519708222764],[-58.02327341588477,-35.51534453995677],[-58.02343361937234,-35.51548152462687],[-58.023602350415025,-35.51562585790367],[-58.023770542235134,-35.51576973154807],[-58.02408026229474,-35.51603469319582],[-58.02413768482133,-35.51603923864381],[-58.024336981857175,-35.51588543700555],[-58.024545713742626,-35.51572440031348],[-58.02475354574945,-35.51556406940688],[-58.02495598929641,-35.51540770495775],[-58.02514820328074,-35.51525946302693],[-58.025159751250165,-35.51521099107162],[-58.024836105212025,-35.514934089354874],[-58.024668023262144,-35.51479021897815],[-58.02450361050122,-35.51464956244235],[-58.02433628548614,-35.51450633480769],[-58.024162373061415,-35.51435759222495],[-58.023995155012436,-35.51421454610838],[-58.02378670229859,-35.514036130464724],[-58.02324446691251,-35.51357217182452]]]}},{"type":"Feature","properties":{"CCA":"027110B00000000012000","ARA1":50301.61,"SAG":"ARBA","PARTIDO":"027","CIRC":11,"SECC":"B","CHACRA":null,"CHACRA_L":null,"QUINTA":12,"QUINTA_L":null,"NOMENCLA":"Circ. XI - Secc. B - Qta. 12"},"geometry":{"type":"Polygon","coordinates":[[[-58.042927294458565,-35.616343409635505],[-58.03947093357185,-35.61820126666332],[-58.040257045161425,-35.61921313233691],[-58.04377066051032,-35.6173255452387],[-58.042927294458565,-35.616343409635505]]]}},{"type":"Feature","properties":{"CCA":"027110B00000000022000","ARA1":70727.52,"SAG":"ARBA","PARTIDO":"027","CIRC":11,"SECC":"B","CHACRA":null,"CHACRA_L":null,"QUINTA":22,"QUINTA_L":null,"NOMENCLA":"Circ. XI - Secc. B - Qta. 22"},"geometry":{"type":"Polygon","coordinates":[[[-58.04796935387374,-35.616085239533184],[-58.04746013731766,-35.61648149903012],[-58.050375927688776,-35.61906557131311],[-58.052767486255185,-35.61721118359828],[-58.04796935387374,-35.616085239533184]]]}},{"type":"Feature","properties":{"CCA":"027110B00000000023000","ARA1":51518.87,"SAG":"ARBA","PARTIDO":"027","CIRC":11,"SECC":"B","CHACRA":null,"CHACRA_L":null,"QUINTA":23,"QUINTA_L":null,"NOMENCLA":"Circ. XI - Secc. B - Qta. 23"},"geometry":{"type":"Polygon","coordinates":[[[-58.04741462362101,-35.616501577088975],[-58.046344936410435,-35.617309027164644],[-58.04923312807386,-35.61991583787182],[-58.05030653799154,-35.619114460292465],[-58.04741462362101,-35.616501577088975]]]}},{"type":"Feature","properties":{"CCA":"027110B00000000024000","ARA1":48744.99,"SAG":"ARBA","PARTIDO":"027","CIRC":11,"SECC":"B","CHACRA":null,"CHACRA_L":null,"QUINTA":24,"QUINTA_L":null,"NOMENCLA":"Circ. XI - Secc. B - Qta. 24"},"geometry":{"type":"Polygon","coordinates":[[[-58.04615941863965,-35.61744082550874],[-58.04561337878754,-35.61784846437805],[-58.047301387863634,-35.620636338641184],[-58.047504729758785,-35.62122410245871],[-58.04906873627951,-35.62004563989968],[-58.04615941863965,-35.61744082550874]]]}},{"type":"Feature","properties":{"CCA":"027030B00000000001000","ARA1":50821.66,"SAG":"ARBA","PARTIDO":"027","CIRC":3,"SECC":"B","CHACRA":null,"CHACRA_L":null,"QUINTA":1,"QUINTA_L":null,"NOMENCLA":"Circ. III - Secc. B - Qta. 1"},"geometry":{"type":"Polygon","coordinates":[[[-57.969515048833244,-35.58821235977623],[-57.96884496918751,-35.588706498076704],[-57.96852614143758,-35.5889427104076],[-57.9682301019506,-35.589163266388844],[-57.96792097018762,-35.5893910800037],[-57.967282626303756,-35.589872768490345],[-57.96754340099712,-35.59011343937791],[-57.96782341853198,-35.59036975319214],[-57.96809143896646,-35.59061631225802],[-57.96837409059469,-35.59087330003246],[-57.96864328995662,-35.591116994231314],[-57.969298563638986,-35.59063774667417],[-57.96960352783917,-35.59041337367282],[-57.96990545613121,-35.59019120148499],[-57.97021915006078,-35.58996174750887],[-57.97042342526788,-35.58981019779615],[-57.970628880854754,-35.58965992915992],[-57.97083357742197,-35.58950910670622],[-57.97083678557673,-35.58946068093788],[-57.970591205231415,-35.58922522909958],[-57.970324567097904,-35.58897185034279],[-57.97005699843642,-35.588720437779784],[-57.969783071128184,-35.58846315037447],[-57.969515048833244,-35.58821235977623]]]}},{"type":"Feature","properties":{"CCA":"027030B00000000013000","ARA1":51912.24,"SAG":"ARBA","PARTIDO":"027","CIRC":3,"SECC":"B","CHACRA":null,"CHACRA_L":null,"QUINTA":13,"QUINTA_L":null,"NOMENCLA":"Circ. III - Secc. B - Qta. 13"},"geometry":{"type":"Polygon","coordinates":[[[-57.96837902876021,-35.609097336815516],[-57.9682008090808,-35.60917200619104],[-57.96806761910498,-35.60941206746029],[-57.96787361439432,-35.60977915004822],[-57.967736846756644,-35.61002969350492],[-57.967786539191934,-35.61016344541282],[-57.96818933696839,-35.610314778615944],[-57.968576482299525,-35.610452419987375],[-57.96895883633805,-35.61058322102465],[-57.96935242376765,-35.610723671891506],[-57.96972687072078,-35.610853075663044],[-57.97011186555347,-35.61098869347836],[-57.97049251221621,-35.61112612914173],[-57.97086827753522,-35.61125591207052],[-57.97123953087382,-35.61138525740045],[-57.97159169201118,-35.61150598987248],[-57.97174251149636,-35.611467709478354],[-57.97199577686213,-35.610999432578254],[-57.97223924518053,-35.61052134826264],[-57.972188435294484,-35.610414071871745],[-57.97184567380342,-35.61030142922604],[-57.97147122336385,-35.610172122077934],[-57.97109932471037,-35.61004231609996],[-57.970712108328115,-35.60990738493119],[-57.97033371597443,-35.60977701666143],[-57.96995940491497,-35.609642390683156],[-57.9695654448428,-35.60951247853866],[-57.969176776155585,-35.60937409380537],[-57.968789324072695,-35.6092443789943],[-57.96837902876021,-35.609097336815516]]]}},{"type":"Feature","properties":{"CCA":"027030B00000000005000","ARA1":59754.85,"SAG":"ARBA","PARTIDO":"027","CIRC":3,"SECC":"B","CHACRA":null,"CHACRA_L":null,"QUINTA":5,"QUINTA_L":null,"NOMENCLA":"Circ. III - Secc. B - Qta. 5"},"geometry":{"type":"Polygon","coordinates":[[[-57.97255703697306,-35.59102829082172],[-57.970321238637254,-35.59267743428376],[-57.97231043049295,-35.59448458852097],[-57.97272123505363,-35.59436390493259],[-57.972777758127464,-35.59405190013842],[-57.97359986897498,-35.59206192957664],[-57.97255703697306,-35.59102829082172]]]}},{"type":"Feature","properties":{"CCA":"027020A00000000001000","ARA1":18530.26,"SAG":"ARBA","PARTIDO":"027","CIRC":2,"SECC":"A","CHACRA":null,"CHACRA_L":null,"QUINTA":1,"QUINTA_L":null,"NOMENCLA":"Circ. II - Secc. A - Qta. 1"},"geometry":{"type":"Polygon","coordinates":[[[-58.017924426434284,-35.5543051018352],[-58.01789646229327,-35.55476899147728],[-58.01787491620878,-35.55512449123189],[-58.01784185286928,-35.55567002892576],[-58.01822449386198,-35.55568812586014],[-58.018648659971575,-35.55570816579551],[-58.01905013713435,-35.55572711043311],[-58.01955151381278,-35.55575084921664],[-58.01984350459245,-35.555764748084435],[-58.02008862647309,-35.55546050016182],[-58.01974141704247,-35.55527520186287],[-58.01932237479703,-35.555051505698486],[-58.018975497420826,-35.554866300804505],[-58.0186309098179,-35.55468221392256],[-58.017924426434284,-35.5543051018352]]]}},{"type":"Feature","properties":{"CCA":"027020A00000000002000","ARA1":17516.65,"SAG":"ARBA","PARTIDO":"027","CIRC":2,"SECC":"A","CHACRA":null,"CHACRA_L":null,"QUINTA":2,"QUINTA_L":null,"NOMENCLA":"Circ. II - Secc. A - Qta. 2"},"geometry":{"type":"Polygon","coordinates":[[[-58.01782600984514,-35.55582079682979],[-58.01780402701703,-35.55615817672499],[-58.01778424629696,-35.556495682925714],[-58.017757589663596,-35.55683028253302],[-58.01774259422344,-35.557170480650356],[-58.01772182071884,-35.557507970454544],[-58.01771066161679,-35.5576879216408],[-58.01826140277286,-35.55770923382895],[-58.01863928550196,-35.55772391719608],[-58.01867022010326,-35.557206459461284],[-58.01869208957598,-35.55686907754323],[-58.01871285650643,-35.55653167747732],[-58.01873373342304,-35.55619427919642],[-58.01875450208552,-35.55585678900047],[-58.018298738945624,-35.555839113510785],[-58.01782600984514,-35.55582079682979]]]}},{"type":"Feature","properties":{"CCA":"027020A00000000006000","ARA1":17084.37,"SAG":"ARBA","PARTIDO":"027","CIRC":2,"SECC":"A","CHACRA":null,"CHACRA_L":null,"QUINTA":6,"QUINTA_L":null,"NOMENCLA":"Circ. II - Secc. A - Qta. 6"},"geometry":{"type":"Polygon","coordinates":[[[-58.01879068490331,-35.55786761221602],[-58.01876786498909,-35.558252557842735],[-58.01874495892891,-35.558636510787196],[-58.01872368387263,-35.559021391638595],[-58.01870132615303,-35.55940544365137],[-58.01867851832649,-35.559789848685114],[-58.01911860264107,-35.55980474223986],[-58.01956001161253,-35.55982407146397],[-58.019582374319995,-35.55943965888445],[-58.019604738941794,-35.559055156194766],[-58.01962699081257,-35.55867074173565],[-58.0196493548302,-35.55828623897771],[-58.01967171632901,-35.557901826261634],[-58.0192311442597,-35.557884764173416],[-58.01879068490331,-35.55786761221602]]]}},{"type":"Feature","properties":{"CCA":"027020A00000000007000","ARA1":23988.72,"SAG":"ARBA","PARTIDO":"027","CIRC":2,"SECC":"A","CHACRA":null,"CHACRA_L":null,"QUINTA":7,"QUINTA_L":null,"NOMENCLA":"Circ. II - Secc. A - Qta. 7"},"geometry":{"type":"Polygon","coordinates":[[[-58.020227297331445,-35.55555225973467],[-58.0199829782862,-35.55585525955368],[-58.01997295408657,-35.55602964274748],[-58.01995329495086,-35.55636706134052],[-58.01993374359533,-35.55670457179421],[-58.01991252845167,-35.557069358967766],[-58.019891972201975,-35.55743424705251],[-58.01987176094521,-35.557771656481194],[-58.02031233042951,-35.55778880628753],[-58.02075279216362,-35.55780586260244],[-58.02077245081068,-35.55746835378191],[-58.020780485236244,-35.55732998284839],[-58.020925699818044,-35.557146825830664],[-58.0211398147921,-35.55687928314007],[-58.02136822910644,-35.55659521385943],[-58.021612243549235,-35.55629103475244],[-58.021272427229185,-35.55610973697099],[-58.02092281594703,-35.555923231115145],[-58.020570155371615,-35.555735232385885],[-58.020227297331445,-35.55555225973467]]]}},{"type":"Feature","properties":{"CCA":"027020A00000000011000","ARA1":26652.45,"SAG":"ARBA","PARTIDO":"027","CIRC":2,"SECC":"A","CHACRA":null,"CHACRA_L":null,"QUINTA":11,"QUINTA_L":null,"NOMENCLA":"Circ. II - Secc. A - Qta. 11"},"geometry":{"type":"Polygon","coordinates":[[[-58.02172632767818,-35.55638274950463],[-58.02145973774468,-35.55671260075777],[-58.02119359979616,-35.557041918115864],[-58.020939174405804,-35.55735673882626],[-58.02093025501509,-35.557486264219996],[-58.02091108003118,-35.557822068880945],[-58.02150884359894,-35.5578461208445],[-58.021817213828285,-35.557862446625236],[-58.02192358101405,-35.55787788949674],[-58.02231457040316,-35.55795612554249],[-58.0227034268013,-35.55803144173599],[-58.0230265855981,-35.55811018467947],[-58.02326708052192,-35.557751696795194],[-58.02353676376082,-35.55734962201015],[-58.02316801549214,-35.557151634764146],[-58.02283711569994,-35.55697517340666],[-58.02249348207651,-35.55679192401718],[-58.02214974202983,-35.55660858180769],[-58.02172632767818,-35.55638274950463]]]}},{"type":"Feature","properties":{"CCA":"027020A00000000004000","ARA1":25112.46,"SAG":"ARBA","PARTIDO":"027","CIRC":2,"SECC":"A","CHACRA":null,"CHACRA_L":null,"QUINTA":4,"QUINTA_L":null,"NOMENCLA":"Circ. II - Secc. A - Qta. 4"},"geometry":{"type":"Polygon","coordinates":[[[-58.01757866405107,-35.55988142928947],[-58.017537004910814,-35.56055631654967],[-58.01752750248566,-35.560709261164746],[-58.01747696600152,-35.56150718588],[-58.01755979770017,-35.56156045314509],[-58.01807531450211,-35.561893606756094],[-58.018487131588145,-35.56146702796525],[-58.01871871469382,-35.561108943973636],[-58.018910690835526,-35.56080968262007],[-58.01911095907717,-35.560513981486324],[-58.01947712869927,-35.55995661653414],[-58.01890814375367,-35.559932126184556],[-58.01846445437755,-35.55991582089211],[-58.01805141686557,-35.559899747698005],[-58.01757866405107,-35.55988142928947]]]}},{"type":"Feature","properties":{"CCA":"027020A00000000005000","ARA1":16594.93,"SAG":"ARBA","PARTIDO":"027","CIRC":2,"SECC":"A","CHACRA":null,"CHACRA_L":null,"QUINTA":5,"QUINTA_L":null,"NOMENCLA":"Circ. II - Secc. A - Qta. 5"},"geometry":{"type":"Polygon","coordinates":[[[-58.01892647289644,-35.555863490602285],[-58.01890482029268,-35.556236921179696],[-58.018883196228494,-35.55660918073682],[-58.018861401784314,-35.556983870502044],[-58.018839746108796,-35.557357391058915],[-58.018817982135246,-35.55773081969558],[-58.019258553202434,-35.55774788326511],[-58.01969912231773,-35.557765035305536],[-58.01972077421185,-35.557391514492835],[-58.019742423605,-35.557018083723975],[-58.01976407492989,-35.55664456284692],[-58.0197845112373,-35.5562711120924],[-58.01980748473781,-35.55589761288332],[-58.019367033799,-35.5558805534508],[-58.01892647289644,-35.555863490602285]]]}},{"type":"Feature","properties":{"CCA":"027020A00000000008000","ARA1":17087.41,"SAG":"ARBA","PARTIDO":"027","CIRC":2,"SECC":"A","CHACRA":null,"CHACRA_L":null,"QUINTA":8,"QUINTA_L":null,"NOMENCLA":"Circ. II - Secc. A - Qta. 8"},"geometry":{"type":"Polygon","coordinates":[[[-58.01984695646453,-35.55791029247165],[-58.019824703812475,-35.55829479713378],[-58.0198023428434,-35.55867920987471],[-58.01977998157211,-35.55906362258148],[-58.01975772801517,-35.55944812714134],[-58.01973536613982,-35.55983253977988],[-58.02017594905277,-35.559849600366526],[-58.02061642199645,-35.55986665753748],[-58.02063877968673,-35.55948224460199],[-58.02066102684211,-35.55909782982201],[-58.02068338614395,-35.55871332674223],[-58.02070576286628,-35.558328103019655],[-58.02072798917907,-35.55794449882218],[-58.01984695646453,-35.55791029247165]]]}},{"type":"Feature","properties":{"CCA":"027020A00000000003000","ARA1":18010.96,"SAG":"ARBA","PARTIDO":"027","CIRC":2,"SECC":"A","CHACRA":null,"CHACRA_L":null,"QUINTA":3,"QUINTA_L":null,"NOMENCLA":"Circ. II - Secc. A - Qta. 3"},"geometry":{"type":"Polygon","coordinates":[[[-58.017702720179244,-35.55781782324051],[-58.01768112436967,-35.55816629318955],[-58.01765964075067,-35.55851467484686],[-58.01763815687282,-35.55886305647537],[-58.01761667273611,-35.55921143807511],[-58.01759518612159,-35.5595599097219],[-58.0175840262302,-35.5597398608204],[-58.018134671113174,-35.559761172220384],[-58.018512673654264,-35.55977585810307],[-58.018545311880324,-35.55924752498861],[-58.01856679423832,-35.55889905301979],[-58.018588274119686,-35.558550671098125],[-58.01860975374226,-35.55820228914766],[-58.018631343336935,-35.55785390898052],[-58.017702720179244,-35.55781782324051]]]}},{"type":"Feature","properties":{"CCA":"027020A00000000009000","ARA1":21840.5,"SAG":"ARBA","PARTIDO":"027","CIRC":2,"SECC":"A","CHACRA":null,"CHACRA_L":null,"QUINTA":9,"QUINTA_L":null,"NOMENCLA":"Circ. II - Secc. A - Qta. 9"},"geometry":{"type":"Polygon","coordinates":[[[-58.01966841923791,-35.55996282367928],[-58.01943046131305,-35.56032035435502],[-58.019231111464755,-35.56061913497065],[-58.019021450886974,-35.56093351541239],[-58.018692366201506,-35.561426607536966],[-58.01935326280116,-35.56145405140496],[-58.019767865357544,-35.56146960529953],[-58.0201379571997,-35.56148343532748],[-58.02037113294765,-35.5611320425246],[-58.02057475369506,-35.560825400248675],[-58.02077837949652,-35.56051848733572],[-58.02111014698046,-35.56001876491089],[-58.020454596073876,-35.559994122035455],[-58.02003830360654,-35.55997583948576],[-58.01966841923791,-35.55996282367928]]]}},{"type":"Feature","properties":{"CCA":"027020A00000000010000","ARA1":14420.33,"SAG":"ARBA","PARTIDO":"027","CIRC":2,"SECC":"A","CHACRA":null,"CHACRA_L":null,"QUINTA":10,"QUINTA_L":null,"NOMENCLA":"Circ. II - Secc. A - Qta. 10"},"geometry":{"type":"Polygon","coordinates":[[[-58.019921911660425,-35.56229486252379],[-58.019833365809184,-35.56223618633578],[-58.020216816223794,-35.561653421211204],[-58.01965574320917,-35.561625099232735],[-58.01924289542743,-35.56160542861014],[-58.01883015593404,-35.561585848467274],[-58.01859783458994,-35.5615752707597],[-58.018216978946356,-35.561985057477614],[-58.01856142500183,-35.56220744125882],[-58.01888589982369,-35.56241688005193],[-58.01929298767975,-35.56267967060937],[-58.019466028058474,-35.56279137016675],[-58.01955537027177,-35.562849068475984],[-58.019921911660425,-35.56229486252379]]]}},{"type":"Feature","properties":{"CCA":"027020A00000000012000","ARA1":18469.18,"SAG":"ARBA","PARTIDO":"027","CIRC":2,"SECC":"A","CHACRA":null,"CHACRA_L":null,"QUINTA":12,"QUINTA_L":null,"NOMENCLA":"Circ. II - Secc. A - Qta. 12"},"geometry":{"type":"Polygon","coordinates":[[[-58.020900237201815,-35.557940118394356],[-58.02087582227864,-35.55836342629393],[-58.020855479062654,-35.558710836219404],[-58.02083448147241,-35.55907139179332],[-58.02080822553634,-35.55952467681048],[-58.020787880957926,-35.55987659225591],[-58.02119887142161,-35.55989073009628],[-58.02135219179282,-35.55965165583012],[-58.021611926454206,-35.55924671901815],[-58.02181833454769,-35.55892498126289],[-58.0220159165583,-35.558616795359214],[-58.02235414475887,-35.55807788610457],[-58.021842749903634,-35.55799001446747],[-58.0217706268669,-35.557976665508036],[-58.02129894230128,-35.557955676029565],[-58.020900237201815,-35.557940118394356]]]}},{"type":"Feature","properties":{"CCA":"027050C00000000004000","ARA1":6915.73,"SAG":"ARBA","PARTIDO":"027","CIRC":5,"SECC":"C","CHACRA":null,"CHACRA_L":null,"QUINTA":4,"QUINTA_L":null,"NOMENCLA":"Circ. V - Secc. C - Qta. 4"},"geometry":{"type":"Polygon","coordinates":[[[-58.02190565857684,-35.525572822926165],[-58.0219307477279,-35.52518394673895],[-58.02195594673211,-35.52479507232269],[-58.02198114319136,-35.52440628794634],[-58.02200634816135,-35.524017143226615],[-58.021566081496054,-35.52399964697645],[-58.021540878836326,-35.524388611383394],[-58.0215156802661,-35.5247773956003],[-58.021490479150366,-35.525166269857074],[-58.021465277700806,-35.52555514407713],[-58.02190565857684,-35.525572822926165]]]}},{"type":"Feature","properties":{"CCA":"027050C00000000005000","ARA1":16422.2,"SAG":"ARBA","PARTIDO":"027","CIRC":5,"SECC":"C","CHACRA":null,"CHACRA_L":null,"QUINTA":5,"QUINTA_L":null,"NOMENCLA":"Circ. V - Secc. C - Qta. 5"},"geometry":{"type":"Polygon","coordinates":[[[-58.022171523683305,-35.52402399801214],[-58.022146326138824,-35.5244128725617],[-58.0221337272414,-35.524607309822706],[-58.02212112826056,-35.52480174707451],[-58.02210852919628,-35.524996184317146],[-58.02209593004856,-35.525190621550564],[-58.02208333302848,-35.52538496869817],[-58.022072498927436,-35.52555240099608],[-58.02210376989882,-35.52558075887579],[-58.02251100477509,-35.52559708075129],[-58.02311645946156,-35.525621427430934],[-58.02321756213594,-35.52406593335825],[-58.02261178629897,-35.5240416722126],[-58.022171523683305,-35.52402399801214]]]}},{"type":"Feature","properties":{"CCA":"027050F00000000001000","ARA1":12690.04,"SAG":"ARBA","PARTIDO":"027","CIRC":5,"SECC":"F","CHACRA":null,"CHACRA_L":null,"QUINTA":1,"QUINTA_L":null,"NOMENCLA":"Circ. V - Secc. F - Qta. 1"},"geometry":{"type":"Polygon","coordinates":[[[-58.056340211384814,-35.54694272328031],[-58.05597547806846,-35.54721168697149],[-58.05575039562435,-35.5473776498333],[-58.05552531225568,-35.54754361224095],[-58.05669074870921,-35.54859113919944],[-58.056793019597336,-35.548314698534696],[-58.05689517952197,-35.54803825597218],[-58.056939085134054,-35.547923168217174],[-58.05711956052599,-35.54767745484824],[-58.056340211384814,-35.54694272328031]]]}},{"type":"Feature","properties":{"CCA":"027050F00000000002000","ARA1":26012.82,"SAG":"ARBA","PARTIDO":"027","CIRC":5,"SECC":"F","CHACRA":null,"CHACRA_L":null,"QUINTA":2,"QUINTA_L":null,"NOMENCLA":"Circ. V - Secc. F - Qta. 2"},"geometry":{"type":"Polygon","coordinates":[[[-58.05507751297378,-35.54848032361461],[-58.05470670062954,-35.54814704881334],[-58.05389627095694,-35.54874448397786],[-58.05426404988553,-35.54908005521342],[-58.05463183404481,-35.549415535328],[-58.05499961908114,-35.54975110447762],[-58.05536751957016,-35.55008658428437],[-58.05612144706101,-35.550774413771116],[-58.056324092589605,-35.54960170447441],[-58.056189966191084,-35.54948023172917],[-58.055819144666636,-35.54914696011161],[-58.05544832620218,-35.54881368743276],[-58.05507751297378,-35.54848032361461]]]}},{"type":"Feature","properties":{"CCA":"027110B00000000005000","ARA1":49406.53,"SAG":"ARBA","PARTIDO":"027","CIRC":11,"SECC":"B","CHACRA":null,"CHACRA_L":null,"QUINTA":5,"QUINTA_L":null,"NOMENCLA":"Circ. XI - Secc. B - Qta. 5"},"geometry":{"type":"Polygon","coordinates":[[[-58.043209498101476,-35.61498829340171],[-58.04497895635883,-35.616963359595395],[-58.04552322811051,-35.61775274420007],[-58.04775042892624,-35.61602987669432],[-58.04623685077644,-35.615682461885434],[-58.043209498101476,-35.61498829340171]]]}},{"type":"Feature","properties":{"CCA":"027110B00000000006000","ARA1":50463.93,"SAG":"ARBA","PARTIDO":"027","CIRC":11,"SECC":"B","CHACRA":null,"CHACRA_L":null,"QUINTA":6,"QUINTA_L":null,"NOMENCLA":"Circ. XI - Secc. B - Qta. 6"},"geometry":{"type":"Polygon","coordinates":[[[-58.04190641218103,-35.61522447593455],[-58.04180200485789,-35.61534262756991],[-58.0387680807672,-35.61692609285659],[-58.03850306327523,-35.617036579778315],[-58.03936432235741,-35.61810653560279],[-58.04279748502039,-35.61623145365597],[-58.04190641218103,-35.61522447593455]]]}},{"type":"Feature","properties":{"CCA":"027110B00000000035000","ARA1":57708.99,"SAG":"ARBA","PARTIDO":"027","CIRC":11,"SECC":"B","CHACRA":null,"CHACRA_L":null,"QUINTA":35,"QUINTA_L":null,"NOMENCLA":"Circ. XI - Secc. B - Qta. 35"},"geometry":{"type":"Polygon","coordinates":[[[-58.052980846052904,-35.6173233983761],[-58.05054185799217,-35.61917224668103],[-58.05151826534641,-35.620443670385406],[-58.054594228086025,-35.618099923995516],[-58.05398575164534,-35.61756077467967],[-58.052980846052904,-35.6173233983761]]]}},{"type":"Feature","properties":{"CCA":"027110B00000000036000","ARA1":58206.68,"SAG":"ARBA","PARTIDO":"027","CIRC":11,"SECC":"B","CHACRA":null,"CHACRA_L":null,"QUINTA":36,"QUINTA_L":null,"NOMENCLA":"Circ. XI - Secc. B - Qta. 36"},"geometry":{"type":"Polygon","coordinates":[[[-58.05043678624462,-35.6192771486147],[-58.04765688480995,-35.62136173724391],[-58.04776314303472,-35.62179383510272],[-58.04848232905271,-35.62274058418038],[-58.05139872060788,-35.620544644382704],[-58.05043678624462,-35.6192771486147]]]}},{"type":"Feature","properties":{"CCA":"027110B00000000051000","ARA1":59094.73,"SAG":"ARBA","PARTIDO":"027","CIRC":11,"SECC":"B","CHACRA":null,"CHACRA_L":null,"QUINTA":51,"QUINTA_L":null,"NOMENCLA":"Circ. XI - Secc. B - Qta. 51"},"geometry":{"type":"Polygon","coordinates":[[[-58.04854188827864,-35.62453568088414],[-58.04602625353124,-35.62598768707454],[-58.047512209651465,-35.62771914028207],[-58.04971700033704,-35.62598839987382],[-58.04854188827864,-35.62453568088414]]]}},{"type":"Feature","properties":{"CCA":"027110B00000000037000","ARA1":57544.36,"SAG":"ARBA","PARTIDO":"027","CIRC":11,"SECC":"B","CHACRA":null,"CHACRA_L":null,"QUINTA":37,"QUINTA_L":null,"NOMENCLA":"Circ. XI - Secc. B - Qta. 37"},"geometry":{"type":"Polygon","coordinates":[[[-58.04634760691796,-35.62134059590878],[-58.044733129414674,-35.622263996407064],[-58.047223418511265,-35.6251307657396],[-58.048474632010766,-35.62441483210254],[-58.046696162389836,-35.622246739517344],[-58.04634760691796,-35.62134059590878]]]}},{"type":"Feature","properties":{"CCA":"027110B00000000038000","ARA1":49124.99,"SAG":"ARBA","PARTIDO":"027","CIRC":11,"SECC":"B","CHACRA":null,"CHACRA_L":null,"QUINTA":38,"QUINTA_L":null,"NOMENCLA":"Circ. XI - Secc. B - Qta. 38"},"geometry":{"type":"Polygon","coordinates":[[[-58.04457967781708,-35.62237459559725],[-58.043433808234425,-35.62302029098891],[-58.0458971589643,-35.6258727721924],[-58.04705427043543,-35.62521957671085],[-58.04457967781708,-35.62237459559725]]]}},{"type":"Feature","properties":{"CCA":"027110B00000000049000","ARA1":67908.29,"SAG":"ARBA","PARTIDO":"027","CIRC":11,"SECC":"B","CHACRA":null,"CHACRA_L":null,"QUINTA":49,"QUINTA_L":null,"NOMENCLA":"Circ. XI - Secc. B - Qta. 49"},"geometry":{"type":"Polygon","coordinates":[[[-58.055948467117595,-35.619275047598386],[-58.052654493116364,-35.62184319695537],[-58.0538802851151,-35.622900472575985],[-58.057211781048395,-35.6203828175976],[-58.055948467117595,-35.619275047598386]]]}},{"type":"Feature","properties":{"CCA":"027110B00000000017000","ARA1":50098.45,"SAG":"ARBA","PARTIDO":"027","CIRC":11,"SECC":"B","CHACRA":null,"CHACRA_L":null,"QUINTA":17,"QUINTA_L":null,"NOMENCLA":"Circ. XI - Secc. B - Qta. 17"},"geometry":{"type":"Polygon","coordinates":[[[-58.04388107771778,-35.617454486764906],[-58.040363810183486,-35.61934688362863],[-58.04116145032499,-35.62036208507303],[-58.04454042075258,-35.61854401551942],[-58.04388107771778,-35.617454486764906]]]}},{"type":"Feature","properties":{"CCA":"027110B00000000030000","ARA1":50260.2,"SAG":"ARBA","PARTIDO":"027","CIRC":11,"SECC":"B","CHACRA":null,"CHACRA_L":null,"QUINTA":30,"QUINTA_L":null,"NOMENCLA":"Circ. XI - Secc. B - Qta. 30"},"geometry":{"type":"Polygon","coordinates":[[[-58.04553485332561,-35.620018260827145],[-58.042360339411964,-35.62178678513765],[-58.04327943753933,-35.62289676254533],[-58.046260030625085,-35.62121599204148],[-58.04619421974314,-35.62103145623006],[-58.04553485332561,-35.620018260827145]]]}},{"type":"Feature","properties":{"CCA":"027110B00000000025000","ARA1":49853.73,"SAG":"ARBA","PARTIDO":"027","CIRC":11,"SECC":"B","CHACRA":null,"CHACRA_L":null,"QUINTA":25,"QUINTA_L":null,"NOMENCLA":"Circ. XI - Secc. B - Qta. 25"},"geometry":{"type":"Polygon","coordinates":[[[-58.044674642627335,-35.61871975055479],[-58.0413511757037,-35.62056512924393],[-58.04221267426907,-35.62161019828132],[-58.045394633057114,-35.61984396127849],[-58.044674642627335,-35.61871975055479]]]}},{"type":"Feature","properties":{"CCA":"027050A00000000005000","ARA1":38413.03,"SAG":"ARBA","PARTIDO":"027","CIRC":5,"SECC":"A","CHACRA":null,"CHACRA_L":null,"QUINTA":5,"QUINTA_L":null,"NOMENCLA":"Circ. V - Secc. A - Qta. 5"},"geometry":{"type":"Polygon","coordinates":[[[-58.026789431853885,-35.504912228139],[-58.026436419898644,-35.50578703857771],[-58.02628120374481,-35.50617171505105],[-58.02615191708609,-35.50649202425494],[-58.025996347740005,-35.506877505516705],[-58.02587280509286,-35.50718367048339],[-58.02574093484399,-35.507510334893155],[-58.02560917363218,-35.507837000911096],[-58.02624845918538,-35.508018140006605],[-58.02609906327679,-35.50838092367093],[-58.02595366295658,-35.50873349960854],[-58.02580895757628,-35.50908464489755],[-58.02572096544851,-35.50929803425136],[-58.025851534269684,-35.509420743220254],[-58.02618582592284,-35.50973476279008],[-58.02682672811919,-35.51033684426681],[-58.02687905796237,-35.51027912691096],[-58.026922222805155,-35.51015007014519],[-58.02691146720015,-35.50972492027337],[-58.02690320673592,-35.50939596200234],[-58.026894904390495,-35.509068715181876],[-58.02688585548134,-35.50871343091848],[-58.02687734394795,-35.5083767187547],[-58.02686835230545,-35.50802359811104],[-58.02685923518264,-35.50766209486551],[-58.0268505011847,-35.507320963462796],[-58.02684216805408,-35.50699047196549],[-58.026831544587836,-35.50657343425791],[-58.02682288329124,-35.5062338359174],[-58.02681256817014,-35.50582671566889],[-58.026789431853885,-35.504912228139]]]}}]}