{"type": "FeatureCollection", "name": "027RUTA", "features": [{"type": "Feature", "geometry": {"type": "LineString", "coordinates": [[-58.007426, -35.956172], [-58.009495, -35.958248]]}, "properties": {"ID": 176, "LENGTH": 0.296593, "DIR": 0}}, {"type": "Feature", "geometry": {"type": "LineString", "coordinates": [[-57.992325, -35.939712], [-58.000523, -35.949565]]}, "properties": {"ID": 177, "LENGTH": 1.32098, "DIR": 0}}, {"type": "Feature", "geometry": {"type": "LineString", "coordinates": [[-57.99018, -35.936238], [-57.992325, -35.939712]]}, "properties": {"ID": 178, "LENGTH": 0.431872, "DIR": 0}}, {"type": "Feature", "geometry": {"type": "LineString", "coordinates": [[-57.989946, -35.934308], [-57.99018, -35.936238]]}, "properties": {"ID": 179, "LENGTH": 0.215638, "DIR": 0}}, {"type": "Feature", "geometry": {"type": "LineString", "coordinates": [[-57.991015, -35.931381], [-57.989946, -35.934308]]}, "properties": {"ID": 180, "LENGTH": 0.3394, "DIR": 0}}, {"type": "Feature", "geometry": {"type": "LineString", "coordinates": [[-57.99356, -35.921382], [-57.993567, -35.922544]]}, "properties": {"ID": 181, "LENGTH": 0.12921, "DIR": 0}}, {"type": "Feature", "geometry": {"type": "LineString", "coordinates": [[-57.993566, -35.920418], [-57.99356, -35.921382]]}, "properties": {"ID": 182, "LENGTH": 0.107193, "DIR": 0}}, {"type": "Feature", "geometry": {"type": "LineString", "coordinates": [[-57.992143, -35.918677], [-57.993566, -35.920418]]}, "properties": {"ID": 183, "LENGTH": 0.232158, "DIR": 0}}, {"type": "Feature", "geometry": {"type": "LineString", "coordinates": [[-57.989746, -35.916942], [-57.992143, -35.918677]]}, "properties": {"ID": 184, "LENGTH": 0.289504, "DIR": 0}}, {"type": "Feature", "geometry": {"type": "LineString", "coordinates": [[-57.984501, -35.912114], [-57.989746, -35.916942]]}, "properties": {"ID": 185, "LENGTH": 0.715063, "DIR": 0}}, {"type": "Feature", "geometry": {"type": "LineString", "coordinates": [[-57.98069, -35.907866], [-57.984501, -35.912114]]}, "properties": {"ID": 186, "LENGTH": 0.583885, "DIR": 0}}, {"type": "Feature", "geometry": {"type": "LineString", "coordinates": [[-57.978789, -35.90594], [-57.98069, -35.907866]]}, "properties": {"ID": 187, "LENGTH": 0.274188, "DIR": 0}}, {"type": "Feature", "geometry": {"type": "LineString", "coordinates": [[-57.975437, -35.903044], [-57.978789, -35.90594]]}, "properties": {"ID": 188, "LENGTH": 0.441412, "DIR": 0}}, {"type": "Feature", "geometry": {"type": "LineString", "coordinates": [[-57.968282, -35.895907], [-57.975437, -35.903044]]}, "properties": {"ID": 189, "LENGTH": 1.022322, "DIR": 0}}, {"type": "Feature", "geometry": {"type": "LineString", "coordinates": [[-57.960411, -35.890106], [-57.968282, -35.895907]]}, "properties": {"ID": 190, "LENGTH": 0.958537, "DIR": 0}}, {"type": "Feature", "geometry": {"type": "LineString", "coordinates": [[-57.956833, -35.888567], [-57.960411, -35.890106]]}, "properties": {"ID": 191, "LENGTH": 0.364934, "DIR": 0}}, {"type": "Feature", "geometry": {"type": "LineString", "coordinates": [[-57.933948, -35.761187], [-57.932269, -35.762729]]}, "properties": {"ID": 28, "LENGTH": 0.228802, "DIR": 0}}, {"type": "Feature", "geometry": {"type": "LineString", "coordinates": [[-57.934677, -35.760412], [-57.933948, -35.761187]]}, "properties": {"ID": 29, "LENGTH": 0.108412, "DIR": 0}}, {"type": "Feature", "geometry": {"type": "LineString", "coordinates": [[-57.935879, -35.757907], [-57.934677, -35.760412]]}, "properties": {"ID": 30, "LENGTH": 0.298914, "DIR": 0}}, {"type": "Feature", "geometry": {"type": "LineString", "coordinates": [[-57.936351, -35.756553], [-57.935879, -35.757907]]}, "properties": {"ID": 31, "LENGTH": 0.156466, "DIR": 0}}, {"type": "Feature", "geometry": {"type": "LineString", "coordinates": [[-57.936354, -35.755009], [-57.936351, -35.756553]]}, "properties": {"ID": 32, "LENGTH": 0.171685, "DIR": 0}}, {"type": "Feature", "geometry": {"type": "LineString", "coordinates": [[-57.935409, -35.750185], [-57.936354, -35.755009]]}, "properties": {"ID": 33, "LENGTH": 0.54314, "DIR": 0}}, {"type": "Feature", "geometry": {"type": "LineString", "coordinates": [[-57.934468, -35.745943], [-57.935409, -35.750185]]}, "properties": {"ID": 34, "LENGTH": 0.479272, "DIR": 0}}, {"type": "Feature", "geometry": {"type": "LineString", "coordinates": [[-57.933994, -35.743046], [-57.934468, -35.745943]]}, "properties": {"ID": 35, "LENGTH": 0.32496, "DIR": 0}}, {"type": "Feature", "geometry": {"type": "LineString", "coordinates": [[-57.93448, -35.741112], [-57.933994, -35.743046]]}, "properties": {"ID": 36, "LENGTH": 0.219479, "DIR": 0}}, {"type": "Feature", "geometry": {"type": "LineString", "coordinates": [[-57.937616, -35.731268], [-57.93448, -35.741112]]}, "properties": {"ID": 37, "LENGTH": 1.130607, "DIR": 0}}, {"type": "Feature", "geometry": {"type": "LineString", "coordinates": [[-57.95157, -35.695183], [-57.947974, -35.699425]]}, "properties": {"ID": 41, "LENGTH": 0.572659, "DIR": 0}}, {"type": "Feature", "geometry": {"type": "LineString", "coordinates": [[-57.954458, -35.689394], [-57.954209, -35.691325]]}, "properties": {"ID": 43, "LENGTH": 0.215892, "DIR": 0}}, {"type": "Feature", "geometry": {"type": "LineString", "coordinates": [[-57.954699, -35.687457], [-57.954458, -35.689394]]}, "properties": {"ID": 44, "LENGTH": 0.216481, "DIR": 0}}, {"type": "Feature", "geometry": {"type": "LineString", "coordinates": [[-57.954209, -35.691325], [-57.95157, -35.695183]]}, "properties": {"ID": 42, "LENGTH": 0.490743, "DIR": 0}}, {"type": "Feature", "geometry": {"type": "LineString", "coordinates": [[-57.94341, -35.711006], [-57.937616, -35.731268]]}, "properties": {"ID": 38, "LENGTH": 2.31295, "DIR": 0}}, {"type": "Feature", "geometry": {"type": "LineString", "coordinates": [[-57.945819, -35.702518], [-57.94341, -35.711006]]}, "properties": {"ID": 39, "LENGTH": 0.968562, "DIR": 0}}, {"type": "Feature", "geometry": {"type": "LineString", "coordinates": [[-57.947974, -35.699425], [-57.945819, -35.702518]]}, "properties": {"ID": 40, "LENGTH": 0.39516, "DIR": 0}}, {"type": "Feature", "geometry": {"type": "LineString", "coordinates": [[-57.955445, -35.678776], [-57.954699, -35.687457]]}, "properties": {"ID": 45, "LENGTH": 0.967632, "DIR": 0}}, {"type": "Feature", "geometry": {"type": "LineString", "coordinates": [[-57.956905, -35.668163], [-57.955445, -35.678776]]}, "properties": {"ID": 46, "LENGTH": 1.187458, "DIR": 0}}, {"type": "Feature", "geometry": {"type": "LineString", "coordinates": [[-57.870657, -35.926967], [-57.863676, -35.941247]]}, "properties": {"ID": 8, "LENGTH": 1.707733, "DIR": 0}}, {"type": "Feature", "geometry": {"type": "LineString", "coordinates": [[-57.86128, -35.946653], [-57.859836, -35.949736]]}, "properties": {"ID": 6, "LENGTH": 0.36663, "DIR": 0}}, {"type": "Feature", "geometry": {"type": "LineString", "coordinates": [[-57.854562, -35.954753], [-57.853365, -35.956684]]}, "properties": {"ID": 2, "LENGTH": 0.240232, "DIR": 0}}, {"type": "Feature", "geometry": {"type": "LineString", "coordinates": [[-57.853365, -35.956684], [-57.851673, -35.964212]]}, "properties": {"ID": 1, "LENGTH": 0.850815, "DIR": 0}}, {"type": "Feature", "geometry": {"type": "LineString", "coordinates": [[-57.85888, -35.951479], [-57.856718, -35.95341]]}, "properties": {"ID": 4, "LENGTH": 0.289786, "DIR": 0}}, {"type": "Feature", "geometry": {"type": "LineString", "coordinates": [[-57.856718, -35.95341], [-57.854562, -35.954753]]}, "properties": {"ID": 3, "LENGTH": 0.24487, "DIR": 0}}, {"type": "Feature", "geometry": {"type": "LineString", "coordinates": [[-57.859836, -35.949736], [-57.85888, -35.951479]]}, "properties": {"ID": 5, "LENGTH": 0.212058, "DIR": 0}}, {"type": "Feature", "geometry": {"type": "LineString", "coordinates": [[-57.863676, -35.941247], [-57.86128, -35.946653]]}, "properties": {"ID": 7, "LENGTH": 0.638646, "DIR": 0}}, {"type": "Feature", "geometry": {"type": "LineString", "coordinates": [[-57.927904, -35.882967], [-57.956833, -35.888567]]}, "properties": {"ID": 192, "LENGTH": 2.679533, "DIR": 0}}, {"type": "Feature", "geometry": {"type": "LineString", "coordinates": [[-57.916427, -35.884318], [-57.927904, -35.882967]]}, "properties": {"ID": 193, "LENGTH": 1.044832, "DIR": 0}}, {"type": "Feature", "geometry": {"type": "LineString", "coordinates": [[-57.905432, -35.88567], [-57.916427, -35.884318]]}, "properties": {"ID": 194, "LENGTH": 1.001878, "DIR": 0}}, {"type": "Feature", "geometry": {"type": "LineString", "coordinates": [[-57.902085, -35.88509], [-57.905432, -35.88567]]}, "properties": {"ID": 195, "LENGTH": 0.308348, "DIR": 0}}, {"type": "Feature", "geometry": {"type": "LineString", "coordinates": [[-57.903581, -35.861154], [-57.898538, -35.870036]]}, "properties": {"ID": 17, "LENGTH": 1.087165, "DIR": 0}}, {"type": "Feature", "geometry": {"type": "LineString", "coordinates": [[-57.905744, -35.855943], [-57.903581, -35.861154]]}, "properties": {"ID": 18, "LENGTH": 0.611346, "DIR": 0}}, {"type": "Feature", "geometry": {"type": "LineString", "coordinates": [[-57.89921, -35.883157], [-57.902085, -35.88509]]}, "properties": {"ID": 196, "LENGTH": 0.336579, "DIR": 0}}, {"type": "Feature", "geometry": {"type": "LineString", "coordinates": [[-57.887242, -35.890297], [-57.885807, -35.892997]]}, "properties": {"ID": 12, "LENGTH": 0.326873, "DIR": 0}}, {"type": "Feature", "geometry": {"type": "LineString", "coordinates": [[-57.885807, -35.892997], [-57.883156, -35.899171]]}, "properties": {"ID": 11, "LENGTH": 0.726862, "DIR": 0}}, {"type": "Feature", "geometry": {"type": "LineString", "coordinates": [[-57.890369, -35.885475], [-57.887242, -35.890297]]}, "properties": {"ID": 13, "LENGTH": 0.605678, "DIR": 0}}, {"type": "Feature", "geometry": {"type": "LineString", "coordinates": [[-57.879552, -35.90767], [-57.870657, -35.926967]]}, "properties": {"ID": 9, "LENGTH": 2.290367, "DIR": 0}}, {"type": "Feature", "geometry": {"type": "LineString", "coordinates": [[-57.883156, -35.899171], [-57.879552, -35.90767]]}, "properties": {"ID": 10, "LENGTH": 0.99924, "DIR": 0}}, {"type": "Feature", "geometry": {"type": "LineString", "coordinates": [[-57.893116, -35.878505], [-57.89921, -35.883157]]}, "properties": {"ID": 197, "LENGTH": 0.754332, "DIR": 0}}, {"type": "Feature", "geometry": {"type": "LineString", "coordinates": [[-57.895653, -35.87428], [-57.892523, -35.880646]]}, "properties": {"ID": 15, "LENGTH": 0.761973, "DIR": 0}}, {"type": "Feature", "geometry": {"type": "LineString", "coordinates": [[-57.898538, -35.870036], [-57.895653, -35.87428]]}, "properties": {"ID": 16, "LENGTH": 0.538771, "DIR": 0}}, {"type": "Feature", "geometry": {"type": "LineString", "coordinates": [[-57.892523, -35.880646], [-57.890369, -35.885475]]}, "properties": {"ID": 14, "LENGTH": 0.570951, "DIR": 0}}, {"type": "Feature", "geometry": {"type": "LineString", "coordinates": [[-57.909834, -35.844369], [-57.905744, -35.855943]]}, "properties": {"ID": 19, "LENGTH": 1.338723, "DIR": 0}}, {"type": "Feature", "geometry": {"type": "LineString", "coordinates": [[-57.913937, -35.827965], [-57.909834, -35.844369]]}, "properties": {"ID": 20, "LENGTH": 1.861163, "DIR": 0}}, {"type": "Feature", "geometry": {"type": "LineString", "coordinates": [[-57.917563, -35.813098], [-57.913937, -35.827965]]}, "properties": {"ID": 21, "LENGTH": 1.685152, "DIR": 0}}, {"type": "Feature", "geometry": {"type": "LineString", "coordinates": [[-57.919735, -35.805379], [-57.917563, -35.813098]]}, "properties": {"ID": 22, "LENGTH": 0.880377, "DIR": 0}}, {"type": "Feature", "geometry": {"type": "LineString", "coordinates": [[-57.920462, -35.800367], [-57.919735, -35.805379]]}, "properties": {"ID": 23, "LENGTH": 0.561152, "DIR": 0}}, {"type": "Feature", "geometry": {"type": "LineString", "coordinates": [[-57.921198, -35.795348], [-57.920462, -35.800367]]}, "properties": {"ID": 24, "LENGTH": 0.562021, "DIR": 0}}, {"type": "Feature", "geometry": {"type": "LineString", "coordinates": [[-57.925546, -35.779712], [-57.921198, -35.795348]]}, "properties": {"ID": 25, "LENGTH": 1.782328, "DIR": 0}}, {"type": "Feature", "geometry": {"type": "LineString", "coordinates": [[-57.932269, -35.762729], [-57.930593, -35.765241]]}, "properties": {"ID": 27, "LENGTH": 0.317629, "DIR": 0}}, {"type": "Feature", "geometry": {"type": "LineString", "coordinates": [[-57.930593, -35.765241], [-57.925546, -35.779712]]}, "properties": {"ID": 26, "LENGTH": 1.672283, "DIR": 0}}, {"type": "Feature", "geometry": {"type": "LineString", "coordinates": [[-57.629837, -35.653651], [-57.63895, -35.643425]]}, "properties": {"ID": 158, "LENGTH": 1.403918, "DIR": 0}}, {"type": "Feature", "geometry": {"type": "LineString", "coordinates": [[-57.614994, -35.660983], [-57.629837, -35.653651]]}, "properties": {"ID": 159, "LENGTH": 1.569412, "DIR": 0}}, {"type": "Feature", "geometry": {"type": "LineString", "coordinates": [[-57.613803, -35.661951], [-57.614994, -35.660983]]}, "properties": {"ID": 160, "LENGTH": 0.152194, "DIR": 0}}, {"type": "Feature", "geometry": {"type": "LineString", "coordinates": [[-57.59203, -35.667348], [-57.613803, -35.661951]]}, "properties": {"ID": 161, "LENGTH": 2.056474, "DIR": 0}}, {"type": "Feature", "geometry": {"type": "LineString", "coordinates": [[-57.56093, -35.674107], [-57.59203, -35.667348]]}, "properties": {"ID": 162, "LENGTH": 2.90814, "DIR": 0}}, {"type": "Feature", "geometry": {"type": "LineString", "coordinates": [[-57.516902, -35.685292], [-57.56093, -35.674107]]}, "properties": {"ID": 163, "LENGTH": 4.166669, "DIR": 0}}, {"type": "Feature", "geometry": {"type": "LineString", "coordinates": [[-57.469774, -35.696483], [-57.516902, -35.685292]]}, "properties": {"ID": 164, "LENGTH": 4.434306, "DIR": 0}}, {"type": "Feature", "geometry": {"type": "LineString", "coordinates": [[-57.448242, -35.702082], [-57.469774, -35.696483]]}, "properties": {"ID": 165, "LENGTH": 2.041591, "DIR": 0}}, {"type": "Feature", "geometry": {"type": "LineString", "coordinates": [[-57.418089, -35.709605], [-57.448242, -35.702082]]}, "properties": {"ID": 166, "LENGTH": 2.848215, "DIR": 0}}, {"type": "Feature", "geometry": {"type": "LineString", "coordinates": [[-57.378076, -35.745979], [-57.378786, -35.749262]]}, "properties": {"ID": 116, "LENGTH": 0.370633, "DIR": 0}}, {"type": "Feature", "geometry": {"type": "LineString", "coordinates": [[-57.389849, -35.722533], [-57.404222, -35.712885]]}, "properties": {"ID": 168, "LENGTH": 1.683642, "DIR": 0}}, {"type": "Feature", "geometry": {"type": "LineString", "coordinates": [[-57.377642, -35.725425], [-57.389849, -35.722533]]}, "properties": {"ID": 169, "LENGTH": 1.147918, "DIR": 0}}, {"type": "Feature", "geometry": {"type": "LineString", "coordinates": [[-57.375573, -35.741923], [-57.378076, -35.745979]]}, "properties": {"ID": 117, "LENGTH": 0.504416, "DIR": 0}}, {"type": "Feature", "geometry": {"type": "LineString", "coordinates": [[-57.371873, -35.736907], [-57.375573, -35.741923]]}, "properties": {"ID": 118, "LENGTH": 0.650082, "DIR": 0}}, {"type": "Feature", "geometry": {"type": "LineString", "coordinates": [[-57.365804, -35.727998], [-57.377642, -35.725425]]}, "properties": {"ID": 170, "LENGTH": 1.106245, "DIR": 0}}, {"type": "Feature", "geometry": {"type": "LineString", "coordinates": [[-57.365565, -35.72764], [-57.371873, -35.736907]]}, "properties": {"ID": 119, "LENGTH": 1.177287, "DIR": 0}}, {"type": "Feature", "geometry": {"type": "LineString", "coordinates": [[-57.404222, -35.712885], [-57.418089, -35.709605]]}, "properties": {"ID": 167, "LENGTH": 1.304048, "DIR": 0}}, {"type": "Feature", "geometry": {"type": "LineString", "coordinates": [[-57.358789, -35.712879], [-57.365565, -35.72764]]}, "properties": {"ID": 120, "LENGTH": 1.751633, "DIR": 0}}, {"type": "Feature", "geometry": {"type": "LineString", "coordinates": [[-57.354498, -35.707476], [-57.358789, -35.712879]]}, "properties": {"ID": 121, "LENGTH": 0.714872, "DIR": 0}}, {"type": "Feature", "geometry": {"type": "LineString", "coordinates": [[-58.219658, -35.530961], [-58.207209, -35.532162]]}, "properties": {"ID": 201, "LENGTH": 1.134397, "DIR": 0}}, {"type": "Feature", "geometry": {"type": "LineString", "coordinates": [[-58.199805, -35.532866], [-58.186539, -35.534142]]}, "properties": {"ID": 115, "LENGTH": 1.208766, "DIR": 0}}, {"type": "Feature", "geometry": {"type": "LineString", "coordinates": [[-58.186539, -35.534142], [-58.171042, -35.534468]]}, "properties": {"ID": 114, "LENGTH": 1.402743, "DIR": 0}}, {"type": "Feature", "geometry": {"type": "LineString", "coordinates": [[-58.171042, -35.534468], [-58.144793, -35.543114]]}, "properties": {"ID": 113, "LENGTH": 2.562257, "DIR": 0}}, {"type": "Feature", "geometry": {"type": "LineString", "coordinates": [[-58.144793, -35.543114], [-58.132112, -35.546492]]}, "properties": {"ID": 112, "LENGTH": 1.207235, "DIR": 0}}, {"type": "Feature", "geometry": {"type": "LineString", "coordinates": [[-58.132112, -35.546492], [-58.125408, -35.547362]]}, "properties": {"ID": 111, "LENGTH": 0.614195, "DIR": 0}}, {"type": "Feature", "geometry": {"type": "LineString", "coordinates": [[-58.125408, -35.547362], [-58.119316, -35.547077]]}, "properties": {"ID": 110, "LENGTH": 0.552067, "DIR": 0}}, {"type": "Feature", "geometry": {"type": "LineString", "coordinates": [[-58.119316, -35.547077], [-58.11142, -35.550056]]}, "properties": {"ID": 109, "LENGTH": 0.787421, "DIR": 0}}, {"type": "Feature", "geometry": {"type": "LineString", "coordinates": [[-58.11142, -35.550056], [-58.104847, -35.548226]]}, "properties": {"ID": 108, "LENGTH": 0.628512, "DIR": 0}}, {"type": "Feature", "geometry": {"type": "LineString", "coordinates": [[-58.104847, -35.548226], [-58.099587, -35.547648]]}, "properties": {"ID": 107, "LENGTH": 0.4802, "DIR": 0}}, {"type": "Feature", "geometry": {"type": "LineString", "coordinates": [[-58.099587, -35.547648], [-58.092784, -35.546102]]}, "properties": {"ID": 106, "LENGTH": 0.639042, "DIR": 0}}, {"type": "Feature", "geometry": {"type": "LineString", "coordinates": [[-58.092784, -35.546102], [-58.089903, -35.54639]]}, "properties": {"ID": 105, "LENGTH": 0.262614, "DIR": 0}}, {"type": "Feature", "geometry": {"type": "LineString", "coordinates": [[-58.089903, -35.54639], [-58.082502, -35.545044]]}, "properties": {"ID": 104, "LENGTH": 0.686121, "DIR": 0}}, {"type": "Feature", "geometry": {"type": "LineString", "coordinates": [[-58.082502, -35.545044], [-58.076291, -35.543496]]}, "properties": {"ID": 103, "LENGTH": 0.587715, "DIR": 0}}, {"type": "Feature", "geometry": {"type": "LineString", "coordinates": [[-58.076291, -35.543496], [-58.072577, -35.541951]]}, "properties": {"ID": 102, "LENGTH": 0.377402, "DIR": 0}}, {"type": "Feature", "geometry": {"type": "LineString", "coordinates": [[-58.072577, -35.541951], [-58.065059, -35.538953]]}, "properties": {"ID": 101, "LENGTH": 0.757522, "DIR": 0}}, {"type": "Feature", "geometry": {"type": "LineString", "coordinates": [[-58.065059, -35.538953], [-58.060162, -35.535001]]}, "properties": {"ID": 100, "LENGTH": 0.624056, "DIR": 0}}, {"type": "Feature", "geometry": {"type": "LineString", "coordinates": [[-58.060162, -35.535001], [-58.054187, -35.536743]]}, "properties": {"ID": 99, "LENGTH": 0.5743, "DIR": 0}}, {"type": "Feature", "geometry": {"type": "LineString", "coordinates": [[-58.054187, -35.536743], [-58.047362, -35.537895]]}, "properties": {"ID": 98, "LENGTH": 0.630695, "DIR": 0}}, {"type": "Feature", "geometry": {"type": "LineString", "coordinates": [[-58.047362, -35.537895], [-58.042582, -35.537604]]}, "properties": {"ID": 97, "LENGTH": 0.433717, "DIR": 0}}, {"type": "Feature", "geometry": {"type": "LineString", "coordinates": [[-58.042582, -35.537604], [-58.03613, -35.535868]]}, "properties": {"ID": 96, "LENGTH": 0.614889, "DIR": 0}}, {"type": "Feature", "geometry": {"type": "LineString", "coordinates": [[-58.03613, -35.535868], [-58.03219, -35.535291]]}, "properties": {"ID": 95, "LENGTH": 0.36224, "DIR": 0}}, {"type": "Feature", "geometry": {"type": "LineString", "coordinates": [[-58.03219, -35.535291], [-58.025967, -35.536059]]}, "properties": {"ID": 94, "LENGTH": 0.569529, "DIR": 0}}, {"type": "Feature", "geometry": {"type": "LineString", "coordinates": [[-58.017722, -35.537308], [-58.011746, -35.538182]]}, "properties": {"ID": 92, "LENGTH": 0.54939, "DIR": 0}}, {"type": "Feature", "geometry": {"type": "LineString", "coordinates": [[-58.025967, -35.536059], [-58.017722, -35.537308]]}, "properties": {"ID": 93, "LENGTH": 0.758859, "DIR": 0}}, {"type": "Feature", "geometry": {"type": "LineString", "coordinates": [[-58.02278, -35.522065], [-58.004329, -35.535189]]}, "properties": {"ID": 60, "LENGTH": 2.217541, "DIR": 0}}, {"type": "Feature", "geometry": {"type": "LineString", "coordinates": [[-58.019689, -35.525084], [-58.016905, -35.553326]]}, "properties": {"ID": 172, "LENGTH": 3.150453, "DIR": 0}}, {"type": "Feature", "geometry": {"type": "LineString", "coordinates": [[-58.011746, -35.538182], [-57.99693, -35.531807]]}, "properties": {"ID": 91, "LENGTH": 1.516513, "DIR": 0}}, {"type": "Feature", "geometry": {"type": "LineString", "coordinates": [[-58.004329, -35.535189], [-57.984938, -35.549086]]}, "properties": {"ID": 59, "LENGTH": 2.337948, "DIR": 0}}, {"type": "Feature", "geometry": {"type": "LineString", "coordinates": [[-57.969244, -35.605824], [-57.964684, -35.614316]]}, "properties": {"ID": 52, "LENGTH": 1.030327, "DIR": 0}}, {"type": "Feature", "geometry": {"type": "LineString", "coordinates": [[-57.975993, -35.586333], [-57.973354, -35.590192]]}, "properties": {"ID": 56, "LENGTH": 0.490993, "DIR": 0}}, {"type": "Feature", "geometry": {"type": "LineString", "coordinates": [[-57.971894, -35.600039], [-57.969244, -35.605824]]}, "properties": {"ID": 53, "LENGTH": 0.686431, "DIR": 0}}, {"type": "Feature", "geometry": {"type": "LineString", "coordinates": [[-57.971667, -35.596756], [-57.971894, -35.600039]]}, "properties": {"ID": 54, "LENGTH": 0.365629, "DIR": 0}}, {"type": "Feature", "geometry": {"type": "LineString", "coordinates": [[-57.973354, -35.590192], [-57.971667, -35.596756]]}, "properties": {"ID": 55, "LENGTH": 0.745652, "DIR": 0}}, {"type": "Feature", "geometry": {"type": "LineString", "coordinates": [[-57.962945, -35.639985], [-57.956905, -35.668163]]}, "properties": {"ID": 47, "LENGTH": 3.180419, "DIR": 0}}, {"type": "Feature", "geometry": {"type": "LineString", "coordinates": [[-57.961783, -35.625701], [-57.962945, -35.639985]]}, "properties": {"ID": 48, "LENGTH": 1.591776, "DIR": 0}}, {"type": "Feature", "geometry": {"type": "LineString", "coordinates": [[-57.961554, -35.623197], [-57.961783, -35.625701]]}, "properties": {"ID": 49, "LENGTH": 0.2792, "DIR": 0}}, {"type": "Feature", "geometry": {"type": "LineString", "coordinates": [[-57.962039, -35.619527], [-57.961554, -35.623197]]}, "properties": {"ID": 50, "LENGTH": 0.410433, "DIR": 0}}, {"type": "Feature", "geometry": {"type": "LineString", "coordinates": [[-57.964684, -35.614316], [-57.962039, -35.619527]]}, "properties": {"ID": 51, "LENGTH": 0.626826, "DIR": 0}}, {"type": "Feature", "geometry": {"type": "LineString", "coordinates": [[-57.998009, -35.577454], [-57.94256, -35.570312]]}, "properties": {"ID": 171, "LENGTH": 5.077418, "DIR": 0}}, {"type": "Feature", "geometry": {"type": "LineString", "coordinates": [[-57.979372, -35.574757], [-57.975993, -35.586333]]}, "properties": {"ID": 57, "LENGTH": 1.322967, "DIR": 0}}, {"type": "Feature", "geometry": {"type": "LineString", "coordinates": [[-57.984938, -35.549086], [-57.979372, -35.574757]]}, "properties": {"ID": 58, "LENGTH": 2.898546, "DIR": 0}}, {"type": "Feature", "geometry": {"type": "LineString", "coordinates": [[-57.99693, -35.531807], [-57.972983, -35.532158]]}, "properties": {"ID": 90, "LENGTH": 2.167302, "DIR": 0}}, {"type": "Feature", "geometry": {"type": "LineString", "coordinates": [[-57.952377, -35.561817], [-57.947354, -35.56375]]}, "properties": {"ID": 174, "LENGTH": 0.50263, "DIR": 0}}, {"type": "Feature", "geometry": {"type": "LineString", "coordinates": [[-57.955967, -35.56143], [-57.952377, -35.561817]]}, "properties": {"ID": 175, "LENGTH": 0.327576, "DIR": 0}}, {"type": "Feature", "geometry": {"type": "LineString", "coordinates": [[-57.935361, -35.580537], [-57.938954, -35.575325]]}, "properties": {"ID": 124, "LENGTH": 0.664427, "DIR": 0}}, {"type": "Feature", "geometry": {"type": "LineString", "coordinates": [[-57.938954, -35.575325], [-57.94041, -35.570692]]}, "properties": {"ID": 123, "LENGTH": 0.53173, "DIR": 0}}, {"type": "Feature", "geometry": {"type": "LineString", "coordinates": [[-57.94041, -35.570692], [-57.944482, -35.567414]]}, "properties": {"ID": 122, "LENGTH": 0.518174, "DIR": 0}}, {"type": "Feature", "geometry": {"type": "LineString", "coordinates": [[-57.944482, -35.567414], [-57.947354, -35.56375]]}, "properties": {"ID": 173, "LENGTH": 0.483191, "DIR": 0}}, {"type": "Feature", "geometry": {"type": "LineString", "coordinates": [[-57.960972, -35.532394], [-57.952461, -35.532579]]}, "properties": {"ID": 89, "LENGTH": 0.770425, "DIR": 0}}, {"type": "Feature", "geometry": {"type": "LineString", "coordinates": [[-57.952461, -35.532579], [-57.948875, -35.530644]]}, "properties": {"ID": 88, "LENGTH": 0.389349, "DIR": 0}}, {"type": "Feature", "geometry": {"type": "LineString", "coordinates": [[-57.948875, -35.530644], [-57.936113, -35.519162]]}, "properties": {"ID": 87, "LENGTH": 1.721605, "DIR": 0}}, {"type": "Feature", "geometry": {"type": "LineString", "coordinates": [[-58.037239, -35.477487], [-58.029002, -35.498199]]}, "properties": {"ID": 200, "LENGTH": 2.420806, "DIR": 0}}, {"type": "Feature", "geometry": {"type": "LineString", "coordinates": [[-58.037279, -35.461074], [-58.037239, -35.477487]]}, "properties": {"ID": 64, "LENGTH": 1.825045, "DIR": 0}}, {"type": "Feature", "geometry": {"type": "LineString", "coordinates": [[-58.03824, -35.457992], [-58.037279, -35.461074]]}, "properties": {"ID": 65, "LENGTH": 0.353583, "DIR": 0}}, {"type": "Feature", "geometry": {"type": "LineString", "coordinates": [[-58.027337, -35.517632], [-58.02278, -35.522065]]}, "properties": {"ID": 61, "LENGTH": 0.642705, "DIR": 0}}, {"type": "Feature", "geometry": {"type": "LineString", "coordinates": [[-58.027268, -35.502581], [-58.026648, -35.50412]]}, "properties": {"ID": 63, "LENGTH": 0.180097, "DIR": 0}}, {"type": "Feature", "geometry": {"type": "LineString", "coordinates": [[-58.026648, -35.50412], [-58.027337, -35.517632]]}, "properties": {"ID": 62, "LENGTH": 1.503759, "DIR": 0}}, {"type": "Feature", "geometry": {"type": "LineString", "coordinates": [[-58.049078, -35.428083], [-58.03824, -35.457992]]}, "properties": {"ID": 66, "LENGTH": 3.467624, "DIR": 0}}, {"type": "Feature", "geometry": {"type": "LineString", "coordinates": [[-58.05077, -35.423446], [-58.049078, -35.428083]]}, "properties": {"ID": 67, "LENGTH": 0.537921, "DIR": 0}}, {"type": "Feature", "geometry": {"type": "LineString", "coordinates": [[-58.051267, -35.412055], [-58.05077, -35.423446]]}, "properties": {"ID": 68, "LENGTH": 1.267421, "DIR": 0}}, {"type": "Feature", "geometry": {"type": "LineString", "coordinates": [[-57.936113, -35.519162], [-57.927875, -35.512409]]}, "properties": {"ID": 86, "LENGTH": 1.058193, "DIR": 0}}, {"type": "Feature", "geometry": {"type": "LineString", "coordinates": [[-58.049716, -35.364003], [-58.046313, -35.384462]]}, "properties": {"ID": 70, "LENGTH": 2.295764, "DIR": 0}}, {"type": "Feature", "geometry": {"type": "LineString", "coordinates": [[-58.046313, -35.384462], [-58.051267, -35.412055]]}, "properties": {"ID": 69, "LENGTH": 3.100884, "DIR": 0}}, {"type": "Feature", "geometry": {"type": "LineString", "coordinates": [[-58.048592, -35.337366], [-58.049716, -35.364003]]}, "properties": {"ID": 71, "LENGTH": 2.963652, "DIR": 0}}, {"type": "Feature", "geometry": {"type": "LineString", "coordinates": [[-57.925762, -35.592697], [-57.926964, -35.590568]]}, "properties": {"ID": 127, "LENGTH": 0.260492, "DIR": 0}}, {"type": "Feature", "geometry": {"type": "LineString", "coordinates": [[-57.926964, -35.590568], [-57.931048, -35.585364]]}, "properties": {"ID": 126, "LENGTH": 0.686461, "DIR": 0}}, {"type": "Feature", "geometry": {"type": "LineString", "coordinates": [[-57.92337, -35.595781], [-57.925762, -35.592697]]}, "properties": {"ID": 128, "LENGTH": 0.405433, "DIR": 0}}, {"type": "Feature", "geometry": {"type": "LineString", "coordinates": [[-57.919774, -35.597521], [-57.92337, -35.595781]]}, "properties": {"ID": 129, "LENGTH": 0.37835, "DIR": 0}}, {"type": "Feature", "geometry": {"type": "LineString", "coordinates": [[-57.90517, -35.603694], [-57.916903, -35.598294]]}, "properties": {"ID": 131, "LENGTH": 1.218949, "DIR": 0}}, {"type": "Feature", "geometry": {"type": "LineString", "coordinates": [[-57.916903, -35.598294], [-57.919774, -35.597521]]}, "properties": {"ID": 130, "LENGTH": 0.273442, "DIR": 0}}, {"type": "Feature", "geometry": {"type": "LineString", "coordinates": [[-57.897031, -35.608522], [-57.90517, -35.603694]]}, "properties": {"ID": 132, "LENGTH": 0.910838, "DIR": 0}}, {"type": "Feature", "geometry": {"type": "LineString", "coordinates": [[-57.890821, -35.606585], [-57.897031, -35.608522]]}, "properties": {"ID": 133, "LENGTH": 0.601308, "DIR": 0}}, {"type": "Feature", "geometry": {"type": "LineString", "coordinates": [[-57.883176, -35.604081], [-57.890821, -35.606585]]}, "properties": {"ID": 134, "LENGTH": 0.745134, "DIR": 0}}, {"type": "Feature", "geometry": {"type": "LineString", "coordinates": [[-57.880311, -35.601376], [-57.883176, -35.604081]]}, "properties": {"ID": 135, "LENGTH": 0.396942, "DIR": 0}}, {"type": "Feature", "geometry": {"type": "LineString", "coordinates": [[-57.877214, -35.600602], [-57.880311, -35.601376]]}, "properties": {"ID": 136, "LENGTH": 0.292933, "DIR": 0}}, {"type": "Feature", "geometry": {"type": "LineString", "coordinates": [[-57.870272, -35.600984], [-57.877214, -35.600602]]}, "properties": {"ID": 137, "LENGTH": 0.629074, "DIR": 0}}, {"type": "Feature", "geometry": {"type": "LineString", "coordinates": [[-57.931048, -35.585364], [-57.935361, -35.580537]]}, "properties": {"ID": 125, "LENGTH": 0.663486, "DIR": 0}}, {"type": "Feature", "geometry": {"type": "LineString", "coordinates": [[-57.862632, -35.598672], [-57.870272, -35.600984]]}, "properties": {"ID": 138, "LENGTH": 0.737043, "DIR": 0}}, {"type": "Feature", "geometry": {"type": "LineString", "coordinates": [[-57.857226, -35.598743], [-57.862632, -35.598672]]}, "properties": {"ID": 139, "LENGTH": 0.488842, "DIR": 0}}, {"type": "Feature", "geometry": {"type": "LineString", "coordinates": [[-57.821977, -35.599244], [-57.840719, -35.598986]]}, "properties": {"ID": 198, "LENGTH": 1.694776, "DIR": 0}}, {"type": "Feature", "geometry": {"type": "LineString", "coordinates": [[-57.812177, -35.600209], [-57.821977, -35.599244]]}, "properties": {"ID": 140, "LENGTH": 0.892521, "DIR": 0}}, {"type": "Feature", "geometry": {"type": "LineString", "coordinates": [[-57.927875, -35.512409], [-57.918333, -35.504009]]}, "properties": {"ID": 85, "LENGTH": 1.272169, "DIR": 0}}, {"type": "Feature", "geometry": {"type": "LineString", "coordinates": [[-57.918333, -35.504009], [-57.910577, -35.500147]]}, "properties": {"ID": 84, "LENGTH": 0.823016, "DIR": 0}}, {"type": "Feature", "geometry": {"type": "LineString", "coordinates": [[-57.910577, -35.500147], [-57.902459, -35.496004]]}, "properties": {"ID": 83, "LENGTH": 0.867358, "DIR": 0}}, {"type": "Feature", "geometry": {"type": "LineString", "coordinates": [[-57.902459, -35.496004], [-57.889912, -35.490497]]}, "properties": {"ID": 82, "LENGTH": 1.290459, "DIR": 0}}, {"type": "Feature", "geometry": {"type": "LineString", "coordinates": [[-57.889912, -35.490497], [-57.879533, -35.485867]]}, "properties": {"ID": 81, "LENGTH": 1.071491, "DIR": 0}}, {"type": "Feature", "geometry": {"type": "LineString", "coordinates": [[-57.879533, -35.485867], [-57.864109, -35.484612]]}, "properties": {"ID": 80, "LENGTH": 1.403477, "DIR": 0}}, {"type": "Feature", "geometry": {"type": "LineString", "coordinates": [[-57.864109, -35.484612], [-57.838643, -35.482774]]}, "properties": {"ID": 79, "LENGTH": 2.31483, "DIR": 0}}, {"type": "Feature", "geometry": {"type": "LineString", "coordinates": [[-57.838643, -35.482774], [-57.833031, -35.483643]]}, "properties": {"ID": 78, "LENGTH": 0.517241, "DIR": 0}}, {"type": "Feature", "geometry": {"type": "LineString", "coordinates": [[-57.833031, -35.483643], [-57.829225, -35.484342]]}, "properties": {"ID": 77, "LENGTH": 0.353265, "DIR": 0}}, {"type": "Feature", "geometry": {"type": "LineString", "coordinates": [[-57.820918, -35.485883], [-57.786621, -35.492226]]}, "properties": {"ID": 199, "LENGTH": 3.18427, "DIR": 0}}, {"type": "Feature", "geometry": {"type": "LineString", "coordinates": [[-57.7868, -35.614105], [-57.812177, -35.600209]]}, "properties": {"ID": 141, "LENGTH": 2.766021, "DIR": 0}}, {"type": "Feature", "geometry": {"type": "LineString", "coordinates": [[-57.761443, -35.618927], [-57.765274, -35.616226]]}, "properties": {"ID": 143, "LENGTH": 0.458391, "DIR": 0}}, {"type": "Feature", "geometry": {"type": "LineString", "coordinates": [[-57.756894, -35.621242], [-57.761443, -35.618927]]}, "properties": {"ID": 144, "LENGTH": 0.485114, "DIR": 0}}, {"type": "Feature", "geometry": {"type": "LineString", "coordinates": [[-57.75187, -35.62105], [-57.756894, -35.621242]]}, "properties": {"ID": 145, "LENGTH": 0.454615, "DIR": 0}}, {"type": "Feature", "geometry": {"type": "LineString", "coordinates": [[-57.74852, -35.622015], [-57.75187, -35.62105]]}, "properties": {"ID": 146, "LENGTH": 0.321251, "DIR": 0}}, {"type": "Feature", "geometry": {"type": "LineString", "coordinates": [[-57.765274, -35.616226], [-57.7868, -35.614105]]}, "properties": {"ID": 142, "LENGTH": 1.960094, "DIR": 0}}, {"type": "Feature", "geometry": {"type": "LineString", "coordinates": [[-57.730584, -35.620858], [-57.74852, -35.622015]]}, "properties": {"ID": 147, "LENGTH": 1.626304, "DIR": 0}}, {"type": "Feature", "geometry": {"type": "LineString", "coordinates": [[-57.724851, -35.619883], [-57.730584, -35.620858]]}, "properties": {"ID": 148, "LENGTH": 0.529423, "DIR": 0}}, {"type": "Feature", "geometry": {"type": "LineString", "coordinates": [[-57.693047, -35.62027], [-57.704287, -35.618533]]}, "properties": {"ID": 150, "LENGTH": 1.034188, "DIR": 0}}, {"type": "Feature", "geometry": {"type": "LineString", "coordinates": [[-57.68253, -35.619305], [-57.687793, -35.618339]]}, "properties": {"ID": 152, "LENGTH": 0.487706, "DIR": 0}}, {"type": "Feature", "geometry": {"type": "LineString", "coordinates": [[-57.67798, -35.62201], [-57.68253, -35.619305]]}, "properties": {"ID": 153, "LENGTH": 0.509523, "DIR": 0}}, {"type": "Feature", "geometry": {"type": "LineString", "coordinates": [[-57.704287, -35.618533], [-57.724851, -35.619883]]}, "properties": {"ID": 149, "LENGTH": 1.864851, "DIR": 0}}, {"type": "Feature", "geometry": {"type": "LineString", "coordinates": [[-57.687793, -35.618339], [-57.693047, -35.62027]]}, "properties": {"ID": 151, "LENGTH": 0.521197, "DIR": 0}}, {"type": "Feature", "geometry": {"type": "LineString", "coordinates": [[-57.786621, -35.492226], [-57.779097, -35.487301]]}, "properties": {"ID": 76, "LENGTH": 0.874036, "DIR": 0}}, {"type": "Feature", "geometry": {"type": "LineString", "coordinates": [[-57.779097, -35.487301], [-57.769678, -35.480355]]}, "properties": {"ID": 75, "LENGTH": 1.150591, "DIR": 0}}, {"type": "Feature", "geometry": {"type": "LineString", "coordinates": [[-57.769678, -35.480355], [-57.758459, -35.471863]]}, "properties": {"ID": 74, "LENGTH": 1.386978, "DIR": 0}}, {"type": "Feature", "geometry": {"type": "LineString", "coordinates": [[-57.758459, -35.471863], [-57.750227, -35.464133]]}, "properties": {"ID": 73, "LENGTH": 1.137795, "DIR": 0}}, {"type": "Feature", "geometry": {"type": "LineString", "coordinates": [[-57.750227, -35.464133], [-57.747968, -35.461728]]}, "properties": {"ID": 72, "LENGTH": 0.336709, "DIR": 0}}, {"type": "Feature", "geometry": {"type": "LineString", "coordinates": [[-57.668636, -35.628761], [-57.667447, -35.626059]]}, "properties": {"ID": 155, "LENGTH": 0.319089, "DIR": 0}}, {"type": "Feature", "geometry": {"type": "LineString", "coordinates": [[-57.663608, -35.631268], [-57.668636, -35.628761]]}, "properties": {"ID": 156, "LENGTH": 0.533115, "DIR": 0}}, {"type": "Feature", "geometry": {"type": "LineString", "coordinates": [[-57.667447, -35.626059], [-57.67798, -35.62201]]}, "properties": {"ID": 154, "LENGTH": 1.053123, "DIR": 0}}, {"type": "Feature", "geometry": {"type": "LineString", "coordinates": [[-57.63895, -35.643425], [-57.663608, -35.631268]]}, "properties": {"ID": 157, "LENGTH": 2.606323, "DIR": 0}}]}