{"type":"FeatureCollection","features":[{"type":"Feature","properties":{"CCA":"027010A","ARA3":826.31,"SAG":"ARBA","PARTIDO":"027","CIRC":1,"SECC":"A","NOMENCLA":"Circ. I - Secc. A","AREA_HA":82.6},"geometry":{"type":"Polygon","coordinates":[[[-58.01093877098239,-35.5671460915892],[-58.010835189276435,-35.56779373015683],[-58.00913888632947,-35.576623915485634],[-58.01773763249963,-35.577581553281156],[-58.019274212843094,-35.567993827560144],[-58.01658317757905,-35.567724376478346],[-58.01374979919848,-35.567440714791275],[-58.01093877098239,-35.5671460915892]]]}},{"type":"Feature","properties":{"CCA":"027010B","ARA3":669.25,"SAG":"ARBA","PARTIDO":"027","CIRC":1,"SECC":"B","NOMENCLA":"Circ. I - Secc. B","AREA_HA":66.9},"geometry":{"type":"Polygon","coordinates":[[[-58.00913888632947,-35.576623915485634],[-58.010835189276435,-35.56779373015683],[-58.01093877098239,-35.5671460915892],[-58.00949824652543,-35.56699218476117],[-58.009392060788166,-35.567597516316376],[-58.008348274958266,-35.56746889172576],[-58.00410229615165,-35.56696151061701],[-58.00247444531922,-35.571816446298214],[-58.00209945743345,-35.57373420973869],[-58.00171799731772,-35.57576071902387],[-58.00913888632947,-35.576623915485634]]]}},{"type":"Feature","properties":{"CCA":"027010C","ARA3":652.52,"SAG":"ARBA","PARTIDO":"027","CIRC":1,"SECC":"C","NOMENCLA":"Circ. I - Secc. C","AREA_HA":65.3},"geometry":{"type":"Polygon","coordinates":[[[-58.00756335495465,-35.58484599945575],[-58.008754068554,-35.5848726227523],[-58.01145651657976,-35.58482741388968],[-58.01230977216028,-35.584685059001515],[-58.01384708542895,-35.58410891317406],[-58.01467166171855,-35.58387667745224],[-58.01664467268592,-35.583635771699],[-58.01773763249963,-35.577581553281156],[-58.00913888632947,-35.576623915485634],[-58.00756335495465,-35.58484599945575]]]}},{"type":"Feature","properties":{"CCA":"027010D","ARA3":588.96,"SAG":"ARBA","PARTIDO":"027","CIRC":1,"SECC":"D","NOMENCLA":"Circ. I - Secc. D","AREA_HA":58.9},"geometry":{"type":"Polygon","coordinates":[[[-58.00913888632947,-35.576623915485634],[-58.00171799731772,-35.57576071902387],[-58.00088859251066,-35.580311307025575],[-58.000543412673245,-35.58281897773933],[-58.00154698215768,-35.58288212517253],[-58.002913540001686,-35.58320900115095],[-58.00377913367828,-35.58405796105872],[-58.00447558948688,-35.584615485537945],[-58.00472556275209,-35.58474857545862],[-58.00508457736304,-35.58479065516998],[-58.00756335495465,-35.58484599945575],[-58.00913888632947,-35.576623915485634]]]}},{"type":"Feature","properties":{"CCA":"027020A","ARA3":4798.56,"SAG":"ARBA","PARTIDO":"027","CIRC":2,"SECC":"A","NOMENCLA":"Circ. II - Secc. A","AREA_HA":479.9},"geometry":{"type":"Polygon","coordinates":[[[-58.04454094660885,-35.55321596466939],[-58.04022070291721,-35.5555434302472],[-58.038406117823214,-35.5582283792699],[-58.03401200015851,-35.55571571950422],[-58.030753713731954,-35.55284236119363],[-58.02828032032297,-35.54999077022543],[-58.026203479347515,-35.546271440665905],[-58.025672403761085,-35.54581992955046],[-58.0247319120247,-35.54504613325407],[-58.02416235264354,-35.54456848314448],[-58.02362959313575,-35.5441236040031],[-58.0233375554328,-35.543879746582476],[-58.02303363284548,-35.54362605149945],[-58.02275540630041,-35.54345748308525],[-58.022214144063305,-35.54292396772045],[-58.02149944353306,-35.54222504022966],[-58.02116640845057,-35.541891293243836],[-58.01958995472301,-35.54033754445577],[-58.01914296054835,-35.53990865321894],[-58.01917848798853,-35.54221594089327],[-58.01791253094749,-35.54968303637714],[-58.01726635483563,-35.55957711868798],[-58.016796807515576,-35.56343809649958],[-58.016834067732994,-35.56623967044911],[-58.01658317757905,-35.567724376478346],[-58.019274212843094,-35.567993827560144],[-58.01773763249963,-35.577581553281156],[-58.01664467268592,-35.583635771699],[-58.01802628607651,-35.583059711873375],[-58.01971005696441,-35.58275524406064],[-58.02076682552239,-35.580478622811995],[-58.021609588689714,-35.57906995222418],[-58.02205773957757,-35.578357583309355],[-58.022491729011165,-35.57691543140717],[-58.02284405171751,-35.57595899424013],[-58.02272556775925,-35.57520163893465],[-58.022915677195286,-35.57497470163735],[-58.02424938324103,-35.57340888797304],[-58.025958020456564,-35.57077416014283],[-58.02727179706172,-35.570110099033975],[-58.02823691013652,-35.56972543459929],[-58.02997418752104,-35.56838053340518],[-58.03061783620513,-35.56751119516505],[-58.03181324285559,-35.56648848282893],[-58.03593383814662,-35.56434137134544],[-58.03678073743242,-35.563725733444905],[-58.03767522560118,-35.562523870070294],[-58.037812997003556,-35.562522688952946],[-58.03844603147458,-35.562427111419595],[-58.040575049874825,-35.560741491663734],[-58.04152861213887,-35.559854511144785],[-58.04375260580958,-35.55699629507887],[-58.044672697339394,-35.55565899110945],[-58.044654118544585,-35.55424040234738],[-58.04429550504587,-35.553555583127704],[-58.04454094660885,-35.55321596466939]]]}},{"type":"Feature","properties":{"CCA":"027020B","ARA3":9460.72,"SAG":"ARBA","PARTIDO":"027","CIRC":2,"SECC":"B","NOMENCLA":"Circ. II - Secc. B","AREA_HA":946.1},"geometry":{"type":"Polygon","coordinates":[[[-57.986607009470646,-35.56502017601631],[-57.99143651527347,-35.56548283971473],[-57.999506822201624,-35.566261106933375],[-58.00410229615165,-35.56696151061701],[-58.008348274958266,-35.56746889172576],[-58.009392060788166,-35.567597516316376],[-58.00949824652543,-35.56699218476117],[-58.01093877098239,-35.5671460915892],[-58.01374979919848,-35.567440714791275],[-58.01658317757905,-35.567724376478346],[-58.016834067732994,-35.56623967044911],[-58.016796807515576,-35.56343809649958],[-58.01726635483563,-35.55957711868798],[-58.01791253094749,-35.54968303637714],[-58.01917848798853,-35.54221594089327],[-58.01873507268192,-35.542147647614605],[-58.01565379894113,-35.54430445301435],[-58.0151361420097,-35.54459969978504],[-58.01507131736817,-35.544536815158786],[-58.01481428526776,-35.544408046920445],[-58.0146986213184,-35.54435009203455],[-58.014577401135526,-35.54428943226167],[-58.01445313518598,-35.54422710017474],[-58.0143257088304,-35.54416327410117],[-58.01420367961242,-35.54411755931272],[-58.013966831144685,-35.5440288614228],[-58.01386053283877,-35.54398908255698],[-58.01324754986983,-35.54375946708179],[-58.012893262535904,-35.54362683904647],[-58.01201597699048,-35.54328661756924],[-58.0114639449278,-35.54307611093563],[-58.01089232269445,-35.542846445045576],[-58.01031640672855,-35.54261219999089],[-58.01256921205233,-35.54092451897468],[-58.0125874435452,-35.540909500416475],[-58.009495647012294,-35.54032952756659],[-58.00940049674485,-35.54029398399323],[-58.00948894232611,-35.539677452903284],[-58.009846391002924,-35.53718723748609],[-58.01006550455332,-35.53581519620156],[-58.010586673511824,-35.53541630862261],[-58.01086252054346,-35.53273712673729],[-58.00945863125344,-35.53143327514729],[-58.008892052781114,-35.53118593187173],[-58.00816886825901,-35.530870126447844],[-58.00391590222987,-35.526838079170076],[-58.003258328704476,-35.526225689386855],[-58.0028114860464,-35.52659775237436],[-58.002070654341225,-35.52712516236498],[-58.00179426673801,-35.527362083593815],[-57.99988873243141,-35.52867811956667],[-57.998106074543585,-35.5300020218125],[-57.997179861019184,-35.53044558139343],[-57.99152952237778,-35.53446070358438],[-57.99089376420914,-35.53771748915215],[-57.99027128850698,-35.54157950334561],[-57.98992536915954,-35.54359585163769],[-57.98978027810245,-35.54422719051573],[-57.98963285668968,-35.54489435486761],[-57.98905056822264,-35.548947614023575],[-57.98840746407661,-35.55331812746143],[-57.987823157494006,-35.55716408270723],[-57.987312571821214,-35.56090826542521],[-57.986607009470646,-35.56502017601631]]]}},{"type":"Feature","properties":{"CCA":"027020C","ARA3":4761.21,"SAG":"ARBA","PARTIDO":"027","CIRC":2,"SECC":"C","NOMENCLA":"Circ. II - Secc. C","AREA_HA":476.1},"geometry":{"type":"Polygon","coordinates":[[[-57.96234336710869,-35.56265054702856],[-57.97718237314807,-35.564443241419475],[-57.981975599690266,-35.56469517348873],[-57.986607009470646,-35.56502017601631],[-57.987312571821214,-35.56090826542521],[-57.987823157494006,-35.55716408270723],[-57.98840746407661,-35.55331812746143],[-57.98905056822264,-35.548947614023575],[-57.98963285668968,-35.54489435486761],[-57.98978027810245,-35.54422719051573],[-57.98992536915954,-35.54359585163769],[-57.99027128850698,-35.54157950334561],[-57.99089376420914,-35.53771748915215],[-57.99152952237778,-35.53446070358438],[-57.98766022456552,-35.53737726945988],[-57.98611376780606,-35.53841882289401],[-57.98257840097862,-35.54097746424626],[-57.97637812693761,-35.54543283910662],[-57.96951171935335,-35.55060521352391],[-57.963593067071706,-35.555203055256285],[-57.96234336710869,-35.56265054702856]]]}},{"type":"Feature","properties":{"CCA":"027020D","ARA3":4049.73,"SAG":"ARBA","PARTIDO":"027","CIRC":2,"SECC":"D","NOMENCLA":"Circ. II - Secc. D","AREA_HA":405.0},"geometry":{"type":"Polygon","coordinates":[[[-58.00410229615165,-35.56696151061701],[-57.999506822201624,-35.566261106933375],[-57.99143651527347,-35.56548283971473],[-57.986607009470646,-35.56502017601631],[-57.98552936987771,-35.57102090809085],[-57.985007979239946,-35.57358478800737],[-57.98400802090384,-35.57759388747833],[-57.98272564295631,-35.58338939219421],[-57.982527312739045,-35.58408371422447],[-57.9822710800043,-35.58598618113307],[-57.982011060903,-35.58774007979781],[-57.98089919965839,-35.59269370448456],[-57.980426886050985,-35.59377469239231],[-57.98130231709868,-35.59351074078387],[-57.982899847667994,-35.593438647296544],[-57.98518984204959,-35.59325790695942],[-57.986092362154885,-35.59266492594298],[-57.98656082253531,-35.59209117713537],[-57.98702147159661,-35.59155153817229],[-57.987758134868514,-35.59116176739343],[-57.988772050857484,-35.590043473846755],[-57.989250790442284,-35.5899923517904],[-57.99261432565231,-35.588171508336664],[-57.99339734758277,-35.58705797712056],[-57.99397624975363,-35.58677628645009],[-57.99464337225057,-35.58645145607235],[-57.99597039062092,-35.58575030006974],[-57.99629100150019,-35.58515999431731],[-57.99773485919539,-35.58303915873488],[-57.9988414846413,-35.582649157181685],[-58.000543412673245,-35.58281897773933],[-58.00088859251066,-35.580311307025575],[-58.00171799731772,-35.57576071902387],[-58.00209945743345,-35.57373420973869],[-58.00247444531922,-35.571816446298214],[-58.00410229615165,-35.56696151061701]]]}},{"type":"Feature","properties":{"CCA":"027020E","ARA3":5630.72,"SAG":"ARBA","PARTIDO":"027","CIRC":2,"SECC":"E","NOMENCLA":"Circ. II - Secc. E","AREA_HA":563.1},"geometry":{"type":"Polygon","coordinates":[[[-57.96003677475299,-35.57905330575359],[-57.961882663872935,-35.58019498265113],[-57.962552271034504,-35.58057585312932],[-57.963599762472136,-35.58161560196978],[-57.96438032843886,-35.582398521383304],[-57.965077807342475,-35.582947636010005],[-57.96815429720759,-35.58580318552316],[-57.96903682770713,-35.58662735396875],[-57.97223519998645,-35.58924101590683],[-57.973281234862355,-35.59013783225892],[-57.97598048340532,-35.59259692966531],[-57.97628747788223,-35.592843585036405],[-57.9795247229294,-35.595215853079324],[-57.980426886050985,-35.59377469239231],[-57.98089919965839,-35.59269370448456],[-57.982011060903,-35.58774007979781],[-57.9822710800043,-35.58598618113307],[-57.982527312739045,-35.58408371422447],[-57.98272564295631,-35.58338939219421],[-57.98400802090384,-35.57759388747833],[-57.985007979239946,-35.57358478800737],[-57.98552936987771,-35.57102090809085],[-57.986607009470646,-35.56502017601631],[-57.981975599690266,-35.56469517348873],[-57.97718237314807,-35.564443241419475],[-57.96234336710869,-35.56265054702856],[-57.96158583593351,-35.567739568214336],[-57.96188389355626,-35.567880857828676],[-57.96140611341471,-35.57124113467185],[-57.96083588071426,-35.57514861980708],[-57.96003677475299,-35.57905330575359]]]}},{"type":"Feature","properties":{"CCA":"027020F","ARA3":4414.39,"SAG":"ARBA","PARTIDO":"027","CIRC":2,"SECC":"F","NOMENCLA":"Circ. II - Secc. F","AREA_HA":441.4},"geometry":{"type":"Polygon","coordinates":[[[-57.955885326731405,-35.580197464730645],[-57.959284013794324,-35.578281643254265],[-57.96003677475299,-35.57905330575359],[-57.96083588071426,-35.57514861980708],[-57.96140611341471,-35.57124113467185],[-57.96188389355626,-35.567880857828676],[-57.96158583593351,-35.567739568214336],[-57.96234336710869,-35.56265054702856],[-57.963593067071706,-35.555203055256285],[-57.951196420007044,-35.56440002979764],[-57.944461415144204,-35.55779175801056],[-57.94205112743924,-35.55564121541336],[-57.93978276426584,-35.55368480840502],[-57.93463628029948,-35.548878154788135],[-57.934259868514125,-35.54884728418835],[-57.93156665226518,-35.55076452427131],[-57.93131253741546,-35.550960209378545],[-57.9282140680455,-35.55315129073715],[-57.92730662774407,-35.553804221127876],[-57.927086838303445,-35.55397219239654],[-57.92739600880934,-35.554341286818214],[-57.930064731210955,-35.55675517312645],[-57.930435766725004,-35.55709081005463],[-57.93189796048233,-35.558413235772555],[-57.93223129300134,-35.558714699110546],[-57.93456598068463,-35.56082620227717],[-57.93506077650507,-35.56126532108828],[-57.938469819222085,-35.56445017258841],[-57.93908508853287,-35.565022717876346],[-57.94238087579377,-35.568090093045036],[-57.94379793585793,-35.56942449380752],[-57.94802743701658,-35.57321619003903],[-57.955885326731405,-35.580197464730645]]]}},{"type":"Feature","properties":{"CCA":"027030A","ARA3":17362.0,"SAG":"ARBA","PARTIDO":"027","CIRC":3,"SECC":"A","NOMENCLA":"Circ. III - Secc. A","AREA_HA":1736.2},"geometry":{"type":"Polygon","coordinates":[[[-57.94915331890159,-35.62569154980525],[-57.948856364891796,-35.62555592246123],[-57.941497410529,-35.62943872413117],[-57.92123111477351,-35.640275256170945],[-57.92084305909252,-35.640553932726036],[-57.92104537834638,-35.6407421509352],[-57.926285869330975,-35.64533016609796],[-57.92613425954638,-35.64540000277478],[-57.93240109294642,-35.651083325616156],[-57.94141915056937,-35.65910454078881],[-57.94662782613004,-35.66369385485384],[-57.95000678072939,-35.66129280159276],[-57.95087051214808,-35.66068584006753],[-57.95260569884355,-35.65941868390877],[-57.956516644518615,-35.663123237861655],[-57.956830639763666,-35.66342358789686],[-57.95747408065952,-35.66403355874823],[-57.95827260305128,-35.66471563163567],[-57.95983649136241,-35.66626473636831],[-57.96691601917083,-35.672966158981545],[-57.96728799994835,-35.67326484880111],[-57.97003607837849,-35.67579529241435],[-57.97285129819359,-35.67837204119527],[-57.97565284184732,-35.6809682300173],[-57.978476017448536,-35.68354588581817],[-57.981583022198535,-35.686355405595535],[-57.981884259179544,-35.68616987489534],[-57.9821574093349,-35.6859198041879],[-57.9825119430432,-35.68555638705581],[-57.98283948683278,-35.685238292348714],[-57.98311116001154,-35.68487555692903],[-57.983438176320945,-35.684512396568664],[-57.98368274800566,-35.68419498155635],[-57.983763923913806,-35.684059103848746],[-57.98389760902837,-35.68369756884076],[-57.98405880308184,-35.68333568346964],[-57.98421978717499,-35.68295135689086],[-57.98435514927923,-35.682724924498615],[-57.9844887188347,-35.68236338674984],[-57.98470084389159,-35.68164065099976],[-57.98483420576343,-35.681256491617546],[-57.98499570473258,-35.68091722748504],[-57.98507603250162,-35.680713841986865],[-57.98510144643693,-35.680533326157935],[-57.98512486082257,-35.68019517406216],[-57.98512129148266,-35.6799023461833],[-57.985061650112456,-35.67954234851193],[-57.98505251685129,-35.678798876267976],[-57.98493764529483,-35.67843930546466],[-57.98476606814838,-35.67796758901581],[-57.98476061585631,-35.67751694647515],[-57.984783713389284,-35.67715626143614],[-57.984807444221524,-35.6768406421053],[-57.98477541960411,-35.67648047582366],[-57.98471557520881,-35.67609794689897],[-57.98472607957594,-35.67602279060256],[-57.9847662879591,-35.67573700330055],[-57.98465173818314,-35.675399965110714],[-57.98450946341506,-35.67506318341336],[-57.98441912488449,-35.674549573841205],[-57.984764824602735,-35.67337122321862],[-57.98484357456374,-35.67303264565595],[-57.98486666944241,-35.67267196029421],[-57.985000013489454,-35.67228779967782],[-57.98507812733936,-35.67190415606047],[-57.98488021694617,-35.67152273980333],[-57.984408061917044,-35.67130127248188],[-57.98407429229301,-35.67110122460263],[-57.984042794904155,-35.67078612190735],[-57.98406600262094,-35.67042543851805],[-57.98403398476493,-35.670065181798286],[-57.9840568755013,-35.6696819654755],[-57.9843042349896,-35.66958978021076],[-57.98458340533539,-35.66983541012868],[-57.984477363302304,-35.6701966890585],[-57.984479249508375,-35.670354413742295],[-57.98473217465573,-35.67071287254908],[-57.98498562769394,-35.67111630473832],[-57.98523530343947,-35.67120446720684],[-57.985677849486294,-35.67126837345103],[-57.98609225579064,-35.67128756305745],[-57.98653480313115,-35.67135146618589],[-57.986783846653815,-35.67139455971363],[-57.988109071853934,-35.671383648099734],[-57.988550568601575,-35.671357505989995],[-57.98899259080446,-35.671376426237615],[-57.99031697178338,-35.67129789334524],[-57.991170658163654,-35.671110657325364],[-57.99152793970983,-35.670972533142034],[-57.99193928095882,-35.670743847660454],[-57.992760792776565,-35.67019625221733],[-57.993034909202606,-35.67003628142217],[-57.993198890892685,-35.66989979483631],[-57.99359364622352,-35.669499526876834],[-57.99409686495254,-35.66883343686302],[-57.99434976350928,-35.66846639574469],[-57.994467769403556,-35.66833121375631],[-57.99225587445687,-35.66626541063898],[-57.987841708869404,-35.66214213690631],[-57.98570502767392,-35.66014604809802],[-57.98539324489244,-35.65985481988418],[-57.98412586062299,-35.65867072693059],[-57.97540127289708,-35.65035994733402],[-57.97548223309987,-35.64998239438271],[-57.9693067162795,-35.6444707740146],[-57.96917692474988,-35.64435180174349],[-57.963573874961355,-35.63908239561433],[-57.962751455296754,-35.63850592423822],[-57.96176446495307,-35.63762524252068],[-57.959356908239926,-35.6352325842612],[-57.959334300303055,-35.635040806731276],[-57.958790712187245,-35.6346792616474],[-57.9535290798241,-35.629772656430255],[-57.94915331890159,-35.62569154980525]]]}},{"type":"Feature","properties":{"CCA":"027030B","ARA3":7844.21,"SAG":"ARBA","PARTIDO":"027","CIRC":3,"SECC":"B","NOMENCLA":"Circ. III - Secc. B","AREA_HA":784.4},"geometry":{"type":"Polygon","coordinates":[[[-57.960248923950864,-35.57882576236117],[-57.95952490399667,-35.577903832007586],[-57.95604219950443,-35.579892937555584],[-57.95568244615443,-35.58015960026173],[-57.955752648144305,-35.58022278771586],[-57.95388244611939,-35.5817263534543],[-57.95267793136255,-35.58261303893591],[-57.94903848617774,-35.58529186255777],[-57.94869671852055,-35.585543490730416],[-57.94637546899579,-35.58725182522669],[-57.946159156198334,-35.587411058074366],[-57.944447183533,-35.58867089477273],[-57.94417667031992,-35.58887001926359],[-57.94018086385016,-35.59185047949073],[-57.94110237251284,-35.592690202982595],[-57.94136897315141,-35.59294184221019],[-57.94254312155128,-35.59402817925846],[-57.942800226288625,-35.5942589277992],[-57.94334334433696,-35.59477218974331],[-57.944085314806436,-35.59541328585575],[-57.944392447989635,-35.59571571180755],[-57.94556553803182,-35.596799118655674],[-57.946105024533885,-35.59730041198007],[-57.94706631481639,-35.598194295136196],[-57.94742199213784,-35.59854079396555],[-57.94857459500272,-35.59956552170967],[-57.948847384910934,-35.599840138369885],[-57.949997510648174,-35.600911488014994],[-57.95041218548806,-35.60130340683171],[-57.95163610098927,-35.602403300302456],[-57.95194718357359,-35.60270874837122],[-57.95346358149351,-35.60415331347183],[-57.9587961187343,-35.60956303064614],[-57.95946541777961,-35.61018198761027],[-57.96358461558641,-35.61399102693293],[-57.964984374758366,-35.615177474542634],[-57.9665102044044,-35.616572929199606],[-57.96663052091859,-35.616685075882096],[-57.96813868912727,-35.61811346317349],[-57.96827459268145,-35.61824218126939],[-57.96940495005156,-35.61931265703019],[-57.97536621251434,-35.60818087381912],[-57.97561967868024,-35.607707725939946],[-57.97583753806644,-35.607215596441485],[-57.97601961275471,-35.60668528888317],[-57.97616738816596,-35.60624181238873],[-57.976301687604035,-35.605654292029435],[-57.976390348072876,-35.60519207008743],[-57.976390513170976,-35.604747464917594],[-57.97636945216585,-35.604225638390545],[-57.97628477411575,-35.60374572603391],[-57.97621286517141,-35.60343786994828],[-57.97612789369801,-35.60296966696469],[-57.97607320418296,-35.6026528186503],[-57.97589229195624,-35.602160746021454],[-57.975798375161496,-35.60181998975747],[-57.97565348982905,-35.60144836990162],[-57.975598684928116,-35.60113620518571],[-57.97544539693278,-35.60066901621824],[-57.97522933882305,-35.60010957957311],[-57.975005039631114,-35.59957956045035],[-57.97479749075473,-35.59921679839254],[-57.97458134665502,-35.5986961069303],[-57.97450138495125,-35.5984542559305],[-57.97441500217347,-35.59806009924565],[-57.974370661437526,-35.597661332880065],[-57.974333331690495,-35.59715076636376],[-57.97433486205014,-35.596639231249476],[-57.97450021170788,-35.59612396260833],[-57.97485128896776,-35.59562857668404],[-57.97568363404314,-35.59419898506151],[-57.97628747788223,-35.592843585036405],[-57.97598048340532,-35.59259692966531],[-57.973281234862355,-35.59013783225892],[-57.97223519998645,-35.58924101590683],[-57.96903682770713,-35.58662735396875],[-57.96815429720759,-35.58580318552316],[-57.965077807342475,-35.582947636010005],[-57.96438032843886,-35.582398521383304],[-57.963599762472136,-35.58161560196978],[-57.962552271034504,-35.58057585312932],[-57.961882663872935,-35.58019498265113],[-57.960248923950864,-35.57882576236117]]]}},{"type":"Feature","properties":{"CCA":"027050A","ARA3":6821.03,"SAG":"ARBA","PARTIDO":"027","CIRC":5,"SECC":"A","NOMENCLA":"Circ. V - Secc. A","AREA_HA":682.1},"geometry":{"type":"Polygon","coordinates":[[[-58.038991677693744,-35.53519539944287],[-58.0391596231375,-35.53494004725489],[-58.043164851311126,-35.52882516098738],[-58.04774358758424,-35.521847476182394],[-58.0478431109274,-35.52169778708338],[-58.047440946892344,-35.520944955985705],[-58.04228429473159,-35.51618833362898],[-58.03596910137543,-35.51032496534224],[-58.02779561807689,-35.50255429122117],[-58.02691649603826,-35.502705269853145],[-58.02468713181772,-35.50883765765638],[-58.0243999030123,-35.508573336493974],[-58.02405327865633,-35.508250369052995],[-58.02401394762667,-35.508213859564655],[-58.023713334822666,-35.50793372793131],[-58.02361336947863,-35.50783062225067],[-58.02329989969385,-35.50754009611911],[-58.022959787028164,-35.50723507476476],[-58.02268139491481,-35.507433265164316],[-58.02225143252911,-35.50773620392683],[-58.02213454619001,-35.507819804341],[-58.022021370113904,-35.50790040164455],[-58.02190505842398,-35.50798302000708],[-58.02178454262264,-35.5080662901946],[-58.021665231737536,-35.50814985036231],[-58.021307929849684,-35.50840171194677],[-58.02107116690214,-35.50855137973201],[-58.02066500911144,-35.508840375232126],[-58.02054835535303,-35.50892334706743],[-58.02043248356325,-35.50900588105554],[-58.020320542487745,-35.509085415608844],[-58.02020927102648,-35.50916460059436],[-58.01990720049519,-35.509379517067636],[-58.01865686512993,-35.510259029906216],[-58.01792255507285,-35.510831976737556],[-58.0146051821751,-35.513361304765205],[-58.01444752868498,-35.513466123626976],[-58.01368761353311,-35.51278118602318],[-58.01353907709986,-35.51286488722643],[-58.00932164997205,-35.515792222026896],[-58.003747840524106,-35.519685941621326],[-58.003631389330295,-35.51977719012934],[-58.007539545591136,-35.52342038878543],[-58.007645189793514,-35.52352107823568],[-58.007980263945335,-35.523851831268416],[-58.00779827797124,-35.523985525412236],[-58.004185253312606,-35.52664014530771],[-58.00391590222987,-35.526838079170076],[-58.00816886825901,-35.530870126447844],[-58.008892052781114,-35.53118593187173],[-58.01833490619306,-35.524278740490146],[-58.01930842242891,-35.52346380584583],[-58.02008217031463,-35.52290078253566],[-58.02287634971826,-35.520936662667324],[-58.028698873107295,-35.52628982163684],[-58.03866272184503,-35.535126878871004],[-58.038991677693744,-35.53519539944287]]]}},{"type":"Feature","properties":{"CCA":"027050B","ARA3":3324.69,"SAG":"ARBA","PARTIDO":"027","CIRC":5,"SECC":"B","NOMENCLA":"Circ. V - Secc. B","AREA_HA":332.5},"geometry":{"type":"Polygon","coordinates":[[[-58.03926192032993,-35.534555486302494],[-58.03820469779091,-35.53443709021349],[-58.0349326840817,-35.533686056557336],[-58.033039118182465,-35.5334302553046],[-58.02872466218072,-35.53423271059746],[-58.026776461172304,-35.534555974277225],[-58.02436427592408,-35.53513347140278],[-58.020826472927325,-35.5357281301828],[-58.019150138522164,-35.536048703496874],[-58.01935631275576,-35.53403059180173],[-58.019629794706866,-35.53140856733953],[-58.01918351648524,-35.53135149361537],[-58.01926174004736,-35.52986033059143],[-58.01944224181195,-35.52779133167144],[-58.01954988635729,-35.525883067822456],[-58.019813168015794,-35.52290717856586],[-58.01930842242891,-35.52346380584583],[-58.01833490619306,-35.524278740490146],[-58.008892052781114,-35.53118593187173],[-58.00945863125344,-35.53143327514729],[-58.01086252054346,-35.53273712673729],[-58.010586673511824,-35.53541630862261],[-58.01006550455332,-35.53581519620156],[-58.009846391002924,-35.53718723748609],[-58.00948894232611,-35.539677452903284],[-58.00940049674485,-35.54029398399323],[-58.009495647012294,-35.54032952756659],[-58.0125874435452,-35.540909500416475],[-58.01256921205233,-35.54092451897468],[-58.01031640672855,-35.54261219999089],[-58.01089232269445,-35.542846445045576],[-58.0114639449278,-35.54307611093563],[-58.01201597699048,-35.54328661756924],[-58.012893262535904,-35.54362683904647],[-58.01324754986983,-35.54375946708179],[-58.01386053283877,-35.54398908255698],[-58.013966831144685,-35.5440288614228],[-58.01420367961242,-35.54411755931272],[-58.0143257088304,-35.54416327410117],[-58.01445313518598,-35.54422710017474],[-58.014577401135526,-35.54428943226167],[-58.0146986213184,-35.54435009203455],[-58.01481428526776,-35.544408046920445],[-58.01507131736817,-35.544536815158786],[-58.0151361420097,-35.54459969978504],[-58.01565379894113,-35.54430445301435],[-58.01873507268192,-35.542147647614605],[-58.01917848798853,-35.54221594089327],[-58.01914296054835,-35.53990865321894],[-58.01958995472301,-35.54033754445577],[-58.02116640845057,-35.541891293243836],[-58.02149944353306,-35.54222504022966],[-58.022214144063305,-35.54292396772045],[-58.02275540630041,-35.54345748308525],[-58.02303363284548,-35.54362605149945],[-58.0233375554328,-35.543879746582476],[-58.02362959313575,-35.5441236040031],[-58.02416235264354,-35.54456848314448],[-58.0247319120247,-35.54504613325407],[-58.025672403761085,-35.54581992955046],[-58.026203479347515,-35.546271440665905],[-58.029081622489585,-35.54867534328803],[-58.02984426998427,-35.54891138068738],[-58.031799969152715,-35.546265628453945],[-58.03603601347692,-35.53983415344506],[-58.03867739365543,-35.53581468036236],[-58.03805953638579,-35.53527773581409],[-58.03926192032993,-35.534555486302494]]]}},{"type":"Feature","properties":{"CCA":"027050C","ARA3":1500.62,"SAG":"ARBA","PARTIDO":"027","CIRC":5,"SECC":"C","NOMENCLA":"Circ. V - Secc. C","AREA_HA":150.1},"geometry":{"type":"Polygon","coordinates":[[[-58.019417770444974,-35.52312290272959],[-58.01950458876449,-35.525299744056994],[-58.01891298270161,-35.53553395750181],[-58.02851277279927,-35.53400306233818],[-58.03203860308315,-35.53353675151007],[-58.035007499950616,-35.53383226787838],[-58.03839014383607,-35.53468088991944],[-58.02878880852378,-35.52591191618529],[-58.02296775734459,-35.52058942416441],[-58.019417770444974,-35.52312290272959]]]}},{"type":"Feature","properties":{"CCA":"027050F","ARA3":8826.28,"SAG":"ARBA","PARTIDO":"027","CIRC":5,"SECC":"F","NOMENCLA":"Circ. V - Secc. F","AREA_HA":882.6},"geometry":{"type":"Polygon","coordinates":[[[-58.06067483166992,-35.557226333984666],[-58.06067477336267,-35.55711891813954],[-58.061421357561684,-35.55666026741747],[-58.06168085345412,-35.556187832148865],[-58.06172653583487,-35.553782543709296],[-58.06183471491084,-35.55276113745941],[-58.061931886201414,-35.551729641463936],[-58.06202718419387,-35.55140334161818],[-58.06237183493897,-35.550685993637714],[-58.06280560190091,-35.550004139576735],[-58.063209902334485,-35.5496117949854],[-58.063670262210266,-35.54941454373624],[-58.064388768881344,-35.549344891570826],[-58.065485508617805,-35.54942557741831],[-58.06655086482953,-35.54963317023639],[-58.06734759017653,-35.549626122240696],[-58.06793296709833,-35.549530524357515],[-58.06860519793362,-35.549307633340085],[-58.0692320647085,-35.54900372081286],[-58.06977877500878,-35.548501623518234],[-58.070356968203576,-35.547872607145244],[-58.07069266454353,-35.54731810553675],[-58.07104956394341,-35.546393846040374],[-58.07125132450544,-35.54575014960846],[-58.07170464965825,-35.544887265928274],[-58.073203909428244,-35.54361720863721],[-58.072873216057864,-35.543337526638105],[-58.07290527737223,-35.54271193005019],[-58.073691270087124,-35.54228879317977],[-58.07440496744799,-35.541333727009096],[-58.075068985589915,-35.54037606068866],[-58.066314021575515,-35.53675395979666],[-58.06567264406902,-35.536701677707505],[-58.063831499809524,-35.53606007159179],[-58.061526496349316,-35.53367206010217],[-58.06045908614336,-35.53316071031744],[-58.05758252044306,-35.53051841048563],[-58.051584988188424,-35.52498869789446],[-58.04815982635565,-35.52195577259608],[-58.0478431109274,-35.52169778708338],[-58.04774358758424,-35.521847476182394],[-58.043164851311126,-35.52882516098738],[-58.0391596231375,-35.53494004725489],[-58.038991677693744,-35.53519539944287],[-58.03875234316301,-35.53560260202952],[-58.03867739365543,-35.53581468036236],[-58.03606922203134,-35.53847236635217],[-58.03088430285062,-35.54525402632481],[-58.02828032032297,-35.54999077022543],[-58.030753713731954,-35.55284236119363],[-58.03401200015851,-35.55571571950422],[-58.038406117823214,-35.5582283792699],[-58.04022070291721,-35.5555434302472],[-58.04454094660885,-35.55321596466939],[-58.04472824728522,-35.55325423737247],[-58.0449472968762,-35.55353804188255],[-58.0451998951971,-35.553802655375065],[-58.045385680630076,-35.55396697052589],[-58.045776335657564,-35.55410009395935],[-58.04619117392776,-35.55416827625824],[-58.04669849354453,-35.5541607290945],[-58.0470295267855,-35.55410166252886],[-58.04761443465223,-35.553991288136274],[-58.047913521784736,-35.553967206164806],[-58.048213971533556,-35.553964231955156],[-58.04851357740071,-35.55398241988908],[-58.0507451071876,-35.554051600802445],[-58.05388467247035,-35.553776304411684],[-58.05432630317781,-35.553817496968314],[-58.05598637281769,-35.55425357696199],[-58.05637466853196,-35.554430423227444],[-58.05824749346879,-35.55637425201333],[-58.05844402802816,-35.556642891427046],[-58.05927761882668,-35.55713121300979],[-58.05955506811646,-35.557264001301675],[-58.06034417773027,-35.5572100193798],[-58.06067483166992,-35.557226333984666]]]}},{"type":"Feature","properties":{"CCA":"027060H","ARA3":9553.04,"SAG":"ARBA","PARTIDO":"027","CIRC":6,"SECC":"H","NOMENCLA":"Circ. VI - Secc. H","AREA_HA":955.3},"geometry":{"type":"Polygon","coordinates":[[[-57.75184048637625,-35.461904032568825],[-57.751787494993465,-35.46194413463067],[-57.750553415208074,-35.462959723116306],[-57.750057555515255,-35.46370333365521],[-57.74882109660744,-35.46477878103769],[-57.747959968236394,-35.465787242849764],[-57.74678097420967,-35.46666820529631],[-57.74506408455148,-35.4671479422093],[-57.7439603609637,-35.46760776474964],[-57.743412379536956,-35.46825828036066],[-57.74331662175484,-35.46859863049439],[-57.74351814542959,-35.4694672598842],[-57.74385969995865,-35.47003141869304],[-57.746070144990156,-35.471570880064384],[-57.74629307126205,-35.47213578933353],[-57.74629747687632,-35.472621105101204],[-57.745984852362106,-35.47304363913821],[-57.7454883977767,-35.47319727764123],[-57.744680520665135,-35.473213533971894],[-57.744085992486696,-35.473120058225064],[-57.74297912022851,-35.47324019284896],[-57.74092825756509,-35.47399700858563],[-57.740394431929914,-35.47404882451378],[-57.73952364880088,-35.47402178719687],[-57.737665363106295,-35.47378150391174],[-57.73606279229932,-35.473791265887],[-57.734624680865956,-35.474495764811095],[-57.73362609181071,-35.475650484658395],[-57.73226553507583,-35.476176465636115],[-57.73014769881016,-35.476108428568814],[-57.72845143126551,-35.47575093755321],[-57.72845526556621,-35.47610396255867],[-57.728458619289704,-35.476290098602746],[-57.747594733185686,-35.49216611472509],[-57.7505301846918,-35.494747985169674],[-57.751794040627,-35.49586059964964],[-57.752030513782294,-35.4960497294946],[-57.75642212156045,-35.49958364591134],[-57.760872939601036,-35.50307047910269],[-57.7630432313448,-35.50103231974158],[-57.7663207407745,-35.49784295197067],[-57.769136583443625,-35.495313284886706],[-57.769401771428534,-35.495063182893354],[-57.7711354867497,-35.493389391252514],[-57.771792519370194,-35.49293792327809],[-57.77245968081716,-35.49237075894495],[-57.77270214904147,-35.49212473502411],[-57.78005381966145,-35.48536488146486],[-57.780428613264206,-35.48516488903431],[-57.77453034266705,-35.480805683324114],[-57.75982784630881,-35.46993792766071],[-57.75184048637625,-35.461904032568825]]]}},{"type":"Feature","properties":{"CCA":"027060I","ARA3":4264.29,"SAG":"ARBA","PARTIDO":"027","CIRC":6,"SECC":"I","NOMENCLA":"Circ. VI - Secc. I","AREA_HA":426.4},"geometry":{"type":"Polygon","coordinates":[[[-58.03228286209764,-35.48972964333266],[-58.03257618298286,-35.49007694962532],[-58.034266301298054,-35.4915367701745],[-58.03464729679077,-35.49176844282672],[-58.03871290375314,-35.49551260646147],[-58.039038111885,-35.49582842567803],[-58.04189324798941,-35.498502975551936],[-58.042991588655674,-35.49959171257391],[-58.044299501560054,-35.50085532461951],[-58.0479615472502,-35.50444512448582],[-58.05455933841552,-35.510303513553254],[-58.05510183796384,-35.51074499000401],[-58.05864412025361,-35.50535901370962],[-58.06125766390028,-35.50117201102906],[-58.06230583797095,-35.499577347777254],[-58.06282297091167,-35.49871560432487],[-58.062198342010916,-35.49832745204266],[-58.06201496113804,-35.49821348519247],[-58.059374277817604,-35.495858341358726],[-58.05720395836849,-35.493922539097106],[-58.05533781826772,-35.49225798006645],[-58.055419060398116,-35.492197111221635],[-58.052431462156896,-35.48933996868345],[-58.0502520380634,-35.487389119024634],[-58.050063137132234,-35.48719069860349],[-58.04893775271713,-35.486206930982014],[-58.04581946127692,-35.483419336003415],[-58.04227099503412,-35.48028459255431],[-58.04090539612382,-35.478988303591045],[-58.038790476477025,-35.4771121933023],[-58.038553925239384,-35.4769001845577],[-58.039460569501045,-35.48140916927524],[-58.03787386363251,-35.485655935223335],[-58.03436042991979,-35.484710574698035],[-58.033638208314464,-35.48647476386951],[-58.03228286209764,-35.48972964333266]]]}},{"type":"Feature","properties":{"CCA":"027060Y","ARA3":3051.31,"SAG":"ARBA","PARTIDO":"027","CIRC":6,"SECC":"Y","NOMENCLA":"Circ. VI - Secc. Y","AREA_HA":305.1},"geometry":{"type":"Polygon","coordinates":[[[-58.03228286209764,-35.48972964333266],[-58.033638208314464,-35.48647476386951],[-58.03436042991979,-35.484710574698035],[-58.03500011148741,-35.48315851513185],[-58.03568300398197,-35.481495774466175],[-58.03726229727865,-35.47764992121807],[-58.037887831673885,-35.476126629438596],[-58.03754015789578,-35.4760947512789],[-58.036856085862496,-35.47551302088399],[-58.035874341702524,-35.4746107721147],[-58.03461732755147,-35.47347775577391],[-58.03365207902989,-35.472614867538624],[-58.033449549091195,-35.472427283705116],[-58.031163786573494,-35.47037956540211],[-58.02750529373144,-35.46708751801146],[-58.0240527191752,-35.46402591188228],[-58.022665570755635,-35.46499128462871],[-58.018732522104074,-35.46789961461477],[-58.01849747058792,-35.46808310076049],[-58.01314348769314,-35.47216190024928],[-58.01303651007191,-35.47224304283514],[-58.016352903665606,-35.475270460154846],[-58.02099710881205,-35.47949519905945],[-58.0252062274289,-35.483352728867416],[-58.03227282570518,-35.48972100893251],[-58.03228286209764,-35.48972964333266]]]}},{"type":"Feature","properties":{"CCA":"027060Z","ARA3":259.07,"SAG":"ARBA","PARTIDO":"027","CIRC":6,"SECC":"Z","NOMENCLA":"Circ. VI - Secc. Z","AREA_HA":25.9},"geometry":{"type":"Polygon","coordinates":[[[-58.038553925239384,-35.4769001845577],[-58.03831229293343,-35.47596799292677],[-58.03805516165016,-35.475719062374715],[-58.037887831673885,-35.476126629438596],[-58.03726229727865,-35.47764992121807],[-58.03568300398197,-35.481495774466175],[-58.03500011148741,-35.48315851513185],[-58.03436042991979,-35.484710574698035],[-58.03787386363251,-35.485655935223335],[-58.039460569501045,-35.48140916927524],[-58.038553925239384,-35.4769001845577]]]}},{"type":"Feature","properties":{"CCA":"027080A","ARA3":18077.88,"SAG":"ARBA","PARTIDO":"027","CIRC":8,"SECC":"A","NOMENCLA":"Circ. VIII - Secc. A","AREA_HA":1807.8},"geometry":{"type":"Polygon","coordinates":[[[-57.7175026651076,-35.70145227993437],[-57.7126704818485,-35.70497586723149],[-57.711775628702945,-35.705680408100164],[-57.710947971888174,-35.706255929226536],[-57.705039129786684,-35.71058541320742],[-57.70271559225176,-35.71230764950332],[-57.691325949056356,-35.720606415730344],[-57.69403643005484,-35.72319718604305],[-57.69852759006533,-35.72746863909102],[-57.70006990874877,-35.72889241543596],[-57.705376016097496,-35.73381182502553],[-57.70987014029809,-35.738024988553676],[-57.71017835581158,-35.73833802327541],[-57.71439678643665,-35.74218391468543],[-57.73007643926516,-35.756618138739334],[-57.734949370434244,-35.75316478733078],[-57.735223441284724,-35.752972080498665],[-57.7395684818883,-35.74981485358137],[-57.7438618253842,-35.74670298607089],[-57.750571382879855,-35.74218044454933],[-57.754968704468816,-35.739121827081505],[-57.7553309637469,-35.73889044161974],[-57.7586862153505,-35.7364858521111],[-57.75437273234801,-35.73234497235819],[-57.75054785407139,-35.72860233703561],[-57.749811245574115,-35.72788708884936],[-57.74553356201236,-35.72379027351353],[-57.742511323520844,-35.720811567691904],[-57.73617291986117,-35.71466413980188],[-57.73582753539371,-35.71432479100724],[-57.731302601895614,-35.71005974232025],[-57.72911788644302,-35.71257849225095],[-57.7175026651076,-35.70145227993437]]]}},{"type":"Feature","properties":{"CCA":"027110A","ARA3":1777.53,"SAG":"ARBA","PARTIDO":"027","CIRC":11,"SECC":"A","NOMENCLA":"Circ. XI - Secc. A","AREA_HA":177.8},"geometry":{"type":"Polygon","coordinates":[[[-58.017002834686124,-35.62784275134959],[-58.019632499834664,-35.62783583240343],[-58.01966731729902,-35.62667504753574],[-58.019710478945065,-35.6266747660653],[-58.023590824286394,-35.62669462744558],[-58.02452431037667,-35.62478948471874],[-58.02286772895557,-35.62328672145645],[-58.02147984104809,-35.622168801823086],[-58.02076456573585,-35.6223168167715],[-58.019995223280205,-35.62244636676547],[-58.01828076402222,-35.622734999778864],[-58.01745329309492,-35.622764544261166],[-58.01657203914782,-35.622907188377994],[-58.013656947426675,-35.62369781103307],[-58.01132631273699,-35.62488900818259],[-58.00953117847012,-35.626976968431094],[-58.00882709175936,-35.62804179883001],[-58.007910371076875,-35.62976182091112],[-58.007740647431575,-35.630067373938985],[-58.00783862943702,-35.630606688948845],[-58.00761009398889,-35.63239648257069],[-58.007349769931544,-35.63347891661617],[-58.00669631459357,-35.63415483903899],[-58.006171279094,-35.63596576196375],[-58.00551526980749,-35.63826201362274],[-58.003808321077436,-35.641139359340855],[-58.00372968996719,-35.641433529880096],[-58.014135855756756,-35.642333799494835],[-58.01436961163358,-35.63279423690831],[-58.01581028198863,-35.632807170907405],[-58.01588022275588,-35.629111772799185],[-58.01700077105967,-35.62910130426195],[-58.017002834686124,-35.62784275134959]]]}},{"type":"Feature","properties":{"CCA":"027110B","ARA3":27106.83,"SAG":"ARBA","PARTIDO":"027","CIRC":11,"SECC":"B","NOMENCLA":"Circ. XI - Secc. B","AREA_HA":2710.7},"geometry":{"type":"Polygon","coordinates":[[[-58.1220469341852,-35.65849205099479],[-58.11542823309117,-35.65286506734361],[-58.10681697648769,-35.64532386824622],[-58.096015089651715,-35.63581705548578],[-58.09308633657459,-35.633203220504654],[-58.08213759401351,-35.62372783196407],[-58.07656940062932,-35.61886495630962],[-58.06734148236128,-35.61089564572228],[-58.059045692840144,-35.60364570920331],[-58.05395415263926,-35.59924690516834],[-58.054302399255896,-35.59898570716215],[-58.06099035981313,-35.59396820252302],[-58.06105552735039,-35.5938141674088],[-58.06323072685469,-35.59216981464228],[-58.06316865159246,-35.592122498761455],[-58.06192305498255,-35.592526988835196],[-58.06095920919854,-35.59264818085585],[-58.0582734236153,-35.59188321151576],[-58.057581832061416,-35.59173157757263],[-58.056918623645494,-35.59164726105131],[-58.055459239752985,-35.59184025574663],[-58.055006503845306,-35.592025968842],[-58.054126410085345,-35.59246078840993],[-58.05194152709977,-35.592839907177805],[-58.04850257297766,-35.593545791915474],[-58.04742577673818,-35.59346499567874],[-58.04684532664117,-35.593379982392236],[-58.04598979035725,-35.593342319611935],[-58.04248768234545,-35.593440280301074],[-58.03944910522343,-35.59310602508976],[-58.03886989103497,-35.59311101582163],[-58.03853918214272,-35.593136360281676],[-58.03804439331727,-35.59327581741607],[-58.03739309778997,-35.5936573778582],[-58.03646562241883,-35.59491167652258],[-58.0362507933252,-35.59536414288474],[-58.03600715554054,-35.59572674780426],[-58.03513784542908,-35.596770670265315],[-58.03448745164006,-35.59767749277272],[-58.03409838424611,-35.59959594010126],[-58.034185129740564,-35.59991067563588],[-58.03446798627948,-35.600449025375724],[-58.03469268335471,-35.60076249695667],[-58.035306844692585,-35.601320487124546],[-58.035613097965715,-35.60154319253456],[-58.03589309195445,-35.60185621197581],[-58.03606173133191,-35.60210262474197],[-58.036232145083105,-35.60248414431992],[-58.036580617725605,-35.60383303630176],[-58.03672289187698,-35.60416976134845],[-58.0373130489199,-35.60499831758883],[-58.037565026624186,-35.60528906964547],[-58.038839371402766,-35.60782413287501],[-58.03895318082926,-35.60809352869856],[-58.03910479907004,-35.609151119832184],[-58.03908757940389,-35.61208038364584],[-58.03867867282627,-35.61246688482755],[-58.03849977968073,-35.612756655625894],[-58.03786783054367,-35.61378066853109],[-58.03661245828296,-35.61485047630962],[-58.036256387794,-35.61505634444725],[-58.03532216025449,-35.6153572217308],[-58.03380876856577,-35.615685674358836],[-58.03364496638421,-35.615822313269646],[-58.03348237977777,-35.616048993605006],[-58.03282451999275,-35.61639257064239],[-58.03216588104435,-35.616668637440085],[-58.031341338758466,-35.61692351596656],[-58.030875197138414,-35.61715279986613],[-58.030382667307244,-35.617472483118995],[-58.02967278147415,-35.61806435085063],[-58.028066285583776,-35.61974540672108],[-58.02757307220013,-35.62001992073867],[-58.02680455072708,-35.620341916876015],[-58.025436790722466,-35.62127738758152],[-58.023891412533125,-35.62163483509157],[-58.02147984104809,-35.622168801823086],[-58.02286772895557,-35.62328672145645],[-58.02458820842188,-35.62474034066966],[-58.023590824286394,-35.62669462744558],[-58.019710478945065,-35.6266747660653],[-58.0197103342944,-35.6267074741759],[-58.02584957409875,-35.631639154821336],[-58.03167000153358,-35.636548288195876],[-58.03474261940454,-35.63411103235695],[-58.040737987384645,-35.638295930371356],[-58.04264435427779,-35.6369748972047],[-58.04700382291446,-35.64069214930054],[-58.05222771487861,-35.645070327883225],[-58.05545141782951,-35.647879228687735],[-58.06371915105594,-35.655091943787546],[-58.06898946559074,-35.6511533614981],[-58.07760701394528,-35.64465342078953],[-58.081838873422114,-35.64141018355401],[-58.08524156582648,-35.644315950569066],[-58.08901344527885,-35.64761154337223],[-58.096390838728645,-35.653947527975035],[-58.10287331668459,-35.65953329315734],[-58.10898049950303,-35.664827616505235],[-58.11434009201927,-35.66070460088321],[-58.12150116675286,-35.65885885618855],[-58.121877673355996,-35.65864260238731],[-58.1220469341852,-35.65849205099479]]]}},{"type":"Feature","properties":{"CCA":"027110E","ARA3":13974.66,"SAG":"ARBA","PARTIDO":"027","CIRC":11,"SECC":"E","NOMENCLA":"Circ. XI - Secc. E","AREA_HA":1397.5},"geometry":{"type":"Polygon","coordinates":[[[-58.12599882007259,-35.64453438861452],[-58.10554102170936,-35.62669873021512],[-58.101258168610805,-35.622917996427255],[-58.09687800026801,-35.6190460041576],[-58.09474444129735,-35.61716919208773],[-58.073143650693474,-35.59776518514154],[-58.066006395448525,-35.5915767654571],[-58.06518271140231,-35.59082110097298],[-58.06482727031798,-35.59085711453763],[-58.06316865159246,-35.592122498761455],[-58.06323072685469,-35.59216981464228],[-58.06105552735039,-35.5938141674088],[-58.06099035981313,-35.59396820252302],[-58.054302399255896,-35.59898570716215],[-58.05395415263926,-35.59924690516834],[-58.059045692840144,-35.60364570920331],[-58.06734148236128,-35.61089564572228],[-58.07656940062932,-35.61886495630962],[-58.08213759401351,-35.62372783196407],[-58.09308633657459,-35.633203220504654],[-58.096015089651715,-35.63581705548578],[-58.10681697648769,-35.64532386824622],[-58.11542823309117,-35.65286506734361],[-58.1220469341852,-35.65849205099479],[-58.12484052845307,-35.660779047662324],[-58.130627113287424,-35.665687292888265],[-58.133182663906844,-35.66787028816108],[-58.13338820109532,-35.667731547688255],[-58.14353861653973,-35.660035608992786],[-58.12620391748122,-35.64469122344941],[-58.12599882007259,-35.64453438861452]]]}},{"type":"Feature","properties":{"CCA":"027110G","ARA3":32194.61,"SAG":"ARBA","PARTIDO":"027","CIRC":11,"SECC":"G","NOMENCLA":"Circ. XI - Secc. G","AREA_HA":3219.5},"geometry":{"type":"Polygon","coordinates":[[[-58.072873216057864,-35.543337526638105],[-58.073203909428244,-35.54361720863721],[-58.07170464965825,-35.544887265928274],[-58.07125132450544,-35.54575014960846],[-58.07104956394341,-35.546393846040374],[-58.07069266454353,-35.54731810553675],[-58.070356968203576,-35.547872607145244],[-58.06977877500878,-35.548501623518234],[-58.0692320647085,-35.54900372081286],[-58.06860519793362,-35.549307633340085],[-58.06793296709833,-35.549530524357515],[-58.06734759017653,-35.549626122240696],[-58.06655086482953,-35.54963317023639],[-58.065485508617805,-35.54942557741831],[-58.064388768881344,-35.549344891570826],[-58.063670262210266,-35.54941454373624],[-58.063209902334485,-35.5496117949854],[-58.06280560190091,-35.550004139576735],[-58.06237183493897,-35.550685993637714],[-58.06202718419387,-35.55140334161818],[-58.061931886201414,-35.551729641463936],[-58.06183471491084,-35.55276113745941],[-58.06172653583487,-35.553782543709296],[-58.06168085345412,-35.556187832148865],[-58.061421357561684,-35.55666026741747],[-58.06067477336267,-35.55711891813954],[-58.06067483166992,-35.557226333984666],[-58.06052563715793,-35.55768360058074],[-58.06088887990623,-35.558040886593815],[-58.06145447396178,-35.55911737548598],[-58.06013674476004,-35.56165250271912],[-58.05852071507617,-35.56402321796088],[-58.08128071044445,-35.564484503106264],[-58.078705632829184,-35.57492645158843],[-58.07621322880348,-35.58555247810856],[-58.07595403413104,-35.58605765836698],[-58.07515657614969,-35.58892763682476],[-58.07398281176395,-35.590178660882174],[-58.0723779767361,-35.591181363961304],[-58.071173385361256,-35.591571377757674],[-58.0697460780882,-35.59168413843341],[-58.06841717192062,-35.591737363272216],[-58.067279862297994,-35.59175985485489],[-58.066006395448525,-35.5915767654571],[-58.073143650693474,-35.59776518514154],[-58.09474444129735,-35.61716919208773],[-58.09687800026801,-35.6190460041576],[-58.101258168610805,-35.622917996427255],[-58.10554102170936,-35.62669873021512],[-58.12599882007259,-35.64453438861452],[-58.1504300733785,-35.62538389706473],[-58.14664394733263,-35.622092681391365],[-58.14693894848828,-35.61700930507247],[-58.124368950940706,-35.59755577821179],[-58.123631891195814,-35.59581375676673],[-58.11608743442221,-35.58919071286081],[-58.08677807313582,-35.56414854585006],[-58.0828178625137,-35.56075889299996],[-58.082285451081226,-35.56033211576856],[-58.081698598782175,-35.559279442466],[-58.07642452916067,-35.54259683163373],[-58.074849442506235,-35.541507265826674],[-58.07478590272101,-35.541024413505504],[-58.07459122144213,-35.541258483337494],[-58.07472483850026,-35.54151257507721],[-58.07408779097095,-35.5425820504369],[-58.072873216057864,-35.543337526638105]]]}},{"type":"Feature","properties":{"CCA":"027110K","ARA3":28172.77,"SAG":"ARBA","PARTIDO":"027","CIRC":11,"SECC":"K","NOMENCLA":"Circ. XI - Secc. K","AREA_HA":2817.3},"geometry":{"type":"Polygon","coordinates":[[[-58.1504300733785,-35.62538389706473],[-58.15095526195091,-35.625497034171175],[-58.15152358608458,-35.62507420338115],[-58.164231888737085,-35.615400281326735],[-58.1648362045312,-35.6147676971547],[-58.168057871745354,-35.612444301617195],[-58.17184038071818,-35.60961144229964],[-58.175596682158115,-35.60655052312275],[-58.16859934806011,-35.60042146059669],[-58.16816452941863,-35.60073520640027],[-58.15229305462725,-35.58676436934547],[-58.14597749709486,-35.58136647294607],[-58.14553389610571,-35.58075606109315],[-58.14501672587911,-35.58025085000359],[-58.14396227225342,-35.57916162198166],[-58.10857752886729,-35.54880703410532],[-58.10620818044578,-35.546260516328054],[-58.10478760291214,-35.54489603106146],[-58.10122392241875,-35.54436694227738],[-58.100457139867935,-35.54403225378286],[-58.09850640978938,-35.54263789395094],[-58.096269268726125,-35.5415715914171],[-58.095003052856654,-35.54174614488419],[-58.0928083919705,-35.54190590976963],[-58.09158977747262,-35.54208118022037],[-58.091316577571604,-35.54287607511126],[-58.08933559378411,-35.54316441737656],[-58.088507433050104,-35.543081720497156],[-58.087927056667176,-35.542974292213565],[-58.08720707984209,-35.54273298984401],[-58.08290643590916,-35.5406763130268],[-58.08224187090074,-35.540456949236805],[-58.0788407775742,-35.53967629938608],[-58.07804023421085,-35.53959334050958],[-58.07768183959068,-35.53959654740091],[-58.07693920262892,-35.539715818571906],[-58.076554505165795,-35.53980934699139],[-58.07612628164019,-35.54002185050865],[-58.07504676307002,-35.54071074838287],[-58.07478590272101,-35.541024413505504],[-58.074849442506235,-35.541507265826674],[-58.07642452916067,-35.54259683163373],[-58.081698598782175,-35.559279442466],[-58.082285451081226,-35.56033211576856],[-58.0828178625137,-35.56075889299996],[-58.08677807313582,-35.56414854585006],[-58.11608743442221,-35.58919071286081],[-58.123631891195814,-35.59581375676673],[-58.124368950940706,-35.59755577821179],[-58.14693894848828,-35.61700930507247],[-58.14664394733263,-35.622092681391365],[-58.1504300733785,-35.62538389706473]]]}},{"type":"Feature","properties":{"CCA":"027110M","ARA3":4808.14,"SAG":"ARBA","PARTIDO":"027","CIRC":11,"SECC":"M","NOMENCLA":"Circ. XI - Secc. M","AREA_HA":480.8},"geometry":{"type":"Polygon","coordinates":[[[-58.06518271140231,-35.59082110097298],[-58.066006395448525,-35.5915767654571],[-58.067279862297994,-35.59175985485489],[-58.06841717192062,-35.591737363272216],[-58.0697460780882,-35.59168413843341],[-58.071173385361256,-35.591571377757674],[-58.0723779767361,-35.591181363961304],[-58.07398281176395,-35.590178660882174],[-58.07515657614969,-35.58892763682476],[-58.07573505757798,-35.58781830436469],[-58.07621322880348,-35.58555247810856],[-58.078705632829184,-35.57492645158843],[-58.08128071044445,-35.564484503106264],[-58.05852071507617,-35.56402321796088],[-58.05832537002252,-35.56439467080043],[-58.05795626864582,-35.56568220591983],[-58.05647532745949,-35.568398937965846],[-58.055968846001896,-35.569732730552666],[-58.055838405073175,-35.570297166175656],[-58.0558437150374,-35.5707026698516],[-58.055819411232356,-35.570950719051616],[-58.05605066826917,-35.571759788832914],[-58.05840388293826,-35.57554056689618],[-58.060619626099616,-35.5803560166018],[-58.06153358328519,-35.581730797105294],[-58.06314081463371,-35.58279672629027],[-58.06390629449494,-35.583555794256085],[-58.064787592384896,-35.58493002603014],[-58.06505965157406,-35.58584111117834],[-58.06537903508238,-35.58749972085439],[-58.06543240027397,-35.58892201778574],[-58.06533740420412,-35.59042141164517],[-58.06518271140231,-35.59082110097298]]]}}]}