{"type":"FeatureCollection","features":[{"type":"Feature","geometry":{"type":"Point","coordinates":[-57.97116,-35.574263,0]},"properties":{"name":"Junta Vecinal Barrio El Porteño","styleUrl":"#icon-1899-DB4436-nodesc","icon-opacity":1,"icon-color":"#db4436","icon-scale":1,"icon-offset":[32,64],"icon-offset-units":["pixels","insetPixels"],"icon":"https://www.gstatic.com/mapspro/images/stock/503-wht-blank_maps.png"}},{"type":"Feature","geometry":{"type":"Point","coordinates":[-58.014401,-35.560794,0]},"properties":{"name":"Soc de fomento Barrio Jardin","styleUrl":"#icon-1899-DB4436-nodesc","icon-opacity":1,"icon-color":"#db4436","icon-scale":1,"icon-offset":[32,64],"icon-offset-units":["pixels","insetPixels"],"icon":"https://www.gstatic.com/mapspro/images/stock/503-wht-blank_maps.png"}},{"type":"Feature","geometry":{"type":"Point","coordinates":[-58.010666,-35.565906,0]},"properties":{"name":"Soc de fomento y biblioteca Villa Lujan","styleUrl":"#icon-1899-DB4436-nodesc","icon-opacity":1,"icon-color":"#db4436","icon-scale":1,"icon-offset":[32,64],"icon-offset-units":["pixels","insetPixels"],"icon":"https://www.gstatic.com/mapspro/images/stock/503-wht-blank_maps.png"}},{"type":"Feature","geometry":{"type":"Point","coordinates":[-58.017228,-35.532936,0]},"properties":{"name":"Soc de fomento y biblioteca Barrio San Cayetano","styleUrl":"#icon-1899-DB4436-nodesc","icon-opacity":1,"icon-color":"#db4436","icon-scale":1,"icon-offset":[32,64],"icon-offset-units":["pixels","insetPixels"],"icon":"https://www.gstatic.com/mapspro/images/stock/503-wht-blank_maps.png"}},{"type":"Feature","geometry":{"type":"Point","coordinates":[-58.000636,-35.571023,0]},"properties":{"name":"Soc. de fomento El Hueco","styleUrl":"#icon-1899-DB4436-nodesc","icon-opacity":1,"icon-color":"#db4436","icon-scale":1,"icon-offset":[32,64],"icon-offset-units":["pixels","insetPixels"],"icon":"https://www.gstatic.com/mapspro/images/stock/503-wht-blank_maps.png"}},{"type":"Feature","geometry":{"type":"Point","coordinates":[-58.014682,-35.5582,0]},"properties":{"name":"Junta Vecinal Acceso Norte- Soc. de fomento","styleUrl":"#icon-1899-DB4436-nodesc","icon-opacity":1,"icon-color":"#db4436","icon-scale":1,"icon-offset":[32,64],"icon-offset-units":["pixels","insetPixels"],"icon":"https://www.gstatic.com/mapspro/images/stock/503-wht-blank_maps.png"}},{"type":"Feature","geometry":{"type":"Point","coordinates":[-58.000447,-35.567439,0]},"properties":{"name":"Junta Vecinal Barrio Iporá","styleUrl":"#icon-1899-DB4436-nodesc","icon-opacity":1,"icon-color":"#db4436","icon-scale":1,"icon-offset":[32,64],"icon-offset-units":["pixels","insetPixels"],"icon":"https://www.gstatic.com/mapspro/images/stock/503-wht-blank_maps.png"}},{"type":"Feature","geometry":{"type":"Point","coordinates":[-57.99348,-35.570522,0]},"properties":{"name":"Union Vecinal Soc. de fomento La Noria","styleUrl":"#icon-1899-DB4436-nodesc","icon-opacity":1,"icon-color":"#db4436","icon-scale":1,"icon-offset":[32,64],"icon-offset-units":["pixels","insetPixels"],"icon":"https://www.gstatic.com/mapspro/images/stock/503-wht-blank_maps.png"}},{"type":"Feature","geometry":{"type":"Point","coordinates":[-57.985732,-35.57636,0]},"properties":{"name":"Asociacion B. Fernandez Moreno y biblioteca popular","styleUrl":"#icon-1899-DB4436-nodesc","icon-opacity":1,"icon-color":"#db4436","icon-scale":1,"icon-offset":[32,64],"icon-offset-units":["pixels","insetPixels"],"icon":"https://www.gstatic.com/mapspro/images/stock/503-wht-blank_maps.png"}}]}